{
  "id": 286978265,
  "type": "Feature",
  "properties": {
    "edtf:cessation":"u",
    "edtf:inception":"u",
    "geom:area":0.0,
    "geom:bbox":"15.40843,44.736759,15.40843,44.736759",
    "geom:latitude":44.736759,
    "geom:longitude":15.40843,
    "iso:country":"NL",
    "sg:address":"Oude Rykswg 14",
    "sg:city":"S Hr Hendr Kinder",
    "sg:classifiers":[],
    "sg:orig_category":"Bloemen En Planten - Decoratie",
    "sg:owner":"simplegeo",
    "sg:phone":"+31 113 232 261",
    "sg:postcode":"4472 AG",
    "sg:province":"HR.",
    "src:geom":"simplegeo",
    "wof:belongsto":[
        85633229,
        85684737
    ],
    "wof:breaches":[],
    "wof:concordances":{
        "sg:id":"SG_506Zt52BZD0fG0kX6tQTH2_44.736759_15.408430@1306269975"
    },
    "wof:country":"NL",
    "wof:geomhash":"56785df31eac3043013a5d10565c1422",
    "wof:hierarchy":[
        {
            "continent_id":-1,
            "country_id":85633229,
            "locality_id":-1,
            "neighbourhood_id":-1,
            "region_id":85684737,
            "venue_id":286978265
        }
    ],
    "wof:id":286978265,
    "wof:lastmodified":1449016884,
    "wof:name":"Bloemenkinderen, De",
    "wof:parent_id":-1,
    "wof:placetype":"venue",
    "wof:superseded_by":[],
    "wof:supersedes":[],
    "wof:tags":[]
},
  "bbox": [15.40843,44.736759,15.40843,44.736759],
  "geometry": {"coordinates":[15.40843,44.736759],"type":"Point"}
}