{
  "id": 252982757,
  "type": "Feature",
  "properties": {
    "edtf:cessation":"u",
    "edtf:inception":"u",
    "geom:area":0.0,
    "geom:bbox":"5.993024,52.18771,5.993024,52.18771",
    "geom:latitude":52.18771,
    "geom:longitude":5.993024,
    "iso:country":"NL",
    "sg:address":"Minden 38",
    "sg:city":"Apeldoorn",
    "sg:classifiers":[],
    "sg:orig_category":"Metaalbewerking",
    "sg:owner":"simplegeo",
    "sg:phone":"+31 55 542 8434",
    "sg:postcode":"7327 AW",
    "sg:province":"Gelderland",
    "src:geom":"simplegeo",
    "wof:belongsto":[
        85798781,
        85633337,
        85687043
    ],
    "wof:breaches":[],
    "wof:concordances":{
        "sg:id":"SG_5k6KLvc6RwL9786LO8Y84M_52.187710_5.993024@1306269945"
    },
    "wof:country":"NL",
    "wof:geomhash":"9b6de054f1982da56e9841b96dd73290",
    "wof:hierarchy":[
        {
            "continent_id":-1,
            "country_id":85633337,
            "locality_id":-1,
            "neighbourhood_id":85798781,
            "region_id":85687043,
            "venue_id":252982757
        }
    ],
    "wof:id":252982757,
    "wof:lastmodified":1449005600,
    "wof:name":"Gbs Bv",
    "wof:parent_id":85798781,
    "wof:placetype":"venue",
    "wof:superseded_by":[],
    "wof:supersedes":[],
    "wof:tags":[]
},
  "bbox": [5.993024,52.18771,5.993024,52.18771],
  "geometry": {"coordinates":[5.993024,52.18771],"type":"Point"}
}