{
  "id": 236375063,
  "type": "Feature",
  "properties": {
    "edtf:cessation":"u",
    "edtf:inception":"u",
    "geom:area":0.0,
    "geom:bbox":"5.967555,52.000103,5.967555,52.000103",
    "geom:latitude":52.000103,
    "geom:longitude":5.967555,
    "iso:country":"NL",
    "sg:address":"Enkweg 18",
    "sg:city":"Velp Gld",
    "sg:classifiers":[],
    "sg:orig_category":"Architecten",
    "sg:owner":"simplegeo",
    "sg:phone":"+31 26 362 1742",
    "sg:postcode":"6881 MA",
    "sg:province":"Gelderland",
    "src:geom":"simplegeo",
    "wof:belongsto":[
        85798321,
        85633337,
        101751857,
        85687043
    ],
    "wof:breaches":[],
    "wof:concordances":{
        "sg:id":"SG_4n5TelcMfycRG4rJbM71qr_52.000103_5.967555@1306269937"
    },
    "wof:country":"NL",
    "wof:geomhash":"32f79f2835b4a57a1e833865a13ecf7d",
    "wof:hierarchy":[
        {
            "continent_id":-1,
            "country_id":85633337,
            "locality_id":101751857,
            "neighbourhood_id":85798321,
            "region_id":85687043,
            "venue_id":236375063
        }
    ],
    "wof:id":236375063,
    "wof:lastmodified":1449001765,
    "wof:name":"Term",
    "wof:parent_id":85798321,
    "wof:placetype":"venue",
    "wof:superseded_by":[],
    "wof:supersedes":[],
    "wof:tags":[]
},
  "bbox": [5.967555,52.000103,5.967555,52.000103],
  "geometry": {"coordinates":[5.967555,52.000103],"type":"Point"}
}