{
  "id": 253000367,
  "type": "Feature",
  "properties": {
    "edtf:cessation":"u",
    "edtf:inception":"u",
    "geom:area":0.0,
    "geom:bbox":"6.158574,51.37838,6.158574,51.37838",
    "geom:latitude":51.37838,
    "geom:longitude":6.158574,
    "iso:country":"NL",
    "sg:address":"M Dammewg 17",
    "sg:city":"Venlo",
    "sg:classifiers":[],
    "sg:orig_category":"Metaalbewerking",
    "sg:owner":"simplegeo",
    "sg:phone":"+31 77 387 2388",
    "sg:postcode":"5928 PW",
    "sg:province":"Limburg",
    "src:geom":"simplegeo",
    "wof:belongsto":[
        85798541,
        85633337,
        85687033
    ],
    "wof:breaches":[],
    "wof:concordances":{
        "sg:id":"SG_4VQZGz1WtAQrYyIGOTjD58_51.378380_6.158574@1306269945"
    },
    "wof:country":"NL",
    "wof:geomhash":"c9e6069a5b85829ba6557e74a3ebf6bf",
    "wof:hierarchy":[
        {
            "continent_id":-1,
            "country_id":85633337,
            "locality_id":-1,
            "neighbourhood_id":85798541,
            "region_id":85687033,
            "venue_id":253000367
        }
    ],
    "wof:id":253000367,
    "wof:lastmodified":1449063288,
    "wof:name":"Vedos Bv",
    "wof:parent_id":85798541,
    "wof:placetype":"venue",
    "wof:superseded_by":[],
    "wof:supersedes":[],
    "wof:tags":[]
},
  "bbox": [6.158574,51.37838,6.158574,51.37838],
  "geometry": {"coordinates":[6.158574,51.37838],"type":"Point"}
}