{
  "id": 269808803,
  "type": "Feature",
  "properties": {
    "edtf:cessation":"u",
    "edtf:inception":"u",
    "geom:area":0.0,
    "geom:bbox":"5.752261,51.8559,5.752261,51.8559",
    "geom:latitude":51.8559,
    "geom:longitude":5.752261,
    "iso:country":"NL",
    "sg:address":"Hadrianussingel 42",
    "sg:city":"Beuningen Gld",
    "sg:classifiers":[
        {
            "category":"Fast Food",
            "subcategory":"",
            "type":"Food & Drink"
        }
    ],
    "sg:owner":"simplegeo",
    "sg:phone":"+31 24 675 0508",
    "sg:postcode":"6642 AJ",
    "sg:province":"Gelderland",
    "sg:tags":[
        "afhaal",
        "restaurant"
    ],
    "src:geom":"simplegeo",
    "wof:belongsto":[
        85633337,
        101808601,
        85687043
    ],
    "wof:breaches":[],
    "wof:concordances":{
        "sg:id":"SG_13YlFLL8FKyXeU4vfXp0iv_51.855900_5.752261@1306269958"
    },
    "wof:country":"NL",
    "wof:geomhash":"9bde267bd978f2e9ea705d84007c74d2",
    "wof:hierarchy":[
        {
            "continent_id":-1,
            "country_id":85633337,
            "locality_id":101808601,
            "neighbourhood_id":-1,
            "region_id":85687043,
            "venue_id":269808803
        }
    ],
    "wof:id":269808803,
    "wof:lastmodified":1449036247,
    "wof:name":"Lotus Palace",
    "wof:parent_id":-1,
    "wof:placetype":"venue",
    "wof:superseded_by":[],
    "wof:supersedes":[],
    "wof:tags":[
        "afhaal",
        "restaurant"
    ]
},
  "bbox": [5.752261,51.8559,5.752261,51.8559],
  "geometry": {"coordinates":[5.752261,51.8559],"type":"Point"}
}