{
  "id": 236561915,
  "type": "Feature",
  "properties": {
    "edtf:cessation":"u",
    "edtf:inception":"u",
    "geom:area":0.0,
    "geom:bbox":"-121.317062,38.299633,-121.317062,38.299633",
    "geom:latitude":38.299633,
    "geom:longitude":-121.317062,
    "iso:country":"NL",
    "sg:address":"Parallelweg 21",
    "sg:city":"Neede",
    "sg:classifiers":[],
    "sg:orig_category":"Autokeuringen",
    "sg:owner":"simplegeo",
    "sg:phone":"+31 545 294 027",
    "sg:postcode":"7161 AE",
    "sg:province":"California",
    "src:geom":"simplegeo",
    "wof:belongsto":[
        85633793,
        85688637
    ],
    "wof:breaches":[],
    "wof:concordances":{
        "sg:id":"SG_7dYpGDdA6JMurCFqmYR5zc_38.299633_-121.317062@1306269939"
    },
    "wof:country":"NL",
    "wof:geomhash":"f9853e4fa399c92b48cee8e302629366",
    "wof:hierarchy":[
        {
            "continent_id":-1,
            "country_id":85633793,
            "locality_id":-1,
            "neighbourhood_id":-1,
            "region_id":85688637,
            "venue_id":236561915
        }
    ],
    "wof:id":236561915,
    "wof:lastmodified":1449004093,
    "wof:name":"Firma Gebr. Manuel",
    "wof:parent_id":-1,
    "wof:placetype":"venue",
    "wof:superseded_by":[],
    "wof:supersedes":[],
    "wof:tags":[]
},
  "bbox": [-121.317062,38.299633,-121.317062,38.299633],
  "geometry": {"coordinates":[-121.317062,38.299633],"type":"Point"}
}