{
  "id": 320438267,
  "type": "Feature",
  "properties": {
    "edtf:cessation":"u",
    "edtf:inception":"u",
    "geom:area":0.0,
    "geom:bbox":"4.55921,51.752781,4.55921,51.752781",
    "geom:latitude":51.752781,
    "geom:longitude":4.55921,
    "iso:country":"NL",
    "sg:address":"Christiaan Huygensstraat 19",
    "sg:city":"Strijen",
    "sg:classifiers":[],
    "sg:orig_category":"Goederenvervoer Over De Weg",
    "sg:owner":"simplegeo",
    "sg:phone":"+31 78 674 2576",
    "sg:postcode":"3291 CN",
    "sg:province":"South Holland",
    "src:geom":"simplegeo",
    "wof:belongsto":[
        85633337,
        101809849,
        85687041
    ],
    "wof:breaches":[],
    "wof:concordances":{
        "sg:id":"SG_3vwDAV7ussztbltm0qEGfl_51.752781_4.559210@1306269998"
    },
    "wof:country":"NL",
    "wof:geomhash":"b95fb3645dab967c34f6837a2b7f6355",
    "wof:hierarchy":[
        {
            "continent_id":-1,
            "country_id":85633337,
            "locality_id":101809849,
            "neighbourhood_id":-1,
            "region_id":85687041,
            "venue_id":320438267
        }
    ],
    "wof:id":320438267,
    "wof:lastmodified":1449012541,
    "wof:name":"Dorst Transport Vof",
    "wof:parent_id":-1,
    "wof:placetype":"venue",
    "wof:superseded_by":[],
    "wof:supersedes":[],
    "wof:tags":[]
},
  "bbox": [4.55921,51.752781,4.55921,51.752781],
  "geometry": {"coordinates":[4.55921,51.752781],"type":"Point"}
}