{
  "id": 253196363,
  "type": "Feature",
  "properties": {
    "edtf:cessation":"u",
    "edtf:inception":"u",
    "geom:area":0.0,
    "geom:bbox":"5.176022,51.547089,5.176022,51.547089",
    "geom:latitude":51.547089,
    "geom:longitude":5.176022,
    "iso:country":"NL",
    "sg:address":"Tilburgseweg 6",
    "sg:city":"Moergestel",
    "sg:classifiers":[],
    "sg:orig_category":"Meubelreparatie And -Restauratie",
    "sg:owner":"simplegeo",
    "sg:phone":"+31 13 513 2345",
    "sg:postcode":"5066 BV",
    "sg:province":"North Brabant",
    "src:geom":"simplegeo",
    "wof:belongsto":[
        85633337,
        101808281,
        85687035
    ],
    "wof:breaches":[],
    "wof:concordances":{
        "sg:id":"SG_3Ugyg9T1ym49lc7btJ495m_51.547089_5.176022@1306269947"
    },
    "wof:country":"NL",
    "wof:geomhash":"d57be8b8f5baf3f249ce042dbc65df17",
    "wof:hierarchy":[
        {
            "continent_id":-1,
            "country_id":85633337,
            "locality_id":101808281,
            "neighbourhood_id":-1,
            "region_id":85687035,
            "venue_id":253196363
        }
    ],
    "wof:id":253196363,
    "wof:lastmodified":1449063478,
    "wof:name":"J.M.H. Smits & Zoon",
    "wof:parent_id":-1,
    "wof:placetype":"venue",
    "wof:superseded_by":[],
    "wof:supersedes":[],
    "wof:tags":[]
},
  "bbox": [5.176022,51.547089,5.176022,51.547089],
  "geometry": {"coordinates":[5.176022,51.547089],"type":"Point"}
}