{
  "id": 269938835,
  "type": "Feature",
  "properties": {
    "edtf:cessation":"u",
    "edtf:inception":"u",
    "geom:area":0.0,
    "geom:bbox":"6.517228,52.860455,6.517228,52.860455",
    "geom:latitude":52.860455,
    "geom:longitude":6.517228,
    "iso:country":"NL",
    "sg:address":"Hekstraat 46",
    "sg:city":"Beilen",
    "sg:classifiers":[],
    "sg:orig_category":"Fietshandelaren",
    "sg:owner":"simplegeo",
    "sg:phone":"+31 593 524 645",
    "sg:postcode":"9411 NH",
    "sg:province":"Drenthe",
    "src:geom":"simplegeo",
    "wof:belongsto":[
        85633337,
        101807273,
        85687051
    ],
    "wof:breaches":[],
    "wof:concordances":{
        "sg:id":"SG_41DKJcxhK8Dwliv6G4Km6g_52.860455_6.517228@1306269959"
    },
    "wof:country":"NL",
    "wof:geomhash":"026b0eba1f03a6390070d92babde80b4",
    "wof:hierarchy":[
        {
            "continent_id":-1,
            "country_id":85633337,
            "locality_id":101807273,
            "neighbourhood_id":-1,
            "region_id":85687051,
            "venue_id":269938835
        }
    ],
    "wof:id":269938835,
    "wof:lastmodified":1449038107,
    "wof:name":"Winters",
    "wof:parent_id":-1,
    "wof:placetype":"venue",
    "wof:superseded_by":[],
    "wof:supersedes":[],
    "wof:tags":[]
},
  "bbox": [6.517228,52.860455,6.517228,52.860455],
  "geometry": {"coordinates":[6.517228,52.860455],"type":"Point"}
}