{
  "id": 320654963,
  "type": "Feature",
  "properties": {
    "edtf:cessation":"u",
    "edtf:inception":"u",
    "geom:area":0.0,
    "geom:bbox":"6.582458,51.933701,6.582458,51.933701",
    "geom:latitude":51.933701,
    "geom:longitude":6.582458,
    "iso:country":"NL",
    "sg:address":"Lichtenvoordsestr 44",
    "sg:city":"Aalten",
    "sg:classifiers":[],
    "sg:orig_category":"Zalenverhuur",
    "sg:owner":"simplegeo",
    "sg:phone":"+31 543 472 551",
    "sg:postcode":"7121 RA",
    "sg:province":"Gelderland",
    "src:geom":"simplegeo",
    "wof:belongsto":[
        85633337,
        85687043
    ],
    "wof:breaches":[],
    "wof:concordances":{
        "sg:id":"SG_1p8e7cXOY76u57XyWFVDV4_51.933701_6.582458@1306270001"
    },
    "wof:country":"NL",
    "wof:geomhash":"3bc25900be89d4162426593e4e39a98e",
    "wof:hierarchy":[
        {
            "continent_id":-1,
            "country_id":85633337,
            "locality_id":-1,
            "neighbourhood_id":-1,
            "region_id":85687043,
            "venue_id":320654963
        }
    ],
    "wof:id":320654963,
    "wof:lastmodified":1449012524,
    "wof:name":"Noorden, 'T",
    "wof:parent_id":-1,
    "wof:placetype":"venue",
    "wof:superseded_by":[],
    "wof:supersedes":[],
    "wof:tags":[]
},
  "bbox": [6.582458,51.933701,6.582458,51.933701],
  "geometry": {"coordinates":[6.582458,51.933701],"type":"Point"}
}