{
  "id": 336701559,
  "type": "Feature",
  "properties": {
    "edtf:cessation":"u",
    "edtf:inception":"u",
    "geom:area":0.0,
    "geom:bbox":"5.712385,52.844051,5.712385,52.844051",
    "geom:latitude":52.844051,
    "geom:longitude":5.712385,
    "iso:country":"NL",
    "sg:address":"Lynbaan 39",
    "sg:city":"Lemmer",
    "sg:classifiers":[
        {
            "category":"Professional",
            "subcategory":"Accounting & Tax Preparation",
            "type":"Services"
        }
    ],
    "sg:owner":"simplegeo",
    "sg:phone":"+31 514 565 544",
    "sg:postcode":"8531 JM",
    "sg:province":"Provincie Friesland",
    "sg:tags":[
        "accountant",
        "en",
        "-kantoren",
        "register-"
    ],
    "src:geom":"simplegeo",
    "wof:belongsto":[
        85633337,
        101807477,
        85687055
    ],
    "wof:breaches":[],
    "wof:concordances":{
        "sg:id":"SG_4cmA83kIS7WqOEzQHe6JG1_52.844051_5.712385@1306270004"
    },
    "wof:country":"NL",
    "wof:geomhash":"df7edf4c0c2531348effee65b3f8b94b",
    "wof:hierarchy":[
        {
            "continent_id":-1,
            "country_id":85633337,
            "locality_id":101807477,
            "neighbourhood_id":-1,
            "region_id":85687055,
            "venue_id":336701559
        }
    ],
    "wof:id":336701559,
    "wof:lastmodified":1448997807,
    "wof:name":"Leystra & Buijsman Bv",
    "wof:parent_id":-1,
    "wof:placetype":"venue",
    "wof:superseded_by":[],
    "wof:supersedes":[],
    "wof:tags":[
        "accountant",
        "en",
        "-kantoren",
        "register-"
    ]
},
  "bbox": [5.712385,52.844051,5.712385,52.844051],
  "geometry": {"coordinates":[5.712385,52.844051],"type":"Point"}
}