{
  "id": 320259347,
  "type": "Feature",
  "properties": {
    "edtf:cessation":"u",
    "edtf:inception":"u",
    "geom:area":0.0,
    "geom:bbox":"5.562663,51.623013,5.562663,51.623013",
    "geom:latitude":51.623013,
    "geom:longitude":5.562663,
    "iso:country":"NL",
    "sg:address":"Cederlaar 89",
    "sg:city":"Veghel",
    "sg:classifiers":[],
    "sg:orig_category":"Glasdecoratie",
    "sg:owner":"simplegeo",
    "sg:phone":"+31 413 352 132",
    "sg:postcode":"5467 HE",
    "sg:province":"Noord-Brabant",
    "src:geom":"simplegeo",
    "wof:belongsto":[
        85633337,
        101808329,
        85687035
    ],
    "wof:breaches":[],
    "wof:concordances":{
        "sg:id":"SG_7IS15WpEXnuM8BY8xuXBr6_51.623013_5.562663@1306269996"
    },
    "wof:country":"NL",
    "wof:geomhash":"b4886bf5feb1d660d5f82d133b2009ee",
    "wof:hierarchy":[
        {
            "continent_id":-1,
            "country_id":85633337,
            "locality_id":101808329,
            "neighbourhood_id":-1,
            "region_id":85687035,
            "venue_id":320259347
        }
    ],
    "wof:id":320259347,
    "wof:lastmodified":1449012116,
    "wof:name":"Reflexion Art",
    "wof:parent_id":-1,
    "wof:placetype":"venue",
    "wof:superseded_by":[],
    "wof:supersedes":[],
    "wof:tags":[]
},
  "bbox": [5.562663,51.623013,5.562663,51.623013],
  "geometry": {"coordinates":[5.562663,51.623013],"type":"Point"}
}