{
  "id": 253524713,
  "type": "Feature",
  "properties": {
    "edtf:cessation":"u",
    "edtf:inception":"u",
    "geom:area":0.0,
    "geom:bbox":"5.023586,51.527512,5.023586,51.527512",
    "geom:latitude":51.527512,
    "geom:longitude":5.023586,
    "iso:country":"NL",
    "sg:address":"Dorpstr 42",
    "sg:city":"Riel",
    "sg:classifiers":[],
    "sg:orig_category":"Parketvloeren",
    "sg:owner":"simplegeo",
    "sg:phone":"+31 13 534 0391",
    "sg:postcode":"5133 AH",
    "sg:province":"Noord-Brabant",
    "sg:website":"http://www.deparketteur.nl",
    "src:geom":"simplegeo",
    "wof:belongsto":[
        85797287,
        85633337,
        85687035
    ],
    "wof:breaches":[],
    "wof:concordances":{
        "sg:id":"SG_32Cc3aQpy3HrBeKvj2GxJm_51.527512_5.023586@1306269950"
    },
    "wof:country":"NL",
    "wof:geomhash":"142d0f6ad313bc34dd8d2ad4938a8751",
    "wof:hierarchy":[
        {
            "continent_id":-1,
            "country_id":85633337,
            "locality_id":-1,
            "neighbourhood_id":85797287,
            "region_id":85687035,
            "venue_id":253524713
        }
    ],
    "wof:id":253524713,
    "wof:lastmodified":1449062797,
    "wof:name":"Parketteur, De",
    "wof:parent_id":85797287,
    "wof:placetype":"venue",
    "wof:superseded_by":[],
    "wof:supersedes":[],
    "wof:tags":[]
},
  "bbox": [5.023586,51.527512,5.023586,51.527512],
  "geometry": {"coordinates":[5.023586,51.527512],"type":"Point"}
}