{
  "id": 203352701,
  "type": "Feature",
  "properties": {
    "edtf:cessation":"u",
    "edtf:inception":"u",
    "geom:area":0.0,
    "geom:bbox":"4.705824,52.030933,4.705824,52.030933",
    "geom:latitude":52.030933,
    "geom:longitude":4.705824,
    "iso:country":"NL",
    "sg:address":"Lekkenburg 72",
    "sg:city":"Gouda",
    "sg:classifiers":[],
    "sg:orig_category":"Voetbalverenigingen",
    "sg:owner":"simplegeo",
    "sg:phone":"+31 182 558 769",
    "sg:postcode":"2804 XD",
    "sg:province":"South Holland",
    "src:geom":"simplegeo",
    "wof:belongsto":[
        85797133,
        85633337,
        85687041
    ],
    "wof:breaches":[],
    "wof:concordances":{
        "sg:id":"SG_26h3SggG1yKyBb7PmtObYN_52.030933_4.705824@1306269923"
    },
    "wof:country":"NL",
    "wof:geomhash":"a67700f3567a538e51a69612a8edd1e4",
    "wof:hierarchy":[
        {
            "continent_id":-1,
            "country_id":85633337,
            "locality_id":-1,
            "neighbourhood_id":85797133,
            "region_id":85687041,
            "venue_id":203352701
        }
    ],
    "wof:id":203352701,
    "wof:lastmodified":1449026103,
    "wof:name":"Jodan Boys, De",
    "wof:parent_id":85797133,
    "wof:placetype":"venue",
    "wof:superseded_by":[],
    "wof:supersedes":[],
    "wof:tags":[]
},
  "bbox": [4.705824,52.030933,4.705824,52.030933],
  "geometry": {"coordinates":[4.705824,52.030933],"type":"Point"}
}