{
  "id": 236319483,
  "type": "Feature",
  "properties": {
    "edtf:cessation":"u",
    "edtf:inception":"u",
    "geom:area":0.0,
    "geom:bbox":"6.161062,51.362476,6.161062,51.362476",
    "geom:latitude":51.362476,
    "geom:longitude":6.161062,
    "iso:country":"NL",
    "sg:address":"Tegelsewg 80",
    "sg:city":"Venlo",
    "sg:classifiers":[],
    "sg:orig_category":"Arbo- En Bedrijfsgezondheids- Diensten",
    "sg:owner":"simplegeo",
    "sg:phone":"+31 77 351 2256",
    "sg:postcode":"5912 BK",
    "sg:province":"Limburg",
    "sg:website":"http://www.habitus.nl",
    "src:geom":"simplegeo",
    "wof:belongsto":[
        85797131,
        85633337,
        101839287,
        85687033
    ],
    "wof:breaches":[],
    "wof:concordances":{
        "sg:id":"SG_2PbyuAKu78EIOmSglIBImN_51.362476_6.161062@1306269936"
    },
    "wof:country":"NL",
    "wof:geomhash":"5e7e01590306e17f619f5f93df6f656d",
    "wof:hierarchy":[
        {
            "continent_id":-1,
            "country_id":85633337,
            "locality_id":101839287,
            "neighbourhood_id":85797131,
            "region_id":85687033,
            "venue_id":236319483
        }
    ],
    "wof:id":236319483,
    "wof:lastmodified":1449002914,
    "wof:name":"Habitus",
    "wof:parent_id":85797131,
    "wof:placetype":"venue",
    "wof:superseded_by":[],
    "wof:supersedes":[],
    "wof:tags":[]
},
  "bbox": [6.161062,51.362476,6.161062,51.362476],
  "geometry": {"coordinates":[6.161062,51.362476],"type":"Point"}
}