{
  "id": 270181281,
  "type": "Feature",
  "properties": {
    "edtf:cessation":"u",
    "edtf:inception":"u",
    "geom:area":0.0,
    "geom:bbox":"5.214598,52.366432,5.214598,52.366432",
    "geom:latitude":52.366432,
    "geom:longitude":5.214598,
    "iso:country":"NL",
    "sg:address":"Hengelostr 152",
    "sg:city":"Almere",
    "sg:classifiers":[],
    "sg:orig_category":"Fotoreportages",
    "sg:owner":"simplegeo",
    "sg:phone":"+31 36 537 6532",
    "sg:postcode":"1324 GZ",
    "sg:province":"Flevoland",
    "src:geom":"simplegeo",
    "wof:belongsto":[
        85633337,
        101751877,
        85687049
    ],
    "wof:breaches":[],
    "wof:concordances":{
        "sg:id":"SG_0XEEelrQhavjVm1tSrykwT_52.366432_5.214598@1306269962"
    },
    "wof:country":"NL",
    "wof:geomhash":"aa14206243c96a9ed90d3859c0561075",
    "wof:hierarchy":[
        {
            "continent_id":-1,
            "country_id":85633337,
            "locality_id":101751877,
            "neighbourhood_id":-1,
            "region_id":85687049,
            "venue_id":270181281
        }
    ],
    "wof:id":270181281,
    "wof:lastmodified":1449010134,
    "wof:name":"Deter, Hans",
    "wof:parent_id":-1,
    "wof:placetype":"venue",
    "wof:superseded_by":[],
    "wof:supersedes":[],
    "wof:tags":[]
},
  "bbox": [5.214598,52.366432,5.214598,52.366432],
  "geometry": {"coordinates":[5.214598,52.366432],"type":"Point"}
}