{
  "id": 219172105,
  "type": "Feature",
  "properties": {
    "edtf:cessation":"u",
    "edtf:inception":"u",
    "geom:area":0.0,
    "geom:bbox":"4.9643,52.091549,4.9643,52.091549",
    "geom:latitude":52.091549,
    "geom:longitude":4.9643,
    "iso:country":"NL",
    "sg:address":"Postbus 68",
    "sg:city":"Harmelen",
    "sg:classifiers":[
        {
            "category":"Professional",
            "subcategory":"",
            "type":"Services"
        }
    ],
    "sg:owner":"simplegeo",
    "sg:phone":"+31 348 449 560",
    "sg:postcode":"3480 DB",
    "sg:province":"Utrecht",
    "sg:tags":[
        "leasing"
    ],
    "sg:website":"http://www.adview.nl",
    "src:geom":"simplegeo",
    "wof:belongsto":[
        85633337,
        85687039
    ],
    "wof:breaches":[],
    "wof:concordances":{
        "sg:id":"SG_1ikbDOL9bViXhe1RdlPb8U_52.091549_4.964300@1306269924"
    },
    "wof:country":"NL",
    "wof:geomhash":"e06fdeda546cee86473d69b06d9bfd2a",
    "wof:hierarchy":[
        {
            "continent_id":-1,
            "country_id":85633337,
            "locality_id":-1,
            "neighbourhood_id":-1,
            "region_id":85687039,
            "venue_id":219172105
        }
    ],
    "wof:id":219172105,
    "wof:lastmodified":1449071807,
    "wof:name":"Adview Bv",
    "wof:parent_id":-1,
    "wof:placetype":"venue",
    "wof:superseded_by":[],
    "wof:supersedes":[],
    "wof:tags":[
        "leasing"
    ]
},
  "bbox": [4.9643,52.091549,4.9643,52.091549],
  "geometry": {"coordinates":[4.9643,52.091549],"type":"Point"}
}