{
  "id": 202404219,
  "type": "Feature",
  "properties": {
    "edtf:cessation":"u",
    "edtf:inception":"u",
    "geom:area":0.0,
    "geom:bbox":"5.422293,51.87878,5.422293,51.87878",
    "geom:latitude":51.87878,
    "geom:longitude":5.422293,
    "iso:country":"NL",
    "sg:address":"Wadenoijenlaan 30",
    "sg:city":"Tiel",
    "sg:classifiers":[],
    "sg:orig_category":"Verhuisdiensten",
    "sg:owner":"simplegeo",
    "sg:phone":"+31 344 615 577",
    "sg:postcode":"4001 TH",
    "sg:province":"Gelderland",
    "src:geom":"simplegeo",
    "wof:belongsto":[
        85797475,
        85633337,
        101809879,
        85687043
    ],
    "wof:breaches":[],
    "wof:concordances":{
        "sg:id":"SG_34HuqZUoHmP4JvsDyotpHz_51.878780_5.422293@1306269914"
    },
    "wof:country":"NL",
    "wof:geomhash":"95437651338b4a833a10ab8a6e58ea17",
    "wof:hierarchy":[
        {
            "continent_id":-1,
            "country_id":85633337,
            "locality_id":101809879,
            "neighbourhood_id":85797475,
            "region_id":85687043,
            "venue_id":202404219
        }
    ],
    "wof:id":202404219,
    "wof:lastmodified":1449061773,
    "wof:name":"Verhuisbedrijf De Bruijn",
    "wof:parent_id":85797475,
    "wof:placetype":"venue",
    "wof:superseded_by":[],
    "wof:supersedes":[],
    "wof:tags":[]
},
  "bbox": [5.422293,51.87878,5.422293,51.87878],
  "geometry": {"coordinates":[5.422293,51.87878],"type":"Point"}
}