{
  "id": 270460105,
  "type": "Feature",
  "properties": {
    "edtf:cessation":"u",
    "edtf:inception":"u",
    "geom:area":0.0,
    "geom:bbox":"-100.301712,47.467731,-100.301712,47.467731",
    "geom:latitude":47.467731,
    "geom:longitude":-100.301712,
    "iso:country":"NL",
    "sg:address":"Veerweg 16",
    "sg:city":"3350 Ad",
    "sg:classifiers":[
        {
            "category":"Banks & Credit Unions",
            "subcategory":"Bank",
            "type":"Services"
        }
    ],
    "sg:owner":"simplegeo",
    "sg:phone":"+31 78 642 1400",
    "sg:postcode":"PAPE ND",
    "src:geom":"simplegeo",
    "wof:belongsto":[
        85633793,
        85688525
    ],
    "wof:breaches":[],
    "wof:concordances":{
        "sg:id":"SG_2RBG6turlzbcyuorrmxWZc_47.467731_-100.301712@1306269965"
    },
    "wof:country":"NL",
    "wof:geomhash":"3ccf6121946b926aae2660aa72f37204",
    "wof:hierarchy":[
        {
            "continent_id":-1,
            "country_id":85633793,
            "locality_id":-1,
            "neighbourhood_id":-1,
            "region_id":85688525,
            "venue_id":270460105
        }
    ],
    "wof:id":270460105,
    "wof:lastmodified":1449010978,
    "wof:name":"Ing Bank Nv",
    "wof:parent_id":-1,
    "wof:placetype":"venue",
    "wof:superseded_by":[],
    "wof:supersedes":[],
    "wof:tags":[]
},
  "bbox": [-100.301712,47.467731,-100.301712,47.467731],
  "geometry": {"coordinates":[-100.301712,47.467731],"type":"Point"}
}