{
  "id": 252765299,
  "type": "Feature",
  "properties": {
    "edtf:cessation":"u",
    "edtf:inception":"u",
    "geom:area":0.0,
    "geom:bbox":"6.959475,52.984375,6.959475,52.984375",
    "geom:latitude":52.984375,
    "geom:longitude":6.959475,
    "iso:country":"NL",
    "sg:address":"Manegeln 1",
    "sg:city":"Stadskanaal",
    "sg:classifiers":[
        {
            "category":"Sports & Exercise",
            "subcategory":"Stables",
            "type":"Entertainment"
        }
    ],
    "sg:owner":"simplegeo",
    "sg:phone":"+31 599 614 254",
    "sg:postcode":"9502 CB",
    "sg:province":"Groningen",
    "sg:tags":[
        "maneges"
    ],
    "src:geom":"simplegeo",
    "wof:belongsto":[
        85633337,
        101837895,
        85687059
    ],
    "wof:breaches":[],
    "wof:concordances":{
        "sg:id":"SG_1gHovB69sJPKkhIPutN8dA_52.984375_6.959475@1306269943"
    },
    "wof:country":"NL",
    "wof:geomhash":"0114e38369fbacdea09f9d6535d04a2b",
    "wof:hierarchy":[
        {
            "continent_id":-1,
            "country_id":85633337,
            "locality_id":101837895,
            "neighbourhood_id":-1,
            "region_id":85687059,
            "venue_id":252765299
        }
    ],
    "wof:id":252765299,
    "wof:lastmodified":1449006040,
    "wof:name":"Kanaalstreek, De",
    "wof:parent_id":-1,
    "wof:placetype":"venue",
    "wof:superseded_by":[],
    "wof:supersedes":[],
    "wof:tags":[
        "maneges"
    ]
},
  "bbox": [6.959475,52.984375,6.959475,52.984375],
  "geometry": {"coordinates":[6.959475,52.984375],"type":"Point"}
}