{
  "id": 186450547,
  "type": "Feature",
  "properties": {
    "edtf:cessation":"u",
    "edtf:inception":"u",
    "geom:area":0.0,
    "geom:bbox":"5.329341,51.597893,5.329341,51.597893",
    "geom:latitude":51.597893,
    "geom:longitude":5.329341,
    "iso:country":"NL",
    "sg:address":"De Voetboog 1",
    "sg:city":"Boxtel",
    "sg:classifiers":[],
    "sg:orig_category":"Verenigingen En Stichtingen",
    "sg:owner":"simplegeo",
    "sg:phone":"+31 411 689 089",
    "sg:postcode":"5283 WL",
    "sg:province":"North Brabant",
    "src:geom":"simplegeo",
    "wof:belongsto":[
        85633337,
        101839333,
        85687035
    ],
    "wof:breaches":[],
    "wof:concordances":{
        "sg:id":"SG_42XE2Df5QMdez8SwahwbzE_51.597893_5.329341@1306269912"
    },
    "wof:country":"NL",
    "wof:geomhash":"bdcad470c7dc14ed0014be6d95bfda4d",
    "wof:hierarchy":[
        {
            "continent_id":-1,
            "country_id":85633337,
            "locality_id":101839333,
            "neighbourhood_id":-1,
            "region_id":85687035,
            "venue_id":186450547
        }
    ],
    "wof:id":186450547,
    "wof:lastmodified":1449052595,
    "wof:name":"Munsel, De",
    "wof:parent_id":-1,
    "wof:placetype":"venue",
    "wof:superseded_by":[],
    "wof:supersedes":[],
    "wof:tags":[]
},
  "bbox": [5.329341,51.597893,5.329341,51.597893],
  "geometry": {"coordinates":[5.329341,51.597893],"type":"Point"}
}