{
  "id": 185963435,
  "type": "Feature",
  "properties": {
    "edtf:cessation":"u",
    "edtf:inception":"u",
    "geom:area":0.0,
    "geom:bbox":"5.840935,51.982265,5.840935,51.982265",
    "geom:latitude":51.982265,
    "geom:longitude":5.840935,
    "iso:country":"NL",
    "sg:address":"Postpad 1",
    "sg:city":"Oosterbeek",
    "sg:classifiers":[],
    "sg:orig_category":"Kinderopvang",
    "sg:owner":"simplegeo",
    "sg:phone":"+31 26 333 3651",
    "sg:postcode":"6862 CM",
    "sg:province":"Gelderland",
    "src:geom":"simplegeo",
    "wof:belongsto":[
        85797665,
        85633337,
        85687043
    ],
    "wof:breaches":[],
    "wof:concordances":{
        "sg:id":"SG_26AFeXZOSgfBrOtolad2F1_51.982265_5.840935@1306269908"
    },
    "wof:country":"NL",
    "wof:geomhash":"9ba55599b1951576e907d4d32d6ca8ef",
    "wof:hierarchy":[
        {
            "continent_id":-1,
            "country_id":85633337,
            "locality_id":-1,
            "neighbourhood_id":85797665,
            "region_id":85687043,
            "venue_id":185963435
        }
    ],
    "wof:id":185963435,
    "wof:lastmodified":1449006769,
    "wof:name":"Dol-Fijn",
    "wof:parent_id":85797665,
    "wof:placetype":"venue",
    "wof:superseded_by":[],
    "wof:supersedes":[],
    "wof:tags":[]
},
  "bbox": [5.840935,51.982265,5.840935,51.982265],
  "geometry": {"coordinates":[5.840935,51.982265],"type":"Point"}
}