{
  "id": 286931477,
  "type": "Feature",
  "properties": {
    "edtf:cessation":"u",
    "edtf:inception":"u",
    "geom:area":0.0,
    "geom:bbox":"5.059936,52.641331,5.059936,52.641331",
    "geom:latitude":52.641331,
    "geom:longitude":5.059936,
    "iso:country":"NL",
    "sg:address":"Nieuwstraat 21",
    "sg:city":"Hoorn Nh",
    "sg:classifiers":[],
    "sg:orig_category":"Bloemen And Planten",
    "sg:owner":"simplegeo",
    "sg:phone":"+31 229 214 802",
    "sg:postcode":"1621 EA",
    "sg:province":"Noord-Holland",
    "src:geom":"simplegeo",
    "wof:belongsto":[
        85798357,
        85633337,
        101751883,
        85687053
    ],
    "wof:breaches":[],
    "wof:concordances":{
        "sg:id":"SG_2RlnwGR6ciiyGAFOQAj4uW_52.641331_5.059936@1306269975"
    },
    "wof:country":"NL",
    "wof:geomhash":"831c8024d51c8231e2482c969d1210db",
    "wof:hierarchy":[
        {
            "continent_id":-1,
            "country_id":85633337,
            "locality_id":101751883,
            "neighbourhood_id":85798357,
            "region_id":85687053,
            "venue_id":286931477
        }
    ],
    "wof:id":286931477,
    "wof:lastmodified":1449017830,
    "wof:name":"Vok Jong Bloemen En Planten",
    "wof:parent_id":85798357,
    "wof:placetype":"venue",
    "wof:superseded_by":[],
    "wof:supersedes":[],
    "wof:tags":[]
},
  "bbox": [5.059936,52.641331,5.059936,52.641331],
  "geometry": {"coordinates":[5.059936,52.641331],"type":"Point"}
}