{
  "id": 303396265,
  "type": "Feature",
  "properties": {
    "edtf:cessation":"u",
    "edtf:inception":"u",
    "geom:area":0.0,
    "geom:bbox":"6.857888,53.322594,6.857888,53.322594",
    "geom:latitude":53.322594,
    "geom:longitude":6.857888,
    "iso:country":"NL",
    "sg:address":"Postbus 70",
    "sg:city":"Appingedam",
    "sg:classifiers":[],
    "sg:orig_category":"Scholen Voor Basisonderwijs",
    "sg:owner":"simplegeo",
    "sg:phone":"+31 596 680 003",
    "sg:postcode":"9900 AB",
    "sg:province":"Groningen",
    "src:geom":"simplegeo",
    "wof:belongsto":[
        85633337,
        101837975,
        85687059
    ],
    "wof:breaches":[],
    "wof:concordances":{
        "sg:id":"SG_5ZL48uEd5sKjPv81Ubq8bV_53.322594_6.857888@1306269983"
    },
    "wof:country":"NL",
    "wof:geomhash":"b11a1dffa9e162da624f8636d6a3c5aa",
    "wof:hierarchy":[
        {
            "continent_id":-1,
            "country_id":85633337,
            "locality_id":101837975,
            "neighbourhood_id":-1,
            "region_id":85687059,
            "venue_id":303396265
        }
    ],
    "wof:id":303396265,
    "wof:lastmodified":1448999722,
    "wof:name":"Citer Chr, De",
    "wof:parent_id":-1,
    "wof:placetype":"venue",
    "wof:superseded_by":[],
    "wof:supersedes":[],
    "wof:tags":[]
},
  "bbox": [6.857888,53.322594,6.857888,53.322594],
  "geometry": {"coordinates":[6.857888,53.322594],"type":"Point"}
}