{
  "id": 236288877,
  "type": "Feature",
  "properties": {
    "edtf:cessation":"u",
    "edtf:inception":"u",
    "geom:area":0.0,
    "geom:bbox":"5.573798,51.417152,5.573798,51.417152",
    "geom:latitude":51.417152,
    "geom:longitude":5.573798,
    "iso:country":"NL",
    "sg:address":"Winkelcentrum Coevering 4",
    "sg:city":"Geldrop",
    "sg:classifiers":[],
    "sg:orig_category":"Apotheken",
    "sg:owner":"simplegeo",
    "sg:phone":"+31 40 285 4707",
    "sg:postcode":"5665 GA",
    "sg:province":"Noord-Brabant",
    "src:geom":"simplegeo",
    "wof:belongsto":[
        85797733,
        85633337,
        85687035
    ],
    "wof:breaches":[],
    "wof:concordances":{
        "sg:id":"SG_6CA2nXQFmWLxemxbY1avzs_51.417152_5.573798@1306269936"
    },
    "wof:country":"NL",
    "wof:geomhash":"f4b12a3a20f6e100a755380c1cb817ba",
    "wof:hierarchy":[
        {
            "continent_id":-1,
            "country_id":85633337,
            "locality_id":-1,
            "neighbourhood_id":85797733,
            "region_id":85687035,
            "venue_id":236288877
        }
    ],
    "wof:id":236288877,
    "wof:lastmodified":1449001936,
    "wof:name":"Coevering",
    "wof:parent_id":85797733,
    "wof:placetype":"venue",
    "wof:superseded_by":[],
    "wof:supersedes":[],
    "wof:tags":[]
},
  "bbox": [5.573798,51.417152,5.573798,51.417152],
  "geometry": {"coordinates":[5.573798,51.417152],"type":"Point"}
}