{
  "id": 219503107,
  "type": "Feature",
  "properties": {
    "edtf:cessation":"u",
    "edtf:inception":"u",
    "geom:area":0.0,
    "geom:bbox":"-101.464722,31.19459,-101.464722,31.19459",
    "geom:latitude":31.19459,
    "geom:longitude":-101.464722,
    "iso:country":"NL",
    "sg:address":"Grensheuvel 5",
    "sg:city":"Best",
    "sg:classifiers":[],
    "sg:orig_category":"Loopbaanbegeleiding",
    "sg:owner":"simplegeo",
    "sg:phone":"+31 499 311 082",
    "sg:postcode":"5685 AG",
    "sg:province":"Noord-Brabant",
    "src:geom":"simplegeo",
    "wof:belongsto":[
        85688753,
        85633793,
        101723789,
        102081067
    ],
    "wof:breaches":[],
    "wof:concordances":{
        "sg:id":"SG_5WDHtzqSEKEUHcSGXVW7Hn_31.194590_-101.464722@1306269926"
    },
    "wof:country":"NL",
    "wof:geomhash":"d6cc21b0fca02f1bbc7b703c0d481bc6",
    "wof:hierarchy":[
        {
            "continent_id":-1,
            "country_id":85633793,
            "county_id":102081067,
            "locality_id":101723789,
            "neighbourhood_id":-1,
            "region_id":85688753,
            "venue_id":219503107
        }
    ],
    "wof:id":219503107,
    "wof:lastmodified":1449073925,
    "wof:name":"Papillon",
    "wof:parent_id":-1,
    "wof:placetype":"venue",
    "wof:superseded_by":[],
    "wof:supersedes":[],
    "wof:tags":[]
},
  "bbox": [-101.464722,31.19459,-101.464722,31.19459],
  "geometry": {"coordinates":[-101.464722,31.19459],"type":"Point"}
}