{
  "id": 336876737,
  "type": "Feature",
  "properties": {
    "edtf:cessation":"u",
    "edtf:inception":"u",
    "geom:area":0.0,
    "geom:bbox":"5.646151,52.893536,5.646151,52.893536",
    "geom:latitude":52.893536,
    "geom:longitude":5.646151,
    "iso:country":"NL",
    "sg:address":"Bolwerk Zz 41",
    "sg:city":"Sloten Fr",
    "sg:classifiers":[],
    "sg:orig_category":"Onderhoudswerken",
    "sg:owner":"simplegeo",
    "sg:phone":"+31 514 531 495",
    "sg:postcode":"8556 XS",
    "sg:province":"Provincie Friesland",
    "src:geom":"simplegeo",
    "wof:belongsto":[
        85633337,
        85687055
    ],
    "wof:breaches":[],
    "wof:concordances":{
        "sg:id":"SG_61SAnncBfGPJnD9oeqzZwv_52.893536_5.646151@1306270007"
    },
    "wof:country":"NL",
    "wof:geomhash":"0fee9a4e34468affb8a413eda9565866",
    "wof:hierarchy":[
        {
            "continent_id":-1,
            "country_id":85633337,
            "locality_id":-1,
            "neighbourhood_id":-1,
            "region_id":85687055,
            "venue_id":336876737
        }
    ],
    "wof:id":336876737,
    "wof:lastmodified":1448997166,
    "wof:name":"Sluis, T Van Der",
    "wof:parent_id":-1,
    "wof:placetype":"venue",
    "wof:superseded_by":[],
    "wof:supersedes":[],
    "wof:tags":[]
},
  "bbox": [5.646151,52.893536,5.646151,52.893536],
  "geometry": {"coordinates":[5.646151,52.893536],"type":"Point"}
}