{
  "id": 185654877,
  "type": "Feature",
  "properties": {
    "edtf:cessation":"u",
    "edtf:inception":"u",
    "geom:area":0.0,
    "geom:bbox":"5.09981,52.028019,5.09981,52.028019",
    "geom:latitude":52.028019,
    "geom:longitude":5.09981,
    "iso:country":"NL",
    "sg:address":"Marconibaan 1D",
    "sg:city":"Nieuwegein",
    "sg:classifiers":[],
    "sg:orig_category":"Kappersbenodigdheden",
    "sg:owner":"simplegeo",
    "sg:phone":"+31 30 630 0514",
    "sg:postcode":"3439 MR",
    "sg:province":"Utrecht",
    "src:geom":"simplegeo",
    "wof:belongsto":[
        85798061,
        85633337,
        101751825,
        85687039
    ],
    "wof:breaches":[],
    "wof:concordances":{
        "sg:id":"SG_02uVr5EUsRNWAMLeFGtPEP_52.028019_5.099810@1306269906"
    },
    "wof:country":"NL",
    "wof:geomhash":"661583a98ffd6720e92fc1ca9665a38e",
    "wof:hierarchy":[
        {
            "continent_id":-1,
            "country_id":85633337,
            "locality_id":101751825,
            "neighbourhood_id":85798061,
            "region_id":85687039,
            "venue_id":185654877
        }
    ],
    "wof:id":185654877,
    "wof:lastmodified":1449007145,
    "wof:name":"Farouk Systems Europe",
    "wof:parent_id":85798061,
    "wof:placetype":"venue",
    "wof:superseded_by":[],
    "wof:supersedes":[],
    "wof:tags":[]
},
  "bbox": [5.09981,52.028019,5.09981,52.028019],
  "geometry": {"coordinates":[5.09981,52.028019],"type":"Point"}
}