{
  "id": 219836639,
  "type": "Feature",
  "properties": {
    "edtf:cessation":"u",
    "edtf:inception":"u",
    "geom:area":0.0,
    "geom:bbox":"4.61133,52.372871,4.61133,52.372871",
    "geom:latitude":52.372871,
    "geom:longitude":4.61133,
    "iso:country":"NL",
    "sg:address":"Kykduinstr 43",
    "sg:city":"Haarlem",
    "sg:classifiers":[],
    "sg:orig_category":"Adviesbureaus Bedrijfsorganisatie",
    "sg:owner":"simplegeo",
    "sg:phone":"+31 23 544 5876",
    "sg:postcode":"2014 DD",
    "sg:province":"Noord-Holland",
    "sg:website":"http://www.newconcept.biz",
    "src:geom":"simplegeo",
    "wof:belongsto":[
        85797103,
        85633337,
        101754813,
        85687053
    ],
    "wof:breaches":[],
    "wof:concordances":{
        "sg:id":"SG_7KSN2W2qDLesCmRFuM1VQs_52.372871_4.611330@1306269929"
    },
    "wof:country":"NL",
    "wof:geomhash":"71e7e9759733d357dfb67f344317ae4b",
    "wof:hierarchy":[
        {
            "continent_id":-1,
            "country_id":85633337,
            "locality_id":101754813,
            "neighbourhood_id":85797103,
            "region_id":85687053,
            "venue_id":219836639
        }
    ],
    "wof:id":219836639,
    "wof:lastmodified":1449072719,
    "wof:name":"Janssen Daalen",
    "wof:parent_id":85797103,
    "wof:placetype":"venue",
    "wof:superseded_by":[],
    "wof:supersedes":[],
    "wof:tags":[]
},
  "bbox": [4.61133,52.372871,4.61133,52.372871],
  "geometry": {"coordinates":[4.61133,52.372871],"type":"Point"}
}