{
  "id": 320706777,
  "type": "Feature",
  "properties": {
    "edtf:cessation":"u",
    "edtf:inception":"u",
    "geom:area":0.0,
    "geom:bbox":"4.973545,51.831051,4.973545,51.831051",
    "geom:latitude":51.831051,
    "geom:longitude":4.973545,
    "iso:country":"NL",
    "sg:address":"Kwekelstr 31",
    "sg:city":"Gorinchem",
    "sg:classifiers":[],
    "sg:orig_category":"Zonnebank- En Solariumcentra",
    "sg:owner":"simplegeo",
    "sg:phone":"+31 183 620 103",
    "sg:postcode":"4201 JV",
    "sg:province":"Zuid-Holland",
    "sg:website":"http://www.novelle.net",
    "src:geom":"simplegeo",
    "wof:belongsto":[
        85633337,
        101808515,
        85687041
    ],
    "wof:breaches":[],
    "wof:concordances":{
        "sg:id":"SG_7gjqj6w2FMXSt5fif7DPa3_51.831051_4.973545@1306270001"
    },
    "wof:country":"NL",
    "wof:geomhash":"260276b4432032cde3d9c5d57162f8cf",
    "wof:hierarchy":[
        {
            "continent_id":-1,
            "country_id":85633337,
            "locality_id":101808515,
            "neighbourhood_id":-1,
            "region_id":85687041,
            "venue_id":320706777
        }
    ],
    "wof:id":320706777,
    "wof:lastmodified":1449011511,
    "wof:name":"Novelle Zonnehemels/Fitness",
    "wof:parent_id":-1,
    "wof:placetype":"venue",
    "wof:superseded_by":[],
    "wof:supersedes":[],
    "wof:tags":[]
},
  "bbox": [4.973545,51.831051,4.973545,51.831051],
  "geometry": {"coordinates":[4.973545,51.831051],"type":"Point"}
}