{
  "id": 320091963,
  "type": "Feature",
  "properties": {
    "edtf:cessation":"u",
    "edtf:inception":"u",
    "geom:area":0.0,
    "geom:bbox":"5.097708,52.638439,5.097708,52.638439",
    "geom:latitude":52.638439,
    "geom:longitude":5.097708,
    "iso:country":"NL",
    "sg:address":"Diodewg 8",
    "sg:city":"Hoorn Nh",
    "sg:classifiers":[
        {
            "category":"Retail",
            "subcategory":"Auto Repair",
            "type":"Services"
        }
    ],
    "sg:owner":"simplegeo",
    "sg:phone":"+31 229 216 701",
    "sg:postcode":"1627 LL",
    "sg:province":"Noord-Holland",
    "sg:tags":[
        "garage"
    ],
    "src:geom":"simplegeo",
    "wof:belongsto":[
        85798357,
        85633337,
        101751883,
        85687053
    ],
    "wof:breaches":[],
    "wof:concordances":{
        "sg:id":"SG_7iJdRNXI0ScL1NsuyTkTVz_52.638439_5.097708@1306269994"
    },
    "wof:country":"NL",
    "wof:geomhash":"cd057828b909fefaf32c109979f192de",
    "wof:hierarchy":[
        {
            "continent_id":-1,
            "country_id":85633337,
            "locality_id":101751883,
            "neighbourhood_id":85798357,
            "region_id":85687053,
            "venue_id":320091963
        }
    ],
    "wof:id":320091963,
    "wof:lastmodified":1449011607,
    "wof:name":"Meulen Vof, Van Der",
    "wof:parent_id":85798357,
    "wof:placetype":"venue",
    "wof:superseded_by":[],
    "wof:supersedes":[],
    "wof:tags":[
        "garage"
    ]
},
  "bbox": [5.097708,52.638439,5.097708,52.638439],
  "geometry": {"coordinates":[5.097708,52.638439],"type":"Point"}
}