{
  "id": 236795095,
  "type": "Feature",
  "properties": {
    "edtf:cessation":"u",
    "edtf:inception":"u",
    "geom:area":0.0,
    "geom:bbox":"89.217346,23.945801,89.217346,23.945801",
    "geom:latitude":23.945801,
    "geom:longitude":89.217346,
    "iso:country":"NL",
    "sg:address":"Sperwerstr 14",
    "sg:city":"Wychen",
    "sg:classifiers":[],
    "sg:orig_category":"Autorijscholen",
    "sg:owner":"simplegeo",
    "sg:phone":"+31 24 641 3860",
    "sg:postcode":"6601 BD",
    "sg:province":"BD.70",
    "src:geom":"simplegeo",
    "wof:belongsto":[
        85632475,
        85669031
    ],
    "wof:breaches":[],
    "wof:concordances":{
        "sg:id":"SG_0BcGLPBXyAi3LZByDSjCfy_23.945801_89.217346@1306269941"
    },
    "wof:country":"NL",
    "wof:geomhash":"4d575790d618a6532f9671a164fe0057",
    "wof:hierarchy":[
        {
            "continent_id":-1,
            "country_id":85632475,
            "locality_id":-1,
            "neighbourhood_id":-1,
            "region_id":85669031,
            "venue_id":236795095
        }
    ],
    "wof:id":236795095,
    "wof:lastmodified":1449003631,
    "wof:name":"Loet & Roland Van Perlo",
    "wof:parent_id":-1,
    "wof:placetype":"venue",
    "wof:superseded_by":[],
    "wof:supersedes":[],
    "wof:tags":[]
},
  "bbox": [89.217346,23.945801,89.217346,23.945801],
  "geometry": {"coordinates":[89.217346,23.945801],"type":"Point"}
}