{
  "id": 303989865,
  "type": "Feature",
  "properties": {
    "edtf:cessation":"u",
    "edtf:inception":"u",
    "geom:area":0.0,
    "geom:bbox":"4.765172,52.272903,4.765172,52.272903",
    "geom:latitude":52.272903,
    "geom:longitude":4.765172,
    "iso:country":"NL",
    "sg:address":"Oosteinderwg 66",
    "sg:city":"Aalsmeer",
    "sg:classifiers":[],
    "sg:orig_category":"Honden- En Kattentrimsalons",
    "sg:owner":"simplegeo",
    "sg:phone":"+31 297 367 729",
    "sg:postcode":"1432 AM",
    "sg:province":"Noord-Holland",
    "src:geom":"simplegeo",
    "wof:belongsto":[
        85797169,
        85633337,
        85687053
    ],
    "wof:breaches":[],
    "wof:concordances":{
        "sg:id":"SG_2Q7i1YLy9GtJ59FxqkgvI6_52.272903_4.765172@1306269990"
    },
    "wof:country":"NL",
    "wof:geomhash":"423ae1b941fb9dd35ce1efebba664ae1",
    "wof:hierarchy":[
        {
            "continent_id":-1,
            "country_id":85633337,
            "locality_id":-1,
            "neighbourhood_id":85797169,
            "region_id":85687053,
            "venue_id":303989865
        }
    ],
    "wof:id":303989865,
    "wof:lastmodified":1448999913,
    "wof:name":"Loos, M W M",
    "wof:parent_id":85797169,
    "wof:placetype":"venue",
    "wof:superseded_by":[],
    "wof:supersedes":[],
    "wof:tags":[]
},
  "bbox": [4.765172,52.272903,4.765172,52.272903],
  "geometry": {"coordinates":[4.765172,52.272903],"type":"Point"}
}