{
  "id": 186522457,
  "type": "Feature",
  "properties": {
    "edtf:cessation":"u",
    "edtf:inception":"u",
    "geom:area":0.0,
    "geom:bbox":"6.279608,52.389877,6.279608,52.389877",
    "geom:latitude":52.389877,
    "geom:longitude":6.279608,
    "iso:country":"NL",
    "sg:address":"Stationsstr 1B",
    "sg:city":"Raalte",
    "sg:classifiers":[],
    "sg:orig_category":"Verenigingen En Stichtingen",
    "sg:owner":"simplegeo",
    "sg:phone":"+31 572 363 191",
    "sg:postcode":"8102 EB",
    "sg:province":"Overijssel",
    "src:geom":"simplegeo",
    "wof:belongsto":[
        85633337,
        101808759,
        85687045
    ],
    "wof:breaches":[],
    "wof:concordances":{
        "sg:id":"SG_4Q1dGWLEhUMRpoycM4jamD_52.389877_6.279608@1306269913"
    },
    "wof:country":"NL",
    "wof:geomhash":"d484b673e8484d76a5c622c35f5c8823",
    "wof:hierarchy":[
        {
            "continent_id":-1,
            "country_id":85633337,
            "locality_id":101808759,
            "neighbourhood_id":-1,
            "region_id":85687045,
            "venue_id":186522457
        }
    ],
    "wof:id":186522457,
    "wof:lastmodified":1449051657,
    "wof:name":"Traxx",
    "wof:parent_id":-1,
    "wof:placetype":"venue",
    "wof:superseded_by":[],
    "wof:supersedes":[],
    "wof:tags":[]
},
  "bbox": [6.279608,52.389877,6.279608,52.389877],
  "geometry": {"coordinates":[6.279608,52.389877],"type":"Point"}
}