{
  "id": 253080881,
  "type": "Feature",
  "properties": {
    "edtf:cessation":"u",
    "edtf:inception":"u",
    "geom:area":0.0,
    "geom:bbox":"5.893098,52.970913,5.893098,52.970913",
    "geom:latitude":52.970913,
    "geom:longitude":5.893098,
    "iso:country":"NL",
    "sg:address":"De Stapeling 10",
    "sg:city":"Heerenveen",
    "sg:classifiers":[
        {
            "category":"Parking",
            "subcategory":"Lot",
            "type":"Transportation"
        }
    ],
    "sg:owner":"simplegeo",
    "sg:phone":"+31 513 650 700",
    "sg:postcode":"8447 GN",
    "sg:province":"Friesland",
    "sg:tags":[
        "fab",
        "metalen",
        "tank"
    ],
    "src:geom":"simplegeo",
    "wof:belongsto":[
        85633337,
        101837957,
        85687055
    ],
    "wof:breaches":[],
    "wof:concordances":{
        "sg:id":"SG_193QCTZCeSZ1Cn4D3Fidj0_52.970913_5.893098@1306269946"
    },
    "wof:country":"NL",
    "wof:geomhash":"63ab6d5300fd4eef09eeef62f663fc7e",
    "wof:hierarchy":[
        {
            "continent_id":-1,
            "country_id":85633337,
            "locality_id":101837957,
            "neighbourhood_id":-1,
            "region_id":85687055,
            "venue_id":253080881
        }
    ],
    "wof:id":253080881,
    "wof:lastmodified":1449065721,
    "wof:name":"Siersema Heerenveen",
    "wof:parent_id":-1,
    "wof:placetype":"venue",
    "wof:superseded_by":[],
    "wof:supersedes":[],
    "wof:tags":[
        "fab",
        "metalen",
        "tank"
    ]
},
  "bbox": [5.893098,52.970913,5.893098,52.970913],
  "geometry": {"coordinates":[5.893098,52.970913],"type":"Point"}
}