{
  "id": 219739659,
  "type": "Feature",
  "properties": {
    "edtf:cessation":"u",
    "edtf:inception":"u",
    "geom:area":0.0,
    "geom:bbox":"4.703844,52.670696,4.703844,52.670696",
    "geom:latitude":52.670696,
    "geom:longitude":4.703844,
    "iso:country":"NL",
    "sg:address":"Pr Hendrikln 1",
    "sg:city":"Bergen Nh",
    "sg:classifiers":[],
    "sg:orig_category":"Adviesbureaus Bedrijfsorganisatie",
    "sg:owner":"simplegeo",
    "sg:phone":"+31 72 581 8633",
    "sg:postcode":"1862 EK",
    "sg:province":"Noord-Holland",
    "src:geom":"simplegeo",
    "wof:belongsto":[
        85633337,
        101808083,
        85687053
    ],
    "wof:breaches":[],
    "wof:concordances":{
        "sg:id":"SG_5oWuxlaFf1PALwB1Gzy6My_52.670696_4.703844@1306269928"
    },
    "wof:country":"NL",
    "wof:geomhash":"d3d3672e33d6264340e91721bc0c0d04",
    "wof:hierarchy":[
        {
            "continent_id":-1,
            "country_id":85633337,
            "locality_id":101808083,
            "neighbourhood_id":-1,
            "region_id":85687053,
            "venue_id":219739659
        }
    ],
    "wof:id":219739659,
    "wof:lastmodified":1449071873,
    "wof:name":"Bol Bv, Piet",
    "wof:parent_id":-1,
    "wof:placetype":"venue",
    "wof:superseded_by":[],
    "wof:supersedes":[],
    "wof:tags":[]
},
  "bbox": [4.703844,52.670696,4.703844,52.670696],
  "geometry": {"coordinates":[4.703844,52.670696],"type":"Point"}
}