{
  "id": 186102069,
  "type": "Feature",
  "properties": {
    "edtf:cessation":"u",
    "edtf:inception":"u",
    "geom:area":0.0,
    "geom:bbox":"6.883571,53.106979,6.883571,53.106979",
    "geom:latitude":53.106979,
    "geom:longitude":6.883571,
    "iso:country":"NL",
    "sg:address":"Beneden Oosterdiep 64",
    "sg:city":"Veendam",
    "sg:classifiers":[],
    "sg:orig_category":"Krantenuitgeverijen",
    "sg:owner":"simplegeo",
    "sg:phone":"+31 598 631 748",
    "sg:postcode":"9641 JE",
    "sg:province":"Groningen",
    "src:geom":"simplegeo",
    "wof:belongsto":[
        85633337,
        101838023,
        85687059
    ],
    "wof:breaches":[],
    "wof:concordances":{
        "sg:id":"SG_22uSHyNXpR9dExVr2d0IB7_53.106979_6.883571@1306269910"
    },
    "wof:country":"NL",
    "wof:geomhash":"4111e8203abe36875959613c5c53eb71",
    "wof:hierarchy":[
        {
            "continent_id":-1,
            "country_id":85633337,
            "locality_id":101838023,
            "neighbourhood_id":-1,
            "region_id":85687059,
            "venue_id":186102069
        }
    ],
    "wof:id":186102069,
    "wof:lastmodified":1449052826,
    "wof:name":"L & H Publishers",
    "wof:parent_id":-1,
    "wof:placetype":"venue",
    "wof:superseded_by":[],
    "wof:supersedes":[],
    "wof:tags":[]
},
  "bbox": [6.883571,53.106979,6.883571,53.106979],
  "geometry": {"coordinates":[6.883571,53.106979],"type":"Point"}
}