{
  "id": 203339149,
  "type": "Feature",
  "properties": {
    "edtf:cessation":"u",
    "edtf:inception":"u",
    "geom:area":0.0,
    "geom:bbox":"6.126179,51.334606,6.126179,51.334606",
    "geom:latitude":51.334606,
    "geom:longitude":6.126179,
    "iso:country":"NL",
    "sg:address":"Rozenstr 52",
    "sg:city":"Steyl",
    "sg:classifiers":[],
    "sg:orig_category":"Voetbalverenigingen",
    "sg:owner":"simplegeo",
    "sg:phone":"+31 77 373 4546",
    "sg:postcode":"5935 AN",
    "sg:province":"Limburg",
    "src:geom":"simplegeo",
    "wof:belongsto":[
        85798465,
        85633337,
        85687033
    ],
    "wof:breaches":[],
    "wof:concordances":{
        "sg:id":"SG_1CkG1YVWv2nFWnwCItuYN7_51.334606_6.126179@1306269923"
    },
    "wof:country":"NL",
    "wof:geomhash":"6800177a2818699cfe15ed7161453a52",
    "wof:hierarchy":[
        {
            "continent_id":-1,
            "country_id":85633337,
            "locality_id":-1,
            "neighbourhood_id":85798465,
            "region_id":85687033,
            "venue_id":203339149
        }
    ],
    "wof:id":203339149,
    "wof:lastmodified":1449025754,
    "wof:name":"Fc Steyl'67",
    "wof:parent_id":85798465,
    "wof:placetype":"venue",
    "wof:superseded_by":[],
    "wof:supersedes":[],
    "wof:tags":[]
},
  "bbox": [6.126179,51.334606,6.126179,51.334606],
  "geometry": {"coordinates":[6.126179,51.334606],"type":"Point"}
}