{
  "id": 270465015,
  "type": "Feature",
  "properties": {
    "edtf:cessation":"u",
    "edtf:inception":"u",
    "geom:area":0.0,
    "geom:bbox":"4.89599,52.376492,4.89599,52.376492",
    "geom:latitude":52.376492,
    "geom:longitude":4.89599,
    "iso:country":"NL",
    "sg:address":"Sint Jacobsstraat 4-6",
    "sg:city":"Amsterdam",
    "sg:classifiers":[
        {
            "category":"Bars & Pubs",
            "subcategory":"",
            "type":"Food & Drink"
        }
    ],
    "sg:owner":"simplegeo",
    "sg:phone":"+31 20 623 6758",
    "sg:postcode":"1012 NC",
    "sg:province":"Noord-Holland",
    "src:geom":"simplegeo",
    "wof:belongsto":[
        85797363,
        85633337,
        101751893,
        85687053
    ],
    "wof:breaches":[],
    "wof:concordances":{
        "sg:id":"SG_4qA9gPwMjZSb08fFHIPPEx_52.376492_4.895990@1306269965"
    },
    "wof:country":"NL",
    "wof:geomhash":"957e3b4aca389114f248080f84245da1",
    "wof:hierarchy":[
        {
            "continent_id":-1,
            "country_id":85633337,
            "locality_id":101751893,
            "neighbourhood_id":85797363,
            "region_id":85687053,
            "venue_id":270465015
        }
    ],
    "wof:id":270465015,
    "wof:lastmodified":1449010310,
    "wof:name":"Bar The Web",
    "wof:parent_id":85797363,
    "wof:placetype":"venue",
    "wof:superseded_by":[],
    "wof:supersedes":[],
    "wof:tags":[]
},
  "bbox": [4.89599,52.376492,4.89599,52.376492],
  "geometry": {"coordinates":[4.89599,52.376492],"type":"Point"}
}