{
  "id": 320058447,
  "type": "Feature",
  "properties": {
    "edtf:cessation":"u",
    "edtf:inception":"u",
    "geom:area":0.0,
    "geom:bbox":"5.580013,52.267448,5.580013,52.267448",
    "geom:latitude":52.267448,
    "geom:longitude":5.580013,
    "iso:country":"NL",
    "sg:address":"Nyverheidswg 4B",
    "sg:city":"Putten",
    "sg:classifiers":[
        {
            "category":"Retail",
            "subcategory":"Auto Repair",
            "type":"Services"
        }
    ],
    "sg:owner":"simplegeo",
    "sg:phone":"+31 341 361 193",
    "sg:postcode":"3881 LA",
    "sg:province":"Gelderland",
    "sg:tags":[
        "garage"
    ],
    "src:geom":"simplegeo",
    "wof:belongsto":[
        85633337,
        101837747,
        85687043
    ],
    "wof:breaches":[],
    "wof:concordances":{
        "sg:id":"SG_4XvfIkRWErbPmzUidvBttZ_52.267448_5.580013@1306269994"
    },
    "wof:country":"NL",
    "wof:geomhash":"e570cf7179e566080c5ac26ffb33ac1a",
    "wof:hierarchy":[
        {
            "continent_id":-1,
            "country_id":85633337,
            "locality_id":101837747,
            "neighbourhood_id":-1,
            "region_id":85687043,
            "venue_id":320058447
        }
    ],
    "wof:id":320058447,
    "wof:lastmodified":1449011807,
    "wof:name":"Brouwer, Autobedrijf",
    "wof:parent_id":-1,
    "wof:placetype":"venue",
    "wof:superseded_by":[],
    "wof:supersedes":[],
    "wof:tags":[
        "garage"
    ]
},
  "bbox": [5.580013,52.267448,5.580013,52.267448],
  "geometry": {"coordinates":[5.580013,52.267448],"type":"Point"}
}