{
  "id": 236130645,
  "type": "Feature",
  "properties": {
    "edtf:cessation":"u",
    "edtf:inception":"u",
    "geom:area":0.0,
    "geom:bbox":"4.711771,52.674915,4.711771,52.674915",
    "geom:latitude":52.674915,
    "geom:longitude":4.711771,
    "iso:country":"NL",
    "sg:address":"Langerijm 4",
    "sg:city":"Bergen Nh",
    "sg:classifiers":[],
    "sg:orig_category":"Timmerwerk Van Hout And Kunststof",
    "sg:owner":"simplegeo",
    "sg:phone":"+31 72 589 8285",
    "sg:postcode":"1862 BN",
    "sg:province":"Noord-Holland",
    "src:geom":"simplegeo",
    "wof:belongsto":[
        85633337,
        101808083,
        85687053
    ],
    "wof:breaches":[],
    "wof:concordances":{
        "sg:id":"SG_1wZyD9hj5lrcJbGqDiksMX_52.674915_4.711771@1306269934"
    },
    "wof:country":"NL",
    "wof:geomhash":"4b5a97435811c8febcaae00bfef4d4cf",
    "wof:hierarchy":[
        {
            "continent_id":-1,
            "country_id":85633337,
            "locality_id":101808083,
            "neighbourhood_id":-1,
            "region_id":85687053,
            "venue_id":236130645
        }
    ],
    "wof:id":236130645,
    "wof:lastmodified":1449002646,
    "wof:name":"Firma C Van Den Berg",
    "wof:parent_id":-1,
    "wof:placetype":"venue",
    "wof:superseded_by":[],
    "wof:supersedes":[],
    "wof:tags":[]
},
  "bbox": [4.711771,52.674915,4.711771,52.674915],
  "geometry": {"coordinates":[4.711771,52.674915],"type":"Point"}
}