{
  "id": 185744927,
  "type": "Feature",
  "properties": {
    "edtf:cessation":"u",
    "edtf:inception":"u",
    "geom:area":0.0,
    "geom:bbox":"5.09061,51.548569,5.09061,51.548569",
    "geom:latitude":51.548569,
    "geom:longitude":5.09061,
    "iso:country":"NL",
    "sg:address":"Biss Zwysenstr 82",
    "sg:city":"Tilburg",
    "sg:classifiers":[],
    "sg:orig_category":"Keukens",
    "sg:owner":"simplegeo",
    "sg:phone":"+31 13 536 0230",
    "sg:postcode":"5021 KC",
    "sg:province":"Noord-Brabant",
    "sg:website":"http://www.grando.nl",
    "src:geom":"simplegeo",
    "wof:belongsto":[
        85797033,
        85633337,
        101751817,
        85687035
    ],
    "wof:breaches":[],
    "wof:concordances":{
        "sg:id":"SG_02FSInF3Uf9UIWW0Q7yNJX_51.548569_5.090610@1306269907"
    },
    "wof:country":"NL",
    "wof:geomhash":"c2332649fd8da4507aa0245909b13364",
    "wof:hierarchy":[
        {
            "continent_id":-1,
            "country_id":85633337,
            "locality_id":101751817,
            "neighbourhood_id":85797033,
            "region_id":85687035,
            "venue_id":185744927
        }
    ],
    "wof:id":185744927,
    "wof:lastmodified":1449007175,
    "wof:name":"Grando",
    "wof:parent_id":85797033,
    "wof:placetype":"venue",
    "wof:superseded_by":[],
    "wof:supersedes":[],
    "wof:tags":[]
},
  "bbox": [5.09061,51.548569,5.09061,51.548569],
  "geometry": {"coordinates":[5.09061,51.548569],"type":"Point"}
}