{
  "id": 185875243,
  "type": "Feature",
  "properties": {
    "edtf:cessation":"u",
    "edtf:inception":"u",
    "geom:area":0.0,
    "geom:bbox":"4.878466,52.350002,4.878466,52.350002",
    "geom:latitude":52.350002,
    "geom:longitude":4.878466,
    "iso:country":"NL",
    "sg:address":"Beethovenstr 5A",
    "sg:city":"Amsterdam",
    "sg:classifiers":[],
    "sg:orig_category":"Kindermeubelen",
    "sg:owner":"simplegeo",
    "sg:phone":"+31 20 379 2292",
    "sg:postcode":"1077 HK",
    "sg:province":"North Holland",
    "src:geom":"simplegeo",
    "wof:belongsto":[
        85797363,
        85633337,
        101751893,
        85687053
    ],
    "wof:breaches":[],
    "wof:concordances":{
        "sg:id":"SG_1pUsTYynA7rpFVDQhj11ns_52.350002_4.878466@1306269908"
    },
    "wof:country":"NL",
    "wof:geomhash":"b5e79657ed3b5df9b6357b0618bc6e53",
    "wof:hierarchy":[
        {
            "continent_id":-1,
            "country_id":85633337,
            "locality_id":101751893,
            "neighbourhood_id":85797363,
            "region_id":85687053,
            "venue_id":185875243
        }
    ],
    "wof:id":185875243,
    "wof:lastmodified":1449007796,
    "wof:name":"Sterre & Tijl",
    "wof:parent_id":85797363,
    "wof:placetype":"venue",
    "wof:superseded_by":[],
    "wof:supersedes":[],
    "wof:tags":[]
},
  "bbox": [4.878466,52.350002,4.878466,52.350002],
  "geometry": {"coordinates":[4.878466,52.350002],"type":"Point"}
}