{
  "id": 219402545,
  "type": "Feature",
  "properties": {
    "edtf:cessation":"u",
    "edtf:inception":"u",
    "geom:area":0.0,
    "geom:bbox":"5.32783,51.800373,5.32783,51.800373",
    "geom:latitude":51.800373,
    "geom:longitude":5.32783,
    "iso:country":"NL",
    "sg:address":"Weteringshoek 18",
    "sg:city":"Rossum Gld",
    "sg:classifiers":[],
    "sg:orig_category":"Loodgieterswerk, Verwarming And Sanitaire Installaties",
    "sg:owner":"simplegeo",
    "sg:phone":"+31 418 662 626",
    "sg:postcode":"5328 BN",
    "sg:province":"Gelderland",
    "src:geom":"simplegeo",
    "wof:belongsto":[
        85633337,
        101809875,
        85687043
    ],
    "wof:breaches":[],
    "wof:concordances":{
        "sg:id":"SG_7bBfhKvhTv86VsZ7gGgvYk_51.800373_5.327830@1306269926"
    },
    "wof:country":"NL",
    "wof:geomhash":"2b421365a5c858d1accad66cd6120e41",
    "wof:hierarchy":[
        {
            "continent_id":-1,
            "country_id":85633337,
            "locality_id":101809875,
            "neighbourhood_id":-1,
            "region_id":85687043,
            "venue_id":219402545
        }
    ],
    "wof:id":219402545,
    "wof:lastmodified":1449071527,
    "wof:name":"Hs",
    "wof:parent_id":-1,
    "wof:placetype":"venue",
    "wof:superseded_by":[],
    "wof:supersedes":[],
    "wof:tags":[]
},
  "bbox": [5.32783,51.800373,5.32783,51.800373],
  "geometry": {"coordinates":[5.32783,51.800373],"type":"Point"}
}