{
  "id": 236087263,
  "type": "Feature",
  "properties": {
    "edtf:cessation":"u",
    "edtf:inception":"u",
    "geom:area":0.0,
    "geom:bbox":"5.670561,51.970165,5.670561,51.970165",
    "geom:latitude":51.970165,
    "geom:longitude":5.670561,
    "iso:country":"NL",
    "sg:address":"Veluviaweg 20",
    "sg:city":"Wageningen",
    "sg:classifiers":[],
    "sg:orig_category":"Technische Studies And Onderzoek",
    "sg:owner":"simplegeo",
    "sg:phone":"+31 317 418 396",
    "sg:postcode":"6706 AK",
    "sg:province":"Gelderland",
    "src:geom":"simplegeo",
    "wof:belongsto":[
        85633337,
        101837813,
        85687043
    ],
    "wof:breaches":[],
    "wof:concordances":{
        "sg:id":"SG_2icRFKpSBbLp9NdZkmQjMP_51.970165_5.670561@1306269934"
    },
    "wof:country":"NL",
    "wof:geomhash":"2b6cf7adb485a42ced841bf7f0cfea8e",
    "wof:hierarchy":[
        {
            "continent_id":-1,
            "country_id":85633337,
            "locality_id":101837813,
            "neighbourhood_id":-1,
            "region_id":85687043,
            "venue_id":236087263
        }
    ],
    "wof:id":236087263,
    "wof:lastmodified":1449003126,
    "wof:name":"Marenco Marine Engineering Consultants",
    "wof:parent_id":-1,
    "wof:placetype":"venue",
    "wof:superseded_by":[],
    "wof:supersedes":[],
    "wof:tags":[]
},
  "bbox": [5.670561,51.970165,5.670561,51.970165],
  "geometry": {"coordinates":[5.670561,51.970165],"type":"Point"}
}