{
  "id": 320208863,
  "type": "Feature",
  "properties": {
    "edtf:cessation":"u",
    "edtf:inception":"u",
    "geom:area":0.0,
    "geom:bbox":"4.479439,51.945396,4.479439,51.945396",
    "geom:latitude":51.945396,
    "geom:longitude":4.479439,
    "iso:country":"NL",
    "sg:address":"Kleiweg 95",
    "sg:city":"Rotterdam",
    "sg:classifiers":[
        {
            "category":"Shopping",
            "subcategory":"Gifts & Souvenirs",
            "type":"Retail Goods"
        }
    ],
    "sg:owner":"simplegeo",
    "sg:phone":"+31 10 422 2202",
    "sg:postcode":"3051 GK",
    "sg:province":"Zuid-Holland",
    "sg:tags":[
        "geschenken"
    ],
    "src:geom":"simplegeo",
    "wof:belongsto":[
        85859841,
        85633337,
        101753095,
        85687041
    ],
    "wof:breaches":[],
    "wof:concordances":{
        "sg:id":"SG_3Ew4pedvWCub2xEciVMchI_51.945396_4.479439@1306269996"
    },
    "wof:country":"NL",
    "wof:geomhash":"9c34c0964e2b57b8a283f14eeb13168c",
    "wof:hierarchy":[
        {
            "continent_id":-1,
            "country_id":85633337,
            "locality_id":101753095,
            "neighbourhood_id":85859841,
            "region_id":85687041,
            "venue_id":320208863
        }
    ],
    "wof:id":320208863,
    "wof:lastmodified":1449011683,
    "wof:name":"J.B. Verdoorn",
    "wof:parent_id":85859841,
    "wof:placetype":"venue",
    "wof:superseded_by":[],
    "wof:supersedes":[],
    "wof:tags":[
        "geschenken"
    ]
},
  "bbox": [4.479439,51.945396,4.479439,51.945396],
  "geometry": {"coordinates":[4.479439,51.945396],"type":"Point"}
}