{
  "id": 202537823,
  "type": "Feature",
  "properties": {
    "edtf:cessation":"u",
    "edtf:inception":"u",
    "geom:area":0.0,
    "geom:bbox":"5.72146,51.196388,5.72146,51.196388",
    "geom:latitude":51.196388,
    "geom:longitude":5.72146,
    "iso:country":"NL",
    "sg:address":"Julianastraat 63",
    "sg:city":"Stramproy",
    "sg:classifiers":[
        {
            "category":"Communications",
            "subcategory":"Television Station",
            "type":"Services"
        }
    ],
    "sg:owner":"simplegeo",
    "sg:phone":"+31 495 562 758",
    "sg:postcode":"6039 AH",
    "sg:province":"Limburg",
    "sg:tags":[
        "video",
        "audio",
        "verhuur"
    ],
    "src:geom":"simplegeo",
    "wof:belongsto":[
        85633337,
        101809621,
        85687033
    ],
    "wof:breaches":[],
    "wof:concordances":{
        "sg:id":"SG_2jQY1m81RtDGHR0QV9ySPD_51.196388_5.721460@1306269916"
    },
    "wof:country":"NL",
    "wof:geomhash":"1938da103d3191780f6ef0d2c0a1db5d",
    "wof:hierarchy":[
        {
            "continent_id":-1,
            "country_id":85633337,
            "locality_id":101809621,
            "neighbourhood_id":-1,
            "region_id":85687033,
            "venue_id":202537823
        }
    ],
    "wof:id":202537823,
    "wof:lastmodified":1449060745,
    "wof:name":"Videotheek Filmclub Stramproy",
    "wof:parent_id":-1,
    "wof:placetype":"venue",
    "wof:superseded_by":[],
    "wof:supersedes":[],
    "wof:tags":[
        "video",
        "audio",
        "verhuur"
    ]
},
  "bbox": [5.72146,51.196388,5.72146,51.196388],
  "geometry": {"coordinates":[5.72146,51.196388],"type":"Point"}
}