{
  "id": 303941581,
  "type": "Feature",
  "properties": {
    "edtf:cessation":"u",
    "edtf:inception":"u",
    "geom:area":0.0,
    "geom:bbox":"-84.544441,41.88448,-84.544441,41.88448",
    "geom:latitude":41.88448,
    "geom:longitude":-84.544441,
    "iso:country":"NL",
    "sg:address":"Vossehol 34",
    "sg:city":"Oss",
    "sg:classifiers":[],
    "sg:orig_category":"Hoefsmederijen",
    "sg:owner":"simplegeo",
    "sg:phone":"+31 412 622 296",
    "sg:postcode":"5344 LD",
    "sg:province":"Noord-Brabant",
    "src:geom":"simplegeo",
    "wof:belongsto":[
        85633793,
        85688599
    ],
    "wof:breaches":[],
    "wof:concordances":{
        "sg:id":"SG_0DlDXzBXr2RxNoY950f2g9_41.884480_-84.544441@1306269989"
    },
    "wof:country":"NL",
    "wof:geomhash":"60827448cd5a46ac4c0908ef461c334a",
    "wof:hierarchy":[
        {
            "continent_id":-1,
            "country_id":85633793,
            "locality_id":-1,
            "neighbourhood_id":-1,
            "region_id":85688599,
            "venue_id":303941581
        }
    ],
    "wof:id":303941581,
    "wof:lastmodified":1448999580,
    "wof:name":"Ballegooy, Winston Van",
    "wof:parent_id":-1,
    "wof:placetype":"venue",
    "wof:superseded_by":[],
    "wof:supersedes":[],
    "wof:tags":[]
},
  "bbox": [-84.544441,41.88448,-84.544441,41.88448],
  "geometry": {"coordinates":[-84.544441,41.88448],"type":"Point"}
}