{
  "id": 320106953,
  "type": "Feature",
  "properties": {
    "edtf:cessation":"u",
    "edtf:inception":"u",
    "geom:area":0.0,
    "geom:bbox":"5.095097,52.088032,5.095097,52.088032",
    "geom:latitude":52.088032,
    "geom:longitude":5.095097,
    "iso:country":"NL",
    "sg:address":"A Tasmanstr 2",
    "sg:city":"Utrecht",
    "sg:classifiers":[
        {
            "category":"Retail",
            "subcategory":"Auto Repair",
            "type":"Services"
        }
    ],
    "sg:owner":"simplegeo",
    "sg:phone":"+31 30 293 4180",
    "sg:postcode":"3531 GV",
    "sg:province":"Utrecht",
    "sg:tags":[
        "garage"
    ],
    "src:geom":"simplegeo",
    "wof:belongsto":[
        85798153,
        85633337,
        85687039
    ],
    "wof:breaches":[],
    "wof:concordances":{
        "sg:id":"SG_0Rbon4JkJEMq1D7XB40tyy_52.088032_5.095097@1306269994"
    },
    "wof:country":"NL",
    "wof:geomhash":"bd736cde060f5b826227855444dd43a9",
    "wof:hierarchy":[
        {
            "continent_id":-1,
            "country_id":85633337,
            "locality_id":-1,
            "neighbourhood_id":85798153,
            "region_id":85687039,
            "venue_id":320106953
        }
    ],
    "wof:id":320106953,
    "wof:lastmodified":1449011204,
    "wof:name":"Seumeren, Van",
    "wof:parent_id":85798153,
    "wof:placetype":"venue",
    "wof:superseded_by":[],
    "wof:supersedes":[],
    "wof:tags":[
        "garage"
    ]
},
  "bbox": [5.095097,52.088032,5.095097,52.088032],
  "geometry": {"coordinates":[5.095097,52.088032],"type":"Point"}
}