{
  "id": 252952279,
  "type": "Feature",
  "properties": {
    "edtf:cessation":"u",
    "edtf:inception":"u",
    "geom:area":0.0,
    "geom:bbox":"4.807764,51.920986,4.807764,51.920986",
    "geom:latitude":51.920986,
    "geom:longitude":4.807764,
    "iso:country":"NL",
    "sg:address":"Opperstok 4",
    "sg:city":"Streefkerk",
    "sg:classifiers":[],
    "sg:orig_category":"Metaalbekleding And -Behandeling",
    "sg:owner":"simplegeo",
    "sg:phone":"+31 184 661 305",
    "sg:postcode":"2959 ED",
    "sg:province":"Zuid-Holland",
    "src:geom":"simplegeo",
    "wof:belongsto":[
        85633337,
        85687041
    ],
    "wof:breaches":[],
    "wof:concordances":{
        "sg:id":"SG_3I7uFg4mwml8qCPdFl6gnE_51.920986_4.807764@1306269945"
    },
    "wof:country":"NL",
    "wof:geomhash":"ebced198ac3038af9eef2edccdb8f56a",
    "wof:hierarchy":[
        {
            "continent_id":-1,
            "country_id":85633337,
            "locality_id":-1,
            "neighbourhood_id":-1,
            "region_id":85687041,
            "venue_id":252952279
        }
    ],
    "wof:id":252952279,
    "wof:lastmodified":1449006181,
    "wof:name":"Straalcon Bv",
    "wof:parent_id":-1,
    "wof:placetype":"venue",
    "wof:superseded_by":[],
    "wof:supersedes":[],
    "wof:tags":[]
},
  "bbox": [4.807764,51.920986,4.807764,51.920986],
  "geometry": {"coordinates":[4.807764,51.920986],"type":"Point"}
}