{
  "id": 270494179,
  "type": "Feature",
  "properties": {
    "edtf:cessation":"u",
    "edtf:inception":"u",
    "geom:area":0.0,
    "geom:bbox":"5.721138,53.299782,5.721138,53.299782",
    "geom:latitude":53.299782,
    "geom:longitude":5.721138,
    "iso:country":"NL",
    "sg:address":"Monnikebildtdijk 16",
    "sg:city":"Oude Bildtzijl",
    "sg:classifiers":[
        {
            "category":"Education",
            "subcategory":"Preschool",
            "type":"Public Place"
        }
    ],
    "sg:owner":"simplegeo",
    "sg:phone":"+31 518 421 328",
    "sg:postcode":"9078 VE",
    "sg:province":"Friesland",
    "sg:tags":[
        "kleuteronderwijs",
        "basis-"
    ],
    "src:geom":"simplegeo",
    "wof:belongsto":[
        85633337,
        101874309,
        85687055
    ],
    "wof:breaches":[],
    "wof:concordances":{
        "sg:id":"SG_36tbfIZ7J7TnY6UdI8P2sA_53.299782_5.721138@1306269966"
    },
    "wof:country":"NL",
    "wof:geomhash":"a48016a626b0768f846f8d190ca53693",
    "wof:hierarchy":[
        {
            "continent_id":-1,
            "country_id":85633337,
            "locality_id":101874309,
            "neighbourhood_id":-1,
            "region_id":85687055,
            "venue_id":270494179
        }
    ],
    "wof:id":270494179,
    "wof:lastmodified":1449010824,
    "wof:name":"Christelijke Basisschool De Korenaar",
    "wof:parent_id":-1,
    "wof:placetype":"venue",
    "wof:superseded_by":[],
    "wof:supersedes":[],
    "wof:tags":[
        "kleuteronderwijs",
        "basis-"
    ]
},
  "bbox": [5.721138,53.299782,5.721138,53.299782],
  "geometry": {"coordinates":[5.721138,53.299782],"type":"Point"}
}