{
  "id": 219514573,
  "type": "Feature",
  "properties": {
    "edtf:cessation":"u",
    "edtf:inception":"u",
    "geom:area":0.0,
    "geom:bbox":"5.189833,52.214588,5.189833,52.214588",
    "geom:latitude":52.214588,
    "geom:longitude":5.189833,
    "iso:country":"NL",
    "sg:address":"Arena 300",
    "sg:city":"Hilversum",
    "sg:classifiers":[],
    "sg:orig_category":"Luchtbehandelings- Apparaten",
    "sg:owner":"simplegeo",
    "sg:phone":"+31 35 693 0773",
    "sg:postcode":"1213 NW",
    "sg:province":"Noord-Holland",
    "sg:website":"http://www.smokefreesystems.com",
    "src:geom":"simplegeo",
    "wof:belongsto":[
        85633337,
        101751905,
        85687053
    ],
    "wof:breaches":[],
    "wof:concordances":{
        "sg:id":"SG_46P3rp6kuginSRTrbMCOUu_52.214588_5.189833@1306269926"
    },
    "wof:country":"NL",
    "wof:geomhash":"1742abb441e36ec2a162e8ea0ace9d6c",
    "wof:hierarchy":[
        {
            "continent_id":-1,
            "country_id":85633337,
            "locality_id":101751905,
            "neighbourhood_id":-1,
            "region_id":85687053,
            "venue_id":219514573
        }
    ],
    "wof:id":219514573,
    "wof:lastmodified":1449072158,
    "wof:name":"Smoke Free Systems",
    "wof:parent_id":-1,
    "wof:placetype":"venue",
    "wof:superseded_by":[],
    "wof:supersedes":[],
    "wof:tags":[]
},
  "bbox": [5.189833,52.214588,5.189833,52.214588],
  "geometry": {"coordinates":[5.189833,52.214588],"type":"Point"}
}