{
  "id": 336950949,
  "type": "Feature",
  "properties": {
    "edtf:cessation":"u",
    "edtf:inception":"u",
    "geom:area":0.0,
    "geom:bbox":"5.804614,52.687786,5.804614,52.687786",
    "geom:latitude":52.687786,
    "geom:longitude":5.804614,
    "iso:country":"NL",
    "sg:address":"Bomenwg 19",
    "sg:city":"Emmeloord",
    "sg:classifiers":[
        {
            "category":"Retail",
            "subcategory":"Storage",
            "type":"Services"
        }
    ],
    "sg:owner":"simplegeo",
    "sg:phone":"+31 527 621 917",
    "sg:postcode":"8305 AV",
    "sg:province":"NL.",
    "sg:tags":[
        "op-",
        "en",
        "overslagbedrijven"
    ],
    "src:geom":"simplegeo",
    "wof:belongsto":[
        85633337,
        85687049
    ],
    "wof:breaches":[],
    "wof:concordances":{
        "sg:id":"SG_5mAEse3drABrkZwrBQOWRp_52.687786_5.804614@1306270007"
    },
    "wof:country":"NL",
    "wof:geomhash":"924ff06fe1bbdfd6512e62d09ddcef65",
    "wof:hierarchy":[
        {
            "continent_id":-1,
            "country_id":85633337,
            "locality_id":-1,
            "neighbourhood_id":-1,
            "region_id":85687049,
            "venue_id":336950949
        }
    ],
    "wof:id":336950949,
    "wof:lastmodified":1448997376,
    "wof:name":"Buys Bv",
    "wof:parent_id":-1,
    "wof:placetype":"venue",
    "wof:superseded_by":[],
    "wof:supersedes":[],
    "wof:tags":[
        "op-",
        "en",
        "overslagbedrijven"
    ]
},
  "bbox": [5.804614,52.687786,5.804614,52.687786],
  "geometry": {"coordinates":[5.804614,52.687786],"type":"Point"}
}