{
  "id": 253717601,
  "type": "Feature",
  "properties": {
    "edtf:cessation":"u",
    "edtf:inception":"u",
    "geom:area":0.0,
    "geom:bbox":"6.0262,53.25359,6.0262,53.25359",
    "geom:latitude":53.25359,
    "geom:longitude":6.0262,
    "iso:country":"NL",
    "sg:address":"Swemmerlaan 2",
    "sg:city":"Zwaagwesteinde",
    "sg:classifiers":[],
    "sg:orig_category":"Pleziervaartuigen And Reparatie",
    "sg:owner":"simplegeo",
    "sg:phone":"+31 511 442 205",
    "sg:postcode":"9271 GH",
    "sg:province":"Friesland",
    "src:geom":"simplegeo",
    "wof:belongsto":[
        85633337,
        85687055
    ],
    "wof:breaches":[],
    "wof:concordances":{
        "sg:id":"SG_2HbdmB7uUoSfyFVQskKOGP_53.253590_6.026200@1306269953"
    },
    "wof:country":"NL",
    "wof:geomhash":"84d2913c407a4dc56ed0642dfed54835",
    "wof:hierarchy":[
        {
            "continent_id":-1,
            "country_id":85633337,
            "locality_id":-1,
            "neighbourhood_id":-1,
            "region_id":85687055,
            "venue_id":253717601
        }
    ],
    "wof:id":253717601,
    "wof:lastmodified":1449062903,
    "wof:name":"Zwemmerwerf",
    "wof:parent_id":-1,
    "wof:placetype":"venue",
    "wof:superseded_by":[],
    "wof:supersedes":[],
    "wof:tags":[]
},
  "bbox": [6.0262,53.25359,6.0262,53.25359],
  "geometry": {"coordinates":[6.0262,53.25359],"type":"Point"}
}