{
  "id": 320110351,
  "type": "Feature",
  "properties": {
    "edtf:cessation":"u",
    "edtf:inception":"u",
    "geom:area":0.0,
    "geom:bbox":"4.547781,52.377014,4.547781,52.377014",
    "geom:latitude":52.377014,
    "geom:longitude":4.547781,
    "iso:country":"NL",
    "sg:address":"Curiestr 8-10",
    "sg:city":"Zandvoort",
    "sg:classifiers":[
        {
            "category":"Retail",
            "subcategory":"Auto Repair",
            "type":"Services"
        }
    ],
    "sg:owner":"simplegeo",
    "sg:phone":"+31 23 571 2323",
    "sg:postcode":"2041 CD",
    "sg:province":"Noord-Holland",
    "sg:tags":[
        "garage"
    ],
    "src:geom":"simplegeo",
    "wof:belongsto":[
        85633337,
        101808813,
        85687053
    ],
    "wof:breaches":[],
    "wof:concordances":{
        "sg:id":"SG_4MNFTbq2Gt9VRFsMkvGTJ5_52.377014_4.547781@1306269994"
    },
    "wof:country":"NL",
    "wof:geomhash":"a13be1b05451ef3d910eb4aec113c8bc",
    "wof:hierarchy":[
        {
            "continent_id":-1,
            "country_id":85633337,
            "locality_id":101808813,
            "neighbourhood_id":-1,
            "region_id":85687053,
            "venue_id":320110351
        }
    ],
    "wof:id":320110351,
    "wof:lastmodified":1449012500,
    "wof:name":"Stokman Bv",
    "wof:parent_id":-1,
    "wof:placetype":"venue",
    "wof:superseded_by":[],
    "wof:supersedes":[],
    "wof:tags":[
        "garage"
    ]
},
  "bbox": [4.547781,52.377014,4.547781,52.377014],
  "geometry": {"coordinates":[4.547781,52.377014],"type":"Point"}
}