{
  "id": 287018681,
  "type": "Feature",
  "properties": {
    "edtf:cessation":"u",
    "edtf:inception":"u",
    "geom:area":0.0,
    "geom:bbox":"5.122419,51.784229,5.122419,51.784229",
    "geom:latitude":51.784229,
    "geom:longitude":5.122419,
    "iso:country":"NL",
    "sg:address":"Pr Hendrikstr 2",
    "sg:city":"Aalst Gld",
    "sg:classifiers":[],
    "sg:orig_category":"Bloemen En Planten - Groothandel",
    "sg:owner":"simplegeo",
    "sg:phone":"+31 418 672 902",
    "sg:postcode":"5308 JL",
    "sg:province":"Gelderland",
    "src:geom":"simplegeo",
    "wof:belongsto":[
        85633337,
        85687043
    ],
    "wof:breaches":[],
    "wof:concordances":{
        "sg:id":"SG_4cvJcWzgXB8WqOJvex7Jlx_51.784229_5.122419@1306269975"
    },
    "wof:country":"NL",
    "wof:geomhash":"6d1f75beedafb497a775a8052add9aa3",
    "wof:hierarchy":[
        {
            "continent_id":-1,
            "country_id":85633337,
            "locality_id":-1,
            "neighbourhood_id":-1,
            "region_id":85687043,
            "venue_id":287018681
        }
    ],
    "wof:id":287018681,
    "wof:lastmodified":1449001107,
    "wof:name":"Tuyl, M Van",
    "wof:parent_id":-1,
    "wof:placetype":"venue",
    "wof:superseded_by":[],
    "wof:supersedes":[],
    "wof:tags":[]
},
  "bbox": [5.122419,51.784229,5.122419,51.784229],
  "geometry": {"coordinates":[5.122419,51.784229],"type":"Point"}
}