{
  "id": 286512853,
  "type": "Feature",
  "properties": {
    "edtf:cessation":"u",
    "edtf:inception":"u",
    "geom:area":0.0,
    "geom:bbox":"89.262512,25.728161,89.262512,25.728161",
    "geom:latitude":25.728161,
    "geom:longitude":89.262512,
    "iso:country":"NL",
    "sg:address":"Kerkstr 41A",
    "sg:city":"Uden",
    "sg:classifiers":[],
    "sg:orig_category":"Beeldende Kunstenaars",
    "sg:owner":"simplegeo",
    "sg:phone":"+31 413 331 464",
    "sg:postcode":"5401 BD",
    "sg:province":"Noord-Brabant",
    "src:geom":"simplegeo",
    "wof:belongsto":[
        85632475,
        85669035
    ],
    "wof:breaches":[],
    "wof:concordances":{
        "sg:id":"SG_47JTcOFXJV9aophIYPEAEH_25.728161_89.262512@1306269970"
    },
    "wof:country":"NL",
    "wof:geomhash":"8edae4ad658a6bb4133de3a8c15fcb1f",
    "wof:hierarchy":[
        {
            "continent_id":-1,
            "country_id":85632475,
            "locality_id":-1,
            "neighbourhood_id":-1,
            "region_id":85669035,
            "venue_id":286512853
        }
    ],
    "wof:id":286512853,
    "wof:lastmodified":1449017322,
    "wof:name":"Sloff, M",
    "wof:parent_id":-1,
    "wof:placetype":"venue",
    "wof:superseded_by":[],
    "wof:supersedes":[],
    "wof:tags":[]
},
  "bbox": [89.262512,25.728161,89.262512,25.728161],
  "geometry": {"coordinates":[89.262512,25.728161],"type":"Point"}
}