{
  "id": 203113823,
  "type": "Feature",
  "properties": {
    "edtf:cessation":"u",
    "edtf:inception":"u",
    "geom:area":0.0,
    "geom:bbox":"4.24951,51.978657,4.24951,51.978657",
    "geom:latitude":51.978657,
    "geom:longitude":4.24951,
    "iso:country":"NL",
    "sg:address":"Bleijenburg 180",
    "sg:city":"De Lier",
    "sg:classifiers":[],
    "sg:orig_category":"Verzekeringen",
    "sg:owner":"simplegeo",
    "sg:phone":"+31 174 513 315",
    "sg:postcode":"2678 BD",
    "sg:province":"South Holland",
    "src:geom":"simplegeo",
    "wof:belongsto":[
        85633337,
        101807027,
        85687041
    ],
    "wof:breaches":[],
    "wof:concordances":{
        "sg:id":"SG_4DoJzZSGr1pto87OSACrJK_51.978657_4.249510@1306269921"
    },
    "wof:country":"NL",
    "wof:geomhash":"c80ad3d05c953ecbff87e5818465b65a",
    "wof:hierarchy":[
        {
            "continent_id":-1,
            "country_id":85633337,
            "locality_id":101807027,
            "neighbourhood_id":-1,
            "region_id":85687041,
            "venue_id":203113823
        }
    ],
    "wof:id":203113823,
    "wof:lastmodified":1449026704,
    "wof:name":"Beishuizen Verzekeringen",
    "wof:parent_id":-1,
    "wof:placetype":"venue",
    "wof:superseded_by":[],
    "wof:supersedes":[],
    "wof:tags":[]
},
  "bbox": [4.24951,51.978657,4.24951,51.978657],
  "geometry": {"coordinates":[4.24951,51.978657],"type":"Point"}
}