{
  "id": 286344361,
  "type": "Feature",
  "properties": {
    "edtf:cessation":"u",
    "edtf:inception":"u",
    "geom:area":0.0,
    "geom:bbox":"5.744583,51.398903,5.744583,51.398903",
    "geom:latitude":51.398903,
    "geom:longitude":5.744583,
    "iso:country":"NL",
    "sg:address":"Albert Van Cuijckstraat 44",
    "sg:city":"Asten",
    "sg:classifiers":[],
    "sg:orig_category":"Bedrijfs- And Managementsconsultants",
    "sg:owner":"simplegeo",
    "sg:phone":"+31 493 692 533",
    "sg:postcode":"5721 JP",
    "sg:province":"North Brabant",
    "src:geom":"simplegeo",
    "wof:belongsto":[
        85633337,
        101809687,
        85687035
    ],
    "wof:breaches":[],
    "wof:concordances":{
        "sg:id":"SG_0WiPnf6Ts2ryN0AKVp5YBa_51.398903_5.744583@1306269968"
    },
    "wof:country":"NL",
    "wof:geomhash":"4731c133aea4ef69557591ec6862da5c",
    "wof:hierarchy":[
        {
            "continent_id":-1,
            "country_id":85633337,
            "locality_id":101809687,
            "neighbourhood_id":-1,
            "region_id":85687035,
            "venue_id":286344361
        }
    ],
    "wof:id":286344361,
    "wof:lastmodified":1449015322,
    "wof:name":"Bosch Management Ondersteuning",
    "wof:parent_id":-1,
    "wof:placetype":"venue",
    "wof:superseded_by":[],
    "wof:supersedes":[],
    "wof:tags":[]
},
  "bbox": [5.744583,51.398903,5.744583,51.398903],
  "geometry": {"coordinates":[5.744583,51.398903],"type":"Point"}
}