{
  "id": 219867943,
  "type": "Feature",
  "properties": {
    "edtf:cessation":"u",
    "edtf:inception":"u",
    "geom:area":0.0,
    "geom:bbox":"4.894959,52.092869,4.894959,52.092869",
    "geom:latitude":52.092869,
    "geom:longitude":4.894959,
    "iso:country":"NL",
    "sg:address":"Fort Oranje 29",
    "sg:city":"Woerden",
    "sg:classifiers":[],
    "sg:orig_category":"Adviesbureaus Bedrijfsorganisatie",
    "sg:owner":"simplegeo",
    "sg:phone":"+31 348 414 978",
    "sg:postcode":"3445 DA",
    "sg:province":"Utrecht",
    "src:geom":"simplegeo",
    "wof:belongsto":[
        85859935,
        85633337,
        101808435,
        85687039
    ],
    "wof:breaches":[],
    "wof:concordances":{
        "sg:id":"SG_3PGcnbwxfZxUzKhBrGDfZC_52.092869_4.894959@1306269930"
    },
    "wof:country":"NL",
    "wof:geomhash":"18bc42ce5f0a555137052b44ca731889",
    "wof:hierarchy":[
        {
            "continent_id":-1,
            "country_id":85633337,
            "locality_id":101808435,
            "neighbourhood_id":85859935,
            "region_id":85687039,
            "venue_id":219867943
        }
    ],
    "wof:id":219867943,
    "wof:lastmodified":1449071912,
    "wof:name":"Mandaad Bv",
    "wof:parent_id":85859935,
    "wof:placetype":"venue",
    "wof:superseded_by":[],
    "wof:supersedes":[],
    "wof:tags":[]
},
  "bbox": [4.894959,52.092869,4.894959,52.092869],
  "geometry": {"coordinates":[4.894959,52.092869],"type":"Point"}
}