{
  "id": 253504843,
  "type": "Feature",
  "properties": {
    "edtf:cessation":"u",
    "edtf:inception":"u",
    "geom:area":0.0,
    "geom:bbox":"5.868765,51.962284,5.868765,51.962284",
    "geom:latitude":51.962284,
    "geom:longitude":5.868765,
    "iso:country":"NL",
    "sg:address":"Katwoudehof 90",
    "sg:city":"Arnhem",
    "sg:classifiers":[],
    "sg:orig_category":"Parkeergarages",
    "sg:owner":"simplegeo",
    "sg:phone":"+31 26 381 8577",
    "sg:postcode":"6843 BZ",
    "sg:province":"Gelderland",
    "src:geom":"simplegeo",
    "wof:belongsto":[
        85797665,
        85633337,
        85687043
    ],
    "wof:breaches":[],
    "wof:concordances":{
        "sg:id":"SG_2JTodvsbMvAKgsKTWyqDBY_51.962284_5.868765@1306269950"
    },
    "wof:country":"NL",
    "wof:geomhash":"7a0882b901ef186c8de80492847d07d6",
    "wof:hierarchy":[
        {
            "continent_id":-1,
            "country_id":85633337,
            "locality_id":-1,
            "neighbourhood_id":85797665,
            "region_id":85687043,
            "venue_id":253504843
        }
    ],
    "wof:id":253504843,
    "wof:lastmodified":1449063336,
    "wof:name":"Pr Parkeer Realisatie",
    "wof:parent_id":85797665,
    "wof:placetype":"venue",
    "wof:superseded_by":[],
    "wof:supersedes":[],
    "wof:tags":[]
},
  "bbox": [5.868765,51.962284,5.868765,51.962284],
  "geometry": {"coordinates":[5.868765,51.962284],"type":"Point"}
}