{
  "id": 185781783,
  "type": "Feature",
  "properties": {
    "edtf:cessation":"u",
    "edtf:inception":"u",
    "geom:area":0.0,
    "geom:bbox":"5.664733,51.605354,5.664733,51.605354",
    "geom:latitude":51.605354,
    "geom:longitude":5.664733,
    "iso:country":"NL",
    "sg:address":"Schutboom 8",
    "sg:city":"Boekel",
    "sg:classifiers":[],
    "sg:orig_category":"Keukens",
    "sg:owner":"simplegeo",
    "sg:phone":"+31 492 322 036",
    "sg:postcode":"5427 CG",
    "sg:province":"North Brabant",
    "sg:website":"http://www.schutboom.nl",
    "src:geom":"simplegeo",
    "wof:belongsto":[
        85633337,
        101808169,
        85687035
    ],
    "wof:breaches":[],
    "wof:concordances":{
        "sg:id":"SG_0oGOZ5qZSGwu9UJU53Kzil_51.605354_5.664733@1306269907"
    },
    "wof:country":"NL",
    "wof:geomhash":"ae4a0618fb5a455b7c1eabd450fe81a0",
    "wof:hierarchy":[
        {
            "continent_id":-1,
            "country_id":85633337,
            "locality_id":101808169,
            "neighbourhood_id":-1,
            "region_id":85687035,
            "venue_id":185781783
        }
    ],
    "wof:id":185781783,
    "wof:lastmodified":1449006921,
    "wof:name":"Schutboom Bv, De",
    "wof:parent_id":-1,
    "wof:placetype":"venue",
    "wof:superseded_by":[],
    "wof:supersedes":[],
    "wof:tags":[]
},
  "bbox": [5.664733,51.605354,5.664733,51.605354],
  "geometry": {"coordinates":[5.664733,51.605354],"type":"Point"}
}