{
  "id": 185741035,
  "type": "Feature",
  "properties": {
    "edtf:cessation":"u",
    "edtf:inception":"u",
    "geom:area":0.0,
    "geom:bbox":"4.343125,51.84243,4.343125,51.84243",
    "geom:latitude":51.84243,
    "geom:longitude":4.343125,
    "iso:country":"NL",
    "sg:address":"Iepenln 19-41",
    "sg:city":"Spykenisse",
    "sg:classifiers":[],
    "sg:orig_category":"Keukens",
    "sg:owner":"simplegeo",
    "sg:phone":"+31 181 623 200",
    "sg:postcode":"3203 XV",
    "sg:province":"Zuid-Holland",
    "src:geom":"simplegeo",
    "wof:belongsto":[
        85797175,
        85633337,
        101751847,
        85687041
    ],
    "wof:breaches":[],
    "wof:concordances":{
        "sg:id":"SG_3UZB8KfmUjBARDeVxZBGmk_51.842430_4.343125@1306269907"
    },
    "wof:country":"NL",
    "wof:geomhash":"dfb435d2e8fcc78cda62ddc0a443f185",
    "wof:hierarchy":[
        {
            "continent_id":-1,
            "country_id":85633337,
            "locality_id":101751847,
            "neighbourhood_id":85797175,
            "region_id":85687041,
            "venue_id":185741035
        }
    ],
    "wof:id":185741035,
    "wof:lastmodified":1449006671,
    "wof:name":"Engelen Bv",
    "wof:parent_id":85797175,
    "wof:placetype":"venue",
    "wof:superseded_by":[],
    "wof:supersedes":[],
    "wof:tags":[]
},
  "bbox": [4.343125,51.84243,4.343125,51.84243],
  "geometry": {"coordinates":[4.343125,51.84243],"type":"Point"}
}