{
  "id": 236656345,
  "type": "Feature",
  "properties": {
    "edtf:cessation":"u",
    "edtf:inception":"u",
    "geom:area":0.0,
    "geom:bbox":"5.195265,51.892448,5.195265,51.892448",
    "geom:latitude":51.892448,
    "geom:longitude":5.195265,
    "iso:country":"NL",
    "sg:address":"Oude Waag 13",
    "sg:city":"Beesd",
    "sg:classifiers":[],
    "sg:orig_category":"Autokeuringen",
    "sg:owner":"simplegeo",
    "sg:phone":"+31 345 682 872",
    "sg:postcode":"4153 BT",
    "sg:province":"Gelderland",
    "src:geom":"simplegeo",
    "wof:belongsto":[
        85633337,
        101808595,
        85687043
    ],
    "wof:breaches":[],
    "wof:concordances":{
        "sg:id":"SG_7cszklWNryY1ToSH68eukA_51.892448_5.195265@1306269939"
    },
    "wof:country":"NL",
    "wof:geomhash":"da1c76a3af0e4e7363492b864eed4ef0",
    "wof:hierarchy":[
        {
            "continent_id":-1,
            "country_id":85633337,
            "locality_id":101808595,
            "neighbourhood_id":-1,
            "region_id":85687043,
            "venue_id":236656345
        }
    ],
    "wof:id":236656345,
    "wof:lastmodified":1449003876,
    "wof:name":"Vof Autobedrijf De Waag",
    "wof:parent_id":-1,
    "wof:placetype":"venue",
    "wof:superseded_by":[],
    "wof:supersedes":[],
    "wof:tags":[]
},
  "bbox": [5.195265,51.892448,5.195265,51.892448],
  "geometry": {"coordinates":[5.195265,51.892448],"type":"Point"}
}