{
  "id": 286498829,
  "type": "Feature",
  "properties": {
    "edtf:cessation":"u",
    "edtf:inception":"u",
    "geom:area":0.0,
    "geom:bbox":"5.452174,51.998936,5.452174,51.998936",
    "geom:latitude":51.998936,
    "geom:longitude":5.452174,
    "iso:country":"NL",
    "sg:address":"Kerswg 29",
    "sg:city":"Amerongen",
    "sg:classifiers":[],
    "sg:orig_category":"Beeldende Kunstenaars",
    "sg:owner":"simplegeo",
    "sg:phone":"+31 343 457 078",
    "sg:postcode":"3958 BB",
    "sg:province":"Utrecht",
    "src:geom":"simplegeo",
    "wof:belongsto":[
        85633337,
        101808445,
        85687039
    ],
    "wof:breaches":[],
    "wof:concordances":{
        "sg:id":"SG_7JPGFwBVCv8ZBRexd1y9Y2_51.998936_5.452174@1306269970"
    },
    "wof:country":"NL",
    "wof:geomhash":"2f9d752b1821df0cb30941eb66c1cee0",
    "wof:hierarchy":[
        {
            "continent_id":-1,
            "country_id":85633337,
            "locality_id":101808445,
            "neighbourhood_id":-1,
            "region_id":85687039,
            "venue_id":286498829
        }
    ],
    "wof:id":286498829,
    "wof:lastmodified":1449017417,
    "wof:name":"Moerman, J H",
    "wof:parent_id":-1,
    "wof:placetype":"venue",
    "wof:superseded_by":[],
    "wof:supersedes":[],
    "wof:tags":[]
},
  "bbox": [5.452174,51.998936,5.452174,51.998936],
  "geometry": {"coordinates":[5.452174,51.998936],"type":"Point"}
}