{
  "id": 303168409,
  "type": "Feature",
  "properties": {
    "edtf:cessation":"u",
    "edtf:inception":"u",
    "geom:area":0.0,
    "geom:bbox":"5.689429,53.019184,5.689429,53.019184",
    "geom:latitude":53.019184,
    "geom:longitude":5.689429,
    "iso:country":"NL",
    "sg:address":"Edisonstr 15",
    "sg:city":"Sneek",
    "sg:classifiers":[],
    "sg:orig_category":"Sanitaire Artikelen",
    "sg:owner":"simplegeo",
    "sg:phone":"+31 515 414 418",
    "sg:postcode":"8606 JH",
    "sg:province":"Friesland",
    "src:geom":"simplegeo",
    "wof:belongsto":[
        85797295,
        85633337,
        85687055
    ],
    "wof:breaches":[],
    "wof:concordances":{
        "sg:id":"SG_6PtIIkwCBk77mUVYdfMqEi_53.019184_5.689429@1306269981"
    },
    "wof:country":"NL",
    "wof:geomhash":"04003df226eff65c88750bb072b12363",
    "wof:hierarchy":[
        {
            "continent_id":-1,
            "country_id":85633337,
            "locality_id":-1,
            "neighbourhood_id":85797295,
            "region_id":85687055,
            "venue_id":303168409
        }
    ],
    "wof:id":303168409,
    "wof:lastmodified":1448999397,
    "wof:name":"Sikma Installatie",
    "wof:parent_id":85797295,
    "wof:placetype":"venue",
    "wof:superseded_by":[],
    "wof:supersedes":[],
    "wof:tags":[]
},
  "bbox": [5.689429,53.019184,5.689429,53.019184],
  "geometry": {"coordinates":[5.689429,53.019184],"type":"Point"}
}