{
  "id": 236930565,
  "type": "Feature",
  "properties": {
    "edtf:cessation":"u",
    "edtf:inception":"u",
    "geom:area":0.0,
    "geom:bbox":"5.054669,51.558578,5.054669,51.558578",
    "geom:latitude":51.558578,
    "geom:longitude":5.054669,
    "iso:country":"NL",
    "sg:address":"Kast Cannestr 22",
    "sg:city":"Tilburg",
    "sg:classifiers":[],
    "sg:orig_category":"Machineonderhoud En -Reparatie",
    "sg:owner":"simplegeo",
    "sg:phone":"+31 13 468 0885",
    "sg:postcode":"5037 TC",
    "sg:province":"North Brabant",
    "src:geom":"simplegeo",
    "wof:belongsto":[
        85797691,
        85633337,
        101751817,
        85687035
    ],
    "wof:breaches":[],
    "wof:concordances":{
        "sg:id":"SG_72baQuaOCGJ450bLl3Gpsc_51.558578_5.054669@1306269942"
    },
    "wof:country":"NL",
    "wof:geomhash":"965c5f980158d377006778c03e19895e",
    "wof:hierarchy":[
        {
            "continent_id":-1,
            "country_id":85633337,
            "locality_id":101751817,
            "neighbourhood_id":85797691,
            "region_id":85687035,
            "venue_id":236930565
        }
    ],
    "wof:id":236930565,
    "wof:lastmodified":1449002548,
    "wof:name":"Spijkers Bv",
    "wof:parent_id":85797691,
    "wof:placetype":"venue",
    "wof:superseded_by":[],
    "wof:supersedes":[],
    "wof:tags":[]
},
  "bbox": [5.054669,51.558578,5.054669,51.558578],
  "geometry": {"coordinates":[5.054669,51.558578],"type":"Point"}
}