{
  "id": 253051793,
  "type": "Feature",
  "properties": {
    "edtf:cessation":"u",
    "edtf:inception":"u",
    "geom:area":0.0,
    "geom:bbox":"5.999827,51.923786,5.999827,51.923786",
    "geom:latitude":51.923786,
    "geom:longitude":5.999827,
    "iso:country":"NL",
    "sg:address":"Lijkweg 32",
    "sg:city":"Groessen",
    "sg:classifiers":[],
    "sg:orig_category":"Metaalwerken",
    "sg:owner":"simplegeo",
    "sg:phone":"+31 316 261 378",
    "sg:postcode":"6923 CC",
    "sg:province":"Gelderland",
    "src:geom":"simplegeo",
    "wof:belongsto":[
        85633337,
        85687043
    ],
    "wof:breaches":[],
    "wof:concordances":{
        "sg:id":"SG_20kBMrMPUu4odQOA9ZpmYN_51.923786_5.999827@1306269946"
    },
    "wof:country":"NL",
    "wof:geomhash":"4004557bc3fe05683f72d6b66a339cda",
    "wof:hierarchy":[
        {
            "continent_id":-1,
            "country_id":85633337,
            "locality_id":-1,
            "neighbourhood_id":-1,
            "region_id":85687043,
            "venue_id":253051793
        }
    ],
    "wof:id":253051793,
    "wof:lastmodified":1449064642,
    "wof:name":"Vermeulen Kassen- & Materialenhandel",
    "wof:parent_id":-1,
    "wof:placetype":"venue",
    "wof:superseded_by":[],
    "wof:supersedes":[],
    "wof:tags":[]
},
  "bbox": [5.999827,51.923786,5.999827,51.923786],
  "geometry": {"coordinates":[5.999827,51.923786],"type":"Point"}
}