{
  "id": 303720545,
  "type": "Feature",
  "properties": {
    "edtf:cessation":"u",
    "edtf:inception":"u",
    "geom:area":0.0,
    "geom:bbox":"4.719423,52.041336,4.719423,52.041336",
    "geom:latitude":52.041336,
    "geom:longitude":4.719423,
    "iso:country":"NL",
    "sg:address":"Fokkerstraat 18",
    "sg:city":"Reeuwijk",
    "sg:classifiers":[],
    "sg:orig_category":"Diverse Opleidingen And Onderwijs",
    "sg:owner":"simplegeo",
    "sg:phone":"+31 182 391 020",
    "sg:postcode":"2811 ER",
    "sg:province":"South Holland",
    "src:geom":"simplegeo",
    "wof:belongsto":[
        85797133,
        85633337,
        85687041
    ],
    "wof:breaches":[],
    "wof:concordances":{
        "sg:id":"SG_1OIej5OhngC1Z2Up75YZPk_52.041336_4.719423@1306269987"
    },
    "wof:country":"NL",
    "wof:geomhash":"150a669203e8025133ee73846fb2c7dd",
    "wof:hierarchy":[
        {
            "continent_id":-1,
            "country_id":85633337,
            "locality_id":-1,
            "neighbourhood_id":85797133,
            "region_id":85687041,
            "venue_id":303720545
        }
    ],
    "wof:id":303720545,
    "wof:lastmodified":1448998695,
    "wof:name":"Axioma Opleidingen Bv",
    "wof:parent_id":85797133,
    "wof:placetype":"venue",
    "wof:superseded_by":[],
    "wof:supersedes":[],
    "wof:tags":[]
},
  "bbox": [4.719423,52.041336,4.719423,52.041336],
  "geometry": {"coordinates":[4.719423,52.041336],"type":"Point"}
}