{
  "id": 320698157,
  "type": "Feature",
  "properties": {
    "edtf:cessation":"u",
    "edtf:inception":"u",
    "geom:area":0.0,
    "geom:bbox":"4.785045,53.005547,4.785045,53.005547",
    "geom:latitude":53.005547,
    "geom:longitude":4.785045,
    "iso:country":"NL",
    "sg:address":"Herenstr 25",
    "sg:city":"Den Hoorn Texel",
    "sg:classifiers":[],
    "sg:orig_category":"Zoetwaren - Winkels",
    "sg:owner":"simplegeo",
    "sg:phone":"+31 222 319 767",
    "sg:postcode":"1797 AE",
    "sg:province":"Noord-Holland",
    "src:geom":"simplegeo",
    "wof:belongsto":[
        85633337,
        85687053
    ],
    "wof:breaches":[],
    "wof:concordances":{
        "sg:id":"SG_0LtJfIzpWNGZu8o1lIrV1K_53.005547_4.785045@1306270001"
    },
    "wof:country":"NL",
    "wof:geomhash":"f44387388a1c4b89bf064a12cf8e1623",
    "wof:hierarchy":[
        {
            "continent_id":-1,
            "country_id":85633337,
            "locality_id":-1,
            "neighbourhood_id":-1,
            "region_id":85687053,
            "venue_id":320698157
        }
    ],
    "wof:id":320698157,
    "wof:lastmodified":1449014733,
    "wof:name":"Soete Suyckerbol, In De",
    "wof:parent_id":-1,
    "wof:placetype":"venue",
    "wof:superseded_by":[],
    "wof:supersedes":[],
    "wof:tags":[]
},
  "bbox": [4.785045,53.005547,4.785045,53.005547],
  "geometry": {"coordinates":[4.785045,53.005547],"type":"Point"}
}