{
  "id": 270495817,
  "type": "Feature",
  "properties": {
    "edtf:cessation":"u",
    "edtf:inception":"u",
    "geom:area":0.0,
    "geom:bbox":"6.718527,52.79097,6.718527,52.79097",
    "geom:latitude":52.79097,
    "geom:longitude":6.718527,
    "iso:country":"NL",
    "sg:address":"Meester Benninkstraat 10",
    "sg:city":"Aalden",
    "sg:classifiers":[
        {
            "category":"Education",
            "subcategory":"Preschool",
            "type":"Public Place"
        }
    ],
    "sg:owner":"simplegeo",
    "sg:phone":"+31 591 371 898",
    "sg:postcode":"7854 PL",
    "sg:province":"Drenthe",
    "sg:tags":[
        "kleuteronderwijs",
        "basis-"
    ],
    "src:geom":"simplegeo",
    "wof:belongsto":[
        85633337,
        101807267,
        85687051
    ],
    "wof:breaches":[],
    "wof:concordances":{
        "sg:id":"SG_7HlSQCDxaYquCpSxUq761V_52.790970_6.718527@1306269966"
    },
    "wof:country":"NL",
    "wof:geomhash":"7aadfb0cc745a2589291af01ffdb4db8",
    "wof:hierarchy":[
        {
            "continent_id":-1,
            "country_id":85633337,
            "locality_id":101807267,
            "neighbourhood_id":-1,
            "region_id":85687051,
            "venue_id":270495817
        }
    ],
    "wof:id":270495817,
    "wof:lastmodified":1449009720,
    "wof:name":"Christelijke Basisschool De Schutse",
    "wof:parent_id":-1,
    "wof:placetype":"venue",
    "wof:superseded_by":[],
    "wof:supersedes":[],
    "wof:tags":[
        "kleuteronderwijs",
        "basis-"
    ]
},
  "bbox": [6.718527,52.79097,6.718527,52.79097],
  "geometry": {"coordinates":[6.718527,52.79097],"type":"Point"}
}