{
  "id": 270495987,
  "type": "Feature",
  "properties": {
    "edtf:cessation":"u",
    "edtf:inception":"u",
    "geom:area":0.0,
    "geom:bbox":"6.891831,53.319149,6.891831,53.319149",
    "geom:latitude":53.319149,
    "geom:longitude":6.891831,
    "iso:country":"NL",
    "sg:address":"Farmsumerweg 43",
    "sg:city":"Delfzijl",
    "sg:classifiers":[
        {
            "category":"Education",
            "subcategory":"Preschool",
            "type":"Public Place"
        }
    ],
    "sg:owner":"simplegeo",
    "sg:phone":"+31 596 627 716",
    "sg:postcode":"9932 BA",
    "sg:province":"Groningen",
    "sg:tags":[
        "kleuteronderwijs",
        "basis-"
    ],
    "src:geom":"simplegeo",
    "wof:belongsto":[
        85797887,
        85633337,
        101837987,
        85687059
    ],
    "wof:breaches":[],
    "wof:concordances":{
        "sg:id":"SG_09ddTvymJdnYLVgXV07B5i_53.319149_6.891831@1306269966"
    },
    "wof:country":"NL",
    "wof:geomhash":"a59db88560669822cf2be54ad642360c",
    "wof:hierarchy":[
        {
            "continent_id":-1,
            "country_id":85633337,
            "locality_id":101837987,
            "neighbourhood_id":85797887,
            "region_id":85687059,
            "venue_id":270495987
        }
    ],
    "wof:id":270495987,
    "wof:lastmodified":1449009720,
    "wof:name":"Christelijke Basisschool De Vore",
    "wof:parent_id":85797887,
    "wof:placetype":"venue",
    "wof:superseded_by":[],
    "wof:supersedes":[],
    "wof:tags":[
        "kleuteronderwijs",
        "basis-"
    ]
},
  "bbox": [6.891831,53.319149,6.891831,53.319149],
  "geometry": {"coordinates":[6.891831,53.319149],"type":"Point"}
}