{
  "id": 270002251,
  "type": "Feature",
  "properties": {
    "edtf:cessation":"u",
    "edtf:inception":"u",
    "geom:area":0.0,
    "geom:bbox":"5.548359,51.427063,5.548359,51.427063",
    "geom:latitude":51.427063,
    "geom:longitude":5.548359,
    "iso:country":"NL",
    "sg:address":"Biezenstraat 7",
    "sg:city":"Geldrop",
    "sg:classifiers":[],
    "sg:orig_category":"Financi\u00c3\u00able Adviseurs",
    "sg:owner":"simplegeo",
    "sg:phone":"+31 40 286 3684",
    "sg:postcode":"5662 EP",
    "sg:province":"Noord-Brabant",
    "src:geom":"simplegeo",
    "wof:belongsto":[
        85797807,
        85633337,
        85687035
    ],
    "wof:breaches":[],
    "wof:concordances":{
        "sg:id":"SG_7IScdldOQUsRAsqSj6SzKj_51.427063_5.548359@1306269960"
    },
    "wof:country":"NL",
    "wof:geomhash":"a47a8e4528fd1c69ec8cd0cbadd81738",
    "wof:hierarchy":[
        {
            "continent_id":-1,
            "country_id":85633337,
            "locality_id":-1,
            "neighbourhood_id":85797807,
            "region_id":85687035,
            "venue_id":270002251
        }
    ],
    "wof:id":270002251,
    "wof:lastmodified":1449010623,
    "wof:name":"J C A M Dankers, Belastingconsulent",
    "wof:parent_id":85797807,
    "wof:placetype":"venue",
    "wof:superseded_by":[],
    "wof:supersedes":[],
    "wof:tags":[]
},
  "bbox": [5.548359,51.427063,5.548359,51.427063],
  "geometry": {"coordinates":[5.548359,51.427063],"type":"Point"}
}