{
  "id": 253590013,
  "type": "Feature",
  "properties": {
    "edtf:cessation":"u",
    "edtf:inception":"u",
    "geom:area":0.0,
    "geom:bbox":"5.945151,52.200615,5.945151,52.200615",
    "geom:latitude":52.200615,
    "geom:longitude":5.945151,
    "iso:country":"NL",
    "sg:address":"Veenwg 45",
    "sg:city":"Apeldoorn",
    "sg:classifiers":[
        {
            "category":"Personal",
            "subcategory":"Nail Salon",
            "type":"Services"
        }
    ],
    "sg:owner":"simplegeo",
    "sg:phone":"+31 55 542 5482",
    "sg:postcode":"7336 AE",
    "sg:province":"Gelderland",
    "sg:tags":[
        "pedicure"
    ],
    "src:geom":"simplegeo",
    "wof:belongsto":[
        85797465,
        85633337,
        101751853,
        85687043
    ],
    "wof:breaches":[],
    "wof:concordances":{
        "sg:id":"SG_0JEikaWZpUfvyI3RBZjts2_52.200615_5.945151@1306269951"
    },
    "wof:country":"NL",
    "wof:geomhash":"d5e562318778553b52c75897ac9ba5e6",
    "wof:hierarchy":[
        {
            "continent_id":-1,
            "country_id":85633337,
            "locality_id":101751853,
            "neighbourhood_id":85797465,
            "region_id":85687043,
            "venue_id":253590013
        }
    ],
    "wof:id":253590013,
    "wof:lastmodified":1449064576,
    "wof:name":"Wilma Kooy",
    "wof:parent_id":85797465,
    "wof:placetype":"venue",
    "wof:superseded_by":[],
    "wof:supersedes":[],
    "wof:tags":[
        "pedicure"
    ]
},
  "bbox": [5.945151,52.200615,5.945151,52.200615],
  "geometry": {"coordinates":[5.945151,52.200615],"type":"Point"}
}