{
  "id": 219172189,
  "type": "Feature",
  "properties": {
    "edtf:cessation":"u",
    "edtf:inception":"u",
    "geom:area":0.0,
    "geom:bbox":"5.143292,52.222076,5.143292,52.222076",
    "geom:latitude":52.222076,
    "geom:longitude":5.143292,
    "iso:country":"NL",
    "sg:address":"Nw Havenwg 85",
    "sg:city":"Hilversum",
    "sg:classifiers":[
        {
            "category":"Professional",
            "subcategory":"",
            "type":"Services"
        }
    ],
    "sg:owner":"simplegeo",
    "sg:phone":"+31 35 621 7505",
    "sg:postcode":"1216 BP",
    "sg:province":"Noord-Holland",
    "sg:tags":[
        "leasing"
    ],
    "src:geom":"simplegeo",
    "wof:belongsto":[
        85797793,
        85633337,
        85687053
    ],
    "wof:breaches":[],
    "wof:concordances":{
        "sg:id":"SG_3P3peKAy0MkB1Stxw1At8h_52.222076_5.143292@1306269924"
    },
    "wof:country":"NL",
    "wof:geomhash":"0c99d29c8a7bb37219cc138a7de26199",
    "wof:hierarchy":[
        {
            "continent_id":-1,
            "country_id":85633337,
            "locality_id":-1,
            "neighbourhood_id":85797793,
            "region_id":85687053,
            "venue_id":219172189
        }
    ],
    "wof:id":219172189,
    "wof:lastmodified":1449071809,
    "wof:name":"Bks Bv",
    "wof:parent_id":85797793,
    "wof:placetype":"venue",
    "wof:superseded_by":[],
    "wof:supersedes":[],
    "wof:tags":[
        "leasing"
    ]
},
  "bbox": [5.143292,52.222076,5.143292,52.222076],
  "geometry": {"coordinates":[5.143292,52.222076],"type":"Point"}
}