{
  "id": 319852777,
  "type": "Feature",
  "properties": {
    "edtf:cessation":"u",
    "edtf:inception":"u",
    "geom:area":0.0,
    "geom:bbox":"6.720511,52.154358,6.720511,52.154358",
    "geom:latitude":52.154358,
    "geom:longitude":6.720511,
    "iso:country":"NL",
    "sg:address":"Nijverheidsstraat 1",
    "sg:city":"Haaksbergen",
    "sg:classifiers":[],
    "sg:orig_category":"Hout Gh",
    "sg:owner":"simplegeo",
    "sg:phone":"+31 53 573 5777",
    "sg:postcode":"7482 GZ",
    "sg:province":"Overijssel",
    "src:geom":"simplegeo",
    "wof:belongsto":[
        85633337,
        101807203,
        85687045
    ],
    "wof:breaches":[],
    "wof:concordances":{
        "sg:id":"SG_1Q9M21rE9O7XvnaXGSLaTo_52.154358_6.720511@1306269991"
    },
    "wof:country":"NL",
    "wof:geomhash":"0b6f377c80748a20f93126e7183afb0b",
    "wof:hierarchy":[
        {
            "continent_id":-1,
            "country_id":85633337,
            "locality_id":101807203,
            "neighbourhood_id":-1,
            "region_id":85687045,
            "venue_id":319852777
        }
    ],
    "wof:id":319852777,
    "wof:lastmodified":1449024752,
    "wof:name":"Waanders Deurenspeciaalzaak",
    "wof:parent_id":-1,
    "wof:placetype":"venue",
    "wof:superseded_by":[],
    "wof:supersedes":[],
    "wof:tags":[]
},
  "bbox": [6.720511,52.154358,6.720511,52.154358],
  "geometry": {"coordinates":[6.720511,52.154358],"type":"Point"}
}