{
  "id": 286465013,
  "type": "Feature",
  "properties": {
    "edtf:cessation":"u",
    "edtf:inception":"u",
    "geom:area":0.0,
    "geom:bbox":"5.31764,51.50441,5.31764,51.50441",
    "geom:latitude":51.50441,
    "geom:longitude":5.31764,
    "iso:country":"NL",
    "sg:address":"Bestsewg 11",
    "sg:city":"Oirschot",
    "sg:classifiers":[],
    "sg:orig_category":"Beeldende Kunstenaars",
    "sg:owner":"simplegeo",
    "sg:phone":"+31 499 575 752",
    "sg:postcode":"5688 NP",
    "sg:province":"Noord-Brabant",
    "src:geom":"simplegeo",
    "wof:belongsto":[
        85633337,
        101809741,
        85687035
    ],
    "wof:breaches":[],
    "wof:concordances":{
        "sg:id":"SG_69z4NW8eEpsoiUIbVv8pm4_51.504410_5.317640@1306269969"
    },
    "wof:country":"NL",
    "wof:geomhash":"ac4d359add600f8475d2e83b21112300",
    "wof:hierarchy":[
        {
            "continent_id":-1,
            "country_id":85633337,
            "locality_id":101809741,
            "neighbourhood_id":-1,
            "region_id":85687035,
            "venue_id":286465013
        }
    ],
    "wof:id":286465013,
    "wof:lastmodified":1449017166,
    "wof:name":"Aartsen, Schildersatelier Carine",
    "wof:parent_id":-1,
    "wof:placetype":"venue",
    "wof:superseded_by":[],
    "wof:supersedes":[],
    "wof:tags":[]
},
  "bbox": [5.31764,51.50441,5.31764,51.50441],
  "geometry": {"coordinates":[5.31764,51.50441],"type":"Point"}
}