{
  "id": 320019139,
  "type": "Feature",
  "properties": {
    "edtf:cessation":"u",
    "edtf:inception":"u",
    "geom:area":0.0,
    "geom:bbox":"5.99064,51.197517,5.99064,51.197517",
    "geom:latitude":51.197517,
    "geom:longitude":5.99064,
    "iso:country":"NL",
    "sg:address":"Steegstraat 2",
    "sg:city":"Roermond",
    "sg:classifiers":[],
    "sg:orig_category":"Hypotheken And Hypotheekbanken",
    "sg:owner":"simplegeo",
    "sg:phone":"+31 475 332 911",
    "sg:postcode":"6041 EA",
    "sg:province":"Limburg",
    "src:geom":"simplegeo",
    "wof:belongsto":[
        85797971,
        85633337,
        101839309,
        85687033
    ],
    "wof:breaches":[],
    "wof:concordances":{
        "sg:id":"SG_5yVjSyGv0LTgxRQH91tf7E_51.197517_5.990640@1306269993"
    },
    "wof:country":"NL",
    "wof:geomhash":"eccac3fbfb26f9b9ffb2ac29a705ca1f",
    "wof:hierarchy":[
        {
            "continent_id":-1,
            "country_id":85633337,
            "locality_id":101839309,
            "neighbourhood_id":85797971,
            "region_id":85687033,
            "venue_id":320019139
        }
    ],
    "wof:id":320019139,
    "wof:lastmodified":1449013398,
    "wof:name":"Paul Vossen & Partners",
    "wof:parent_id":85797971,
    "wof:placetype":"venue",
    "wof:superseded_by":[],
    "wof:supersedes":[],
    "wof:tags":[]
},
  "bbox": [5.99064,51.197517,5.99064,51.197517],
  "geometry": {"coordinates":[5.99064,51.197517],"type":"Point"}
}