{
  "id": 219500745,
  "type": "Feature",
  "properties": {
    "edtf:cessation":"u",
    "edtf:inception":"u",
    "geom:area":0.0,
    "geom:bbox":"4.756426,52.896618,4.756426,52.896618",
    "geom:latitude":52.896618,
    "geom:longitude":4.756426,
    "iso:country":"NL",
    "sg:address":"Proeftuinwg 7",
    "sg:city":"Den Helder",
    "sg:classifiers":[],
    "sg:orig_category":"Loopbaanbegeleiding",
    "sg:owner":"simplegeo",
    "sg:phone":"+31 223 642 788",
    "sg:postcode":"1786 AG",
    "sg:province":"Noord-Holland",
    "src:geom":"simplegeo",
    "wof:belongsto":[
        85633337,
        101806077,
        85687053
    ],
    "wof:breaches":[],
    "wof:concordances":{
        "sg:id":"SG_1PtNWmLWBmd7opTynHPFT3_52.896618_4.756426@1306269926"
    },
    "wof:country":"NL",
    "wof:geomhash":"7ecb8967a35edc486d00e5c5c3709905",
    "wof:hierarchy":[
        {
            "continent_id":-1,
            "country_id":85633337,
            "locality_id":101806077,
            "neighbourhood_id":-1,
            "region_id":85687053,
            "venue_id":219500745
        }
    ],
    "wof:id":219500745,
    "wof:lastmodified":1449071283,
    "wof:name":"Liefhebber, J M",
    "wof:parent_id":-1,
    "wof:placetype":"venue",
    "wof:superseded_by":[],
    "wof:supersedes":[],
    "wof:tags":[]
},
  "bbox": [4.756426,52.896618,4.756426,52.896618],
  "geometry": {"coordinates":[4.756426,52.896618],"type":"Point"}
}