{
  "id": 202701287,
  "type": "Feature",
  "properties": {
    "edtf:cessation":"u",
    "edtf:inception":"u",
    "geom:area":0.0,
    "geom:bbox":"6.610497,52.368282,6.610497,52.368282",
    "geom:latitude":52.368282,
    "geom:longitude":6.610497,
    "iso:country":"NL",
    "sg:address":"Bedryvenpk Twente 301A",
    "sg:city":"Almelo",
    "sg:classifiers":[],
    "sg:orig_category":"Verpakkingen En Verpakkingsmaterialen",
    "sg:owner":"simplegeo",
    "sg:phone":"+31 546 579 648",
    "sg:postcode":"7602 KL",
    "sg:province":"Overijssel",
    "src:geom":"simplegeo",
    "wof:belongsto":[
        85633337,
        101754769,
        85687045
    ],
    "wof:breaches":[],
    "wof:concordances":{
        "sg:id":"SG_2tgvSUjBApmJbNi08tNUWg_52.368282_6.610497@1306269917"
    },
    "wof:country":"NL",
    "wof:geomhash":"d18cd229bc75bbd759ec50f5fdfe545a",
    "wof:hierarchy":[
        {
            "continent_id":-1,
            "country_id":85633337,
            "locality_id":101754769,
            "neighbourhood_id":-1,
            "region_id":85687045,
            "venue_id":202701287
        }
    ],
    "wof:id":202701287,
    "wof:lastmodified":1449062130,
    "wof:name":"A-1 Packaging Bv",
    "wof:parent_id":-1,
    "wof:placetype":"venue",
    "wof:superseded_by":[],
    "wof:supersedes":[],
    "wof:tags":[]
},
  "bbox": [6.610497,52.368282,6.610497,52.368282],
  "geometry": {"coordinates":[6.610497,52.368282],"type":"Point"}
}