{
  "id": 269774565,
  "type": "Feature",
  "properties": {
    "edtf:cessation":"u",
    "edtf:inception":"u",
    "geom:area":0.0,
    "geom:bbox":"5.590714,53.222755,5.590714,53.222755",
    "geom:latitude":53.222755,
    "geom:longitude":5.590714,
    "iso:country":"NL",
    "sg:address":"Pastorielaan 2",
    "sg:city":"Ried",
    "sg:classifiers":[
        {
            "category":"Fast Food",
            "subcategory":"",
            "type":"Food & Drink"
        }
    ],
    "sg:owner":"simplegeo",
    "sg:phone":"+31 517 269 740",
    "sg:postcode":"8811 HL",
    "sg:province":"Provincie Friesland",
    "sg:tags":[
        "afhaal",
        "restaurant"
    ],
    "src:geom":"simplegeo",
    "wof:belongsto":[
        85633337,
        85687055
    ],
    "wof:breaches":[],
    "wof:concordances":{
        "sg:id":"SG_6n3kVxMPMFp6d33W6aFr48_53.222755_5.590714@1306269957"
    },
    "wof:country":"NL",
    "wof:geomhash":"662e0216e18e49b32dbd6e54b508b567",
    "wof:hierarchy":[
        {
            "continent_id":-1,
            "country_id":85633337,
            "locality_id":-1,
            "neighbourhood_id":-1,
            "region_id":85687055,
            "venue_id":269774565
        }
    ],
    "wof:id":269774565,
    "wof:lastmodified":1449037088,
    "wof:name":"Plantinga",
    "wof:parent_id":-1,
    "wof:placetype":"venue",
    "wof:superseded_by":[],
    "wof:supersedes":[],
    "wof:tags":[
        "afhaal",
        "restaurant"
    ]
},
  "bbox": [5.590714,53.222755,5.590714,53.222755],
  "geometry": {"coordinates":[5.590714,53.222755],"type":"Point"}
}