{
  "id": 320528369,
  "type": "Feature",
  "properties": {
    "edtf:cessation":"u",
    "edtf:inception":"u",
    "geom:area":0.0,
    "geom:bbox":"6.58977,53.192875,6.58977,53.192875",
    "geom:latitude":53.192875,
    "geom:longitude":6.58977,
    "iso:country":"NL",
    "sg:address":"Domela Nieuwenhuislaan 18",
    "sg:city":"Groningen",
    "sg:classifiers":[],
    "sg:orig_category":"Granen, Zaden And Diervoeders Gh",
    "sg:owner":"simplegeo",
    "sg:phone":"+31 50 525 6589",
    "sg:postcode":"9722 LK",
    "sg:province":"Groningen",
    "src:geom":"simplegeo",
    "wof:belongsto":[
        85797263,
        85633337,
        101751909,
        85687059
    ],
    "wof:breaches":[],
    "wof:concordances":{
        "sg:id":"SG_6BczGMhpggIAiprpBRec4W_53.192875_6.589770@1306269999"
    },
    "wof:country":"NL",
    "wof:geomhash":"4422bb29123b63e2b847619e282e03d0",
    "wof:hierarchy":[
        {
            "continent_id":-1,
            "country_id":85633337,
            "locality_id":101751909,
            "neighbourhood_id":85797263,
            "region_id":85687059,
            "venue_id":320528369
        }
    ],
    "wof:id":320528369,
    "wof:lastmodified":1449012260,
    "wof:name":"Roel Offeringa Bv",
    "wof:parent_id":85797263,
    "wof:placetype":"venue",
    "wof:superseded_by":[],
    "wof:supersedes":[],
    "wof:tags":[]
},
  "bbox": [6.58977,53.192875,6.58977,53.192875],
  "geometry": {"coordinates":[6.58977,53.192875],"type":"Point"}
}