{
  "id": 336897647,
  "type": "Feature",
  "properties": {
    "edtf:cessation":"u",
    "edtf:inception":"u",
    "geom:area":0.0,
    "geom:bbox":"4.911769,52.384144,4.911769,52.384144",
    "geom:latitude":52.384144,
    "geom:longitude":4.911769,
    "iso:country":"NL",
    "sg:address":"Adelaarswg 11",
    "sg:city":"Amsterdam",
    "sg:classifiers":[],
    "sg:orig_category":"Onderzoekbureaus",
    "sg:owner":"simplegeo",
    "sg:phone":"+31 20 637 3623",
    "sg:postcode":"1021 BM",
    "sg:province":"Noord-Holland",
    "src:geom":"simplegeo",
    "wof:belongsto":[
        85798067,
        85633337,
        101751893,
        85687053
    ],
    "wof:breaches":[],
    "wof:concordances":{
        "sg:id":"SG_2fm7PxtMt5WIhuWxZQcXH2_52.384144_4.911769@1306270007"
    },
    "wof:country":"NL",
    "wof:geomhash":"62485182bd05176dffc981a7c10e8e4e",
    "wof:hierarchy":[
        {
            "continent_id":-1,
            "country_id":85633337,
            "locality_id":101751893,
            "neighbourhood_id":85798067,
            "region_id":85687053,
            "venue_id":336897647
        }
    ],
    "wof:id":336897647,
    "wof:lastmodified":1448997861,
    "wof:name":"Dijk12",
    "wof:parent_id":85798067,
    "wof:placetype":"venue",
    "wof:superseded_by":[],
    "wof:supersedes":[],
    "wof:tags":[]
},
  "bbox": [4.911769,52.384144,4.911769,52.384144],
  "geometry": {"coordinates":[4.911769,52.384144],"type":"Point"}
}