{
  "id": 336752237,
  "type": "Feature",
  "properties": {
    "edtf:cessation":"u",
    "edtf:inception":"u",
    "geom:area":0.0,
    "geom:bbox":"4.665261,52.396168,4.665261,52.396168",
    "geom:latitude":52.396168,
    "geom:longitude":4.665261,
    "iso:country":"NL",
    "sg:address":"A Hofmanwg 41",
    "sg:city":"Haarlem",
    "sg:classifiers":[],
    "sg:orig_category":"Accumulatoren - Fabrieken En Groothandel",
    "sg:owner":"simplegeo",
    "sg:phone":"+31 23 531 9080",
    "sg:postcode":"2031 BH",
    "sg:province":"Noord-Holland",
    "sg:website":"http://www.pse.nl",
    "src:geom":"simplegeo",
    "wof:belongsto":[
        85859533,
        85633337,
        85687053
    ],
    "wof:breaches":[],
    "wof:concordances":{
        "sg:id":"SG_7IlqnNWH0i0z8o7lLJpyhO_52.396168_4.665261@1306270005"
    },
    "wof:country":"NL",
    "wof:geomhash":"de92420dee0f6df2a9b33adc6129d884",
    "wof:hierarchy":[
        {
            "continent_id":-1,
            "country_id":85633337,
            "locality_id":-1,
            "neighbourhood_id":85859533,
            "region_id":85687053,
            "venue_id":336752237
        }
    ],
    "wof:id":336752237,
    "wof:lastmodified":1448997120,
    "wof:name":"Power Storage Europe Bv",
    "wof:parent_id":85859533,
    "wof:placetype":"venue",
    "wof:superseded_by":[],
    "wof:supersedes":[],
    "wof:tags":[]
},
  "bbox": [4.665261,52.396168,4.665261,52.396168],
  "geometry": {"coordinates":[4.665261,52.396168],"type":"Point"}
}