{
  "id": 202816767,
  "type": "Feature",
  "properties": {
    "edtf:cessation":"u",
    "edtf:inception":"u",
    "geom:area":0.0,
    "geom:bbox":"5.150043,52.084473,5.150043,52.084473",
    "geom:latitude":52.084473,
    "geom:longitude":5.150043,
    "iso:country":"NL",
    "sg:address":"Pr Hendrikln 90",
    "sg:city":"Utrecht",
    "sg:classifiers":[],
    "sg:orig_category":"Vertaalbureaus",
    "sg:owner":"simplegeo",
    "sg:phone":"+31 30 252 2018",
    "sg:postcode":"3584 ES",
    "sg:province":"Utrecht",
    "src:geom":"simplegeo",
    "wof:belongsto":[
        85797403,
        85633337,
        85687039
    ],
    "wof:breaches":[],
    "wof:concordances":{
        "sg:id":"SG_1BsY0ieD8WvZKdrqoftBod_52.084473_5.150043@1306269918"
    },
    "wof:country":"NL",
    "wof:geomhash":"824dcaf93559cac23debb45f24595b90",
    "wof:hierarchy":[
        {
            "continent_id":-1,
            "country_id":85633337,
            "locality_id":-1,
            "neighbourhood_id":85797403,
            "region_id":85687039,
            "venue_id":202816767
        }
    ],
    "wof:id":202816767,
    "wof:lastmodified":1449061593,
    "wof:name":"Anglo-File",
    "wof:parent_id":85797403,
    "wof:placetype":"venue",
    "wof:superseded_by":[],
    "wof:supersedes":[],
    "wof:tags":[]
},
  "bbox": [5.150043,52.084473,5.150043,52.084473],
  "geometry": {"coordinates":[5.150043,52.084473],"type":"Point"}
}