{
  "id": 320213517,
  "type": "Feature",
  "properties": {
    "edtf:cessation":"u",
    "edtf:inception":"u",
    "geom:area":0.0,
    "geom:bbox":"5.894995,51.249889,5.894995,51.249889",
    "geom:latitude":51.249889,
    "geom:longitude":5.894995,
    "iso:country":"NL",
    "sg:address":"Eduard Van Wegbergplein 25",
    "sg:city":"Heythuysen",
    "sg:classifiers":[
        {
            "category":"Shopping",
            "subcategory":"Gifts & Souvenirs",
            "type":"Retail Goods"
        }
    ],
    "sg:owner":"simplegeo",
    "sg:phone":"+31 475 494 025",
    "sg:postcode":"6093 EX",
    "sg:province":"Limburg",
    "sg:tags":[
        "geschenken"
    ],
    "src:geom":"simplegeo",
    "wof:belongsto":[
        85633337,
        101809515,
        85687033
    ],
    "wof:breaches":[],
    "wof:concordances":{
        "sg:id":"SG_6wat3WAXlcLFq8er97fyV8_51.249889_5.894995@1306269996"
    },
    "wof:country":"NL",
    "wof:geomhash":"d4ca0d87d505881649e56063ea98d3c7",
    "wof:hierarchy":[
        {
            "continent_id":-1,
            "country_id":85633337,
            "locality_id":101809515,
            "neighbourhood_id":-1,
            "region_id":85687033,
            "venue_id":320213517
        }
    ],
    "wof:id":320213517,
    "wof:lastmodified":1449011302,
    "wof:name":"Le Sole",
    "wof:parent_id":-1,
    "wof:placetype":"venue",
    "wof:superseded_by":[],
    "wof:supersedes":[],
    "wof:tags":[
        "geschenken"
    ]
},
  "bbox": [5.894995,51.249889,5.894995,51.249889],
  "geometry": {"coordinates":[5.894995,51.249889],"type":"Point"}
}