{
  "id": 269888389,
  "type": "Feature",
  "properties": {
    "edtf:cessation":"u",
    "edtf:inception":"u",
    "geom:area":0.0,
    "geom:bbox":"5.459164,51.351372,5.459164,51.351372",
    "geom:latitude":51.351372,
    "geom:longitude":5.459164,
    "iso:country":"NL",
    "sg:address":"Eindhovensewg 7",
    "sg:city":"Valkenswaard",
    "sg:classifiers":[],
    "sg:orig_category":"Fietsen En Bromfietsen",
    "sg:owner":"simplegeo",
    "sg:phone":"+31 40 204 8837",
    "sg:postcode":"5554 AA",
    "sg:province":"Noord-Brabant",
    "src:geom":"simplegeo",
    "wof:belongsto":[
        85797043,
        85633337,
        85687035
    ],
    "wof:breaches":[],
    "wof:concordances":{
        "sg:id":"SG_1ekpphpYMhgmRvXLQ65Rjv_51.351372_5.459164@1306269959"
    },
    "wof:country":"NL",
    "wof:geomhash":"c71fe9b3217f2117acd88bf3ab2fa000",
    "wof:hierarchy":[
        {
            "continent_id":-1,
            "country_id":85633337,
            "locality_id":-1,
            "neighbourhood_id":85797043,
            "region_id":85687035,
            "venue_id":269888389
        }
    ],
    "wof:id":269888389,
    "wof:lastmodified":1449037646,
    "wof:name":"Halfords",
    "wof:parent_id":85797043,
    "wof:placetype":"venue",
    "wof:superseded_by":[],
    "wof:supersedes":[],
    "wof:tags":[]
},
  "bbox": [5.459164,51.351372,5.459164,51.351372],
  "geometry": {"coordinates":[5.459164,51.351372],"type":"Point"}
}