{
  "id": 219272627,
  "type": "Feature",
  "properties": {
    "edtf:cessation":"u",
    "edtf:inception":"u",
    "geom:area":0.0,
    "geom:bbox":"5.057317,51.568596,5.057317,51.568596",
    "geom:latitude":51.568596,
    "geom:longitude":5.057317,
    "iso:country":"NL",
    "sg:address":"A Moddermanstr 38",
    "sg:city":"Tilburg",
    "sg:classifiers":[],
    "sg:orig_category":"Logopedisten",
    "sg:owner":"simplegeo",
    "sg:phone":"+31 13 467 3531",
    "sg:postcode":"5042 NE",
    "sg:province":"North Brabant",
    "src:geom":"simplegeo",
    "wof:belongsto":[
        85797691,
        85633337,
        101751817,
        85687035
    ],
    "wof:breaches":[],
    "wof:concordances":{
        "sg:id":"SG_1zxU9DYbEyDDaONeCXkC6k_51.568596_5.057317@1306269924"
    },
    "wof:country":"NL",
    "wof:geomhash":"0e3057e174ffd45fe23ad7796b18df25",
    "wof:hierarchy":[
        {
            "continent_id":-1,
            "country_id":85633337,
            "locality_id":101751817,
            "neighbourhood_id":85797691,
            "region_id":85687035,
            "venue_id":219272627
        }
    ],
    "wof:id":219272627,
    "wof:lastmodified":1449073664,
    "wof:name":"Logopediepraktijk Tilburg-West",
    "wof:parent_id":85797691,
    "wof:placetype":"venue",
    "wof:superseded_by":[],
    "wof:supersedes":[],
    "wof:tags":[]
},
  "bbox": [5.057317,51.568596,5.057317,51.568596],
  "geometry": {"coordinates":[5.057317,51.568596],"type":"Point"}
}