{
  "id": 303316237,
  "type": "Feature",
  "properties": {
    "edtf:cessation":"u",
    "edtf:inception":"u",
    "geom:area":0.0,
    "geom:bbox":"4.554116,51.949833,4.554116,51.949833",
    "geom:latitude":51.949833,
    "geom:longitude":4.554116,
    "iso:country":"NL",
    "sg:address":"Poolsterstr 29",
    "sg:city":"Rotterdam",
    "sg:classifiers":[],
    "sg:orig_category":"Schoenen",
    "sg:owner":"simplegeo",
    "sg:phone":"+31 10 220 2598",
    "sg:postcode":"3067 LX",
    "sg:province":"Zuid-Holland",
    "src:geom":"simplegeo",
    "wof:belongsto":[
        85798177,
        85633337,
        101752769,
        85687041
    ],
    "wof:breaches":[],
    "wof:concordances":{
        "sg:id":"SG_32uodYVWVXBkQiq1871GPK_51.949833_4.554116@1306269982"
    },
    "wof:country":"NL",
    "wof:geomhash":"d1d44f1691341d5f93162fb559c09bc9",
    "wof:hierarchy":[
        {
            "continent_id":-1,
            "country_id":85633337,
            "locality_id":101752769,
            "neighbourhood_id":85798177,
            "region_id":85687041,
            "venue_id":303316237
        }
    ],
    "wof:id":303316237,
    "wof:lastmodified":1448999773,
    "wof:name":"Assem, Van Den",
    "wof:parent_id":85798177,
    "wof:placetype":"venue",
    "wof:superseded_by":[],
    "wof:supersedes":[],
    "wof:tags":[]
},
  "bbox": [4.554116,51.949833,4.554116,51.949833],
  "geometry": {"coordinates":[4.554116,51.949833],"type":"Point"}
}