{
  "id": 269994763,
  "type": "Feature",
  "properties": {
    "edtf:cessation":"u",
    "edtf:inception":"u",
    "geom:area":0.0,
    "geom:bbox":"4.542797,51.923599,4.542797,51.923599",
    "geom:latitude":51.923599,
    "geom:longitude":4.542797,
    "iso:country":"NL",
    "sg:address":"Ogier Van Cralingenpark 98",
    "sg:city":"Rotterdam",
    "sg:classifiers":[],
    "sg:orig_category":"Financi\u00c3\u00able Adviseurs",
    "sg:owner":"simplegeo",
    "sg:phone":"+31 10 447 3378",
    "sg:postcode":"3065 BC",
    "sg:province":"Zuid-Holland",
    "src:geom":"simplegeo",
    "wof:belongsto":[
        85859923,
        85633337,
        101754669,
        85687041
    ],
    "wof:breaches":[],
    "wof:concordances":{
        "sg:id":"SG_2P5ll12TA2KG09g310nTuO_51.923599_4.542797@1306269960"
    },
    "wof:country":"NL",
    "wof:geomhash":"2f05df0cf8eb76363895570fd11a6eba",
    "wof:hierarchy":[
        {
            "continent_id":-1,
            "country_id":85633337,
            "locality_id":101754669,
            "neighbourhood_id":85859923,
            "region_id":85687041,
            "venue_id":269994763
        }
    ],
    "wof:id":269994763,
    "wof:lastmodified":1449036248,
    "wof:name":"E Davids Bv",
    "wof:parent_id":85859923,
    "wof:placetype":"venue",
    "wof:superseded_by":[],
    "wof:supersedes":[],
    "wof:tags":[]
},
  "bbox": [4.542797,51.923599,4.542797,51.923599],
  "geometry": {"coordinates":[4.542797,51.923599],"type":"Point"}
}