{
  "id": 287180967,
  "type": "Feature",
  "properties": {
    "edtf:cessation":"u",
    "edtf:inception":"u",
    "geom:area":0.0,
    "geom:bbox":"5.2931,51.681557,5.2931,51.681557",
    "geom:latitude":51.681557,
    "geom:longitude":5.2931,
    "iso:country":"NL",
    "sg:address":"Willem Van Oranjelaan 5",
    "sg:city":"'S Hertogenbosch",
    "sg:classifiers":[],
    "sg:orig_category":"Boekenuitgeverijen",
    "sg:owner":"simplegeo",
    "sg:phone":"+31 73 614 6400",
    "sg:postcode":"5211 CN",
    "sg:province":"North Brabant",
    "src:geom":"simplegeo",
    "wof:belongsto":[
        85797429,
        85633337,
        101751809,
        85687035
    ],
    "wof:breaches":[],
    "wof:concordances":{
        "sg:id":"SG_0doZJKQasIQ1WVgWMlcLsh_51.681557_5.293100@1306269977"
    },
    "wof:country":"NL",
    "wof:geomhash":"d272ac721565fb672dcb19db7c29b06d",
    "wof:hierarchy":[
        {
            "continent_id":-1,
            "country_id":85633337,
            "locality_id":101751809,
            "neighbourhood_id":85797429,
            "region_id":85687035,
            "venue_id":287180967
        }
    ],
    "wof:id":287180967,
    "wof:lastmodified":1449000708,
    "wof:name":"Uitgeverij Tutein Nolthenius",
    "wof:parent_id":85797429,
    "wof:placetype":"venue",
    "wof:superseded_by":[],
    "wof:supersedes":[],
    "wof:tags":[]
},
  "bbox": [5.2931,51.681557,5.2931,51.681557],
  "geometry": {"coordinates":[5.2931,51.681557],"type":"Point"}
}