{
  "id": 253027583,
  "type": "Feature",
  "properties": {
    "edtf:cessation":"u",
    "edtf:inception":"u",
    "geom:area":0.0,
    "geom:bbox":"5.220065,52.349155,5.220065,52.349155",
    "geom:latitude":52.349155,
    "geom:longitude":5.220065,
    "iso:country":"NL",
    "sg:address":"De Steiger 32",
    "sg:city":"Almere",
    "sg:classifiers":[],
    "sg:orig_category":"Metaalwerken",
    "sg:owner":"simplegeo",
    "sg:phone":"+31 36 531 3930",
    "sg:postcode":"1351 AB",
    "sg:province":"Flevoland",
    "src:geom":"simplegeo",
    "wof:belongsto":[
        85633337,
        101807237,
        85687049
    ],
    "wof:breaches":[],
    "wof:concordances":{
        "sg:id":"SG_4NmD6tT377q8W1cMJvUVlz_52.349155_5.220065@1306269945"
    },
    "wof:country":"NL",
    "wof:geomhash":"ab63ae011aa2cdf5534a8d1627dd35e5",
    "wof:hierarchy":[
        {
            "continent_id":-1,
            "country_id":85633337,
            "locality_id":101807237,
            "neighbourhood_id":-1,
            "region_id":85687049,
            "venue_id":253027583
        }
    ],
    "wof:id":253027583,
    "wof:lastmodified":1449063367,
    "wof:name":"Fransen Montage",
    "wof:parent_id":-1,
    "wof:placetype":"venue",
    "wof:superseded_by":[],
    "wof:supersedes":[],
    "wof:tags":[]
},
  "bbox": [5.220065,52.349155,5.220065,52.349155],
  "geometry": {"coordinates":[5.220065,52.349155],"type":"Point"}
}