{
  "id": 303841263,
  "type": "Feature",
  "properties": {
    "edtf:cessation":"u",
    "edtf:inception":"u",
    "geom:area":0.0,
    "geom:bbox":"4.443326,51.537998,4.443326,51.537998",
    "geom:latitude":51.537998,
    "geom:longitude":4.443326,
    "iso:country":"NL",
    "sg:address":"Breitnerln 11",
    "sg:city":"Roosendaal",
    "sg:classifiers":[],
    "sg:orig_category":"Handenarbeid",
    "sg:owner":"simplegeo",
    "sg:phone":"+31 165 399 705",
    "sg:postcode":"4703 JM",
    "sg:province":"Noord-Brabant",
    "src:geom":"simplegeo",
    "wof:belongsto":[
        85798531,
        85633337,
        85687035
    ],
    "wof:breaches":[],
    "wof:concordances":{
        "sg:id":"SG_5sN7xOL0hrmvpFlC1pkjMx_51.537998_4.443326@1306269988"
    },
    "wof:country":"NL",
    "wof:geomhash":"f5c0901632c58749f025b6d5378ee71d",
    "wof:hierarchy":[
        {
            "continent_id":-1,
            "country_id":85633337,
            "locality_id":-1,
            "neighbourhood_id":85798531,
            "region_id":85687035,
            "venue_id":303841263
        }
    ],
    "wof:id":303841263,
    "wof:lastmodified":1448998630,
    "wof:name":"Blokkendoos, De",
    "wof:parent_id":85798531,
    "wof:placetype":"venue",
    "wof:superseded_by":[],
    "wof:supersedes":[],
    "wof:tags":[]
},
  "bbox": [4.443326,51.537998,4.443326,51.537998],
  "geometry": {"coordinates":[4.443326,51.537998],"type":"Point"}
}