{
  "id": 336599189,
  "type": "Feature",
  "properties": {
    "edtf:cessation":"u",
    "edtf:inception":"u",
    "geom:area":0.0,
    "geom:bbox":"4.274153,52.105541,4.274153,52.105541",
    "geom:latitude":52.105541,
    "geom:longitude":4.274153,
    "iso:country":"NL",
    "sg:address":"Keizerstraat 93",
    "sg:city":"'S Gravenhage",
    "sg:classifiers":[],
    "sg:orig_category":"Juweliers",
    "sg:owner":"simplegeo",
    "sg:phone":"+31 70 355 1182",
    "sg:postcode":"2584 BC",
    "sg:province":"Zuid-Holland",
    "src:geom":"simplegeo",
    "wof:belongsto":[
        85798379,
        85633337,
        85687041
    ],
    "wof:breaches":[],
    "wof:concordances":{
        "sg:id":"SG_0DxHfKkFOg7x5RUhxbRDmt_52.105541_4.274153@1306270003"
    },
    "wof:country":"NL",
    "wof:geomhash":"642e777b3b7ec6f34b760adf6b8b74cb",
    "wof:hierarchy":[
        {
            "continent_id":-1,
            "country_id":85633337,
            "locality_id":-1,
            "neighbourhood_id":85798379,
            "region_id":85687041,
            "venue_id":336599189
        }
    ],
    "wof:id":336599189,
    "wof:lastmodified":1448997450,
    "wof:name":"De Gouden Keizer",
    "wof:parent_id":85798379,
    "wof:placetype":"venue",
    "wof:superseded_by":[],
    "wof:supersedes":[],
    "wof:tags":[]
},
  "bbox": [4.274153,52.105541,4.274153,52.105541],
  "geometry": {"coordinates":[4.274153,52.105541],"type":"Point"}
}