{
  "id": 320185123,
  "type": "Feature",
  "properties": {
    "edtf:cessation":"u",
    "edtf:inception":"u",
    "geom:area":0.0,
    "geom:bbox":"5.322889,51.972523,5.322889,51.972523",
    "geom:latitude":51.972523,
    "geom:longitude":5.322889,
    "iso:country":"NL",
    "sg:address":"Amstel 90",
    "sg:city":"Wijk Bij Duurstede",
    "sg:classifiers":[],
    "sg:orig_category":"Geluidsopnamen",
    "sg:owner":"simplegeo",
    "sg:phone":"+31 343 591 361",
    "sg:postcode":"3961 HL",
    "sg:province":"Utrecht",
    "src:geom":"simplegeo",
    "wof:belongsto":[
        85633337,
        101809833,
        85687039
    ],
    "wof:breaches":[],
    "wof:concordances":{
        "sg:id":"SG_4A1ytCt897bU4tMvy1vtql_51.972523_5.322889@1306269995"
    },
    "wof:country":"NL",
    "wof:geomhash":"4fe84e743882523f25d7431576c235f5",
    "wof:hierarchy":[
        {
            "continent_id":-1,
            "country_id":85633337,
            "locality_id":101809833,
            "neighbourhood_id":-1,
            "region_id":85687039,
            "venue_id":320185123
        }
    ],
    "wof:id":320185123,
    "wof:lastmodified":1449011871,
    "wof:name":"Andre Remkes Muziekprodukties",
    "wof:parent_id":-1,
    "wof:placetype":"venue",
    "wof:superseded_by":[],
    "wof:supersedes":[],
    "wof:tags":[]
},
  "bbox": [5.322889,51.972523,5.322889,51.972523],
  "geometry": {"coordinates":[5.322889,51.972523],"type":"Point"}
}