{
  "id": 320246687,
  "type": "Feature",
  "properties": {
    "edtf:cessation":"u",
    "edtf:inception":"u",
    "geom:area":0.0,
    "geom:bbox":"5.909317,51.968414,5.909317,51.968414",
    "geom:latitude":51.968414,
    "geom:longitude":5.909317,
    "iso:country":"NL",
    "sg:address":"Distellaan 13",
    "sg:city":"Arnhem",
    "sg:classifiers":[],
    "sg:orig_category":"Gespecialiseerde Voeding",
    "sg:owner":"simplegeo",
    "sg:phone":"+31 26 321 2194",
    "sg:postcode":"6833 AX",
    "sg:province":"Gelderland",
    "src:geom":"simplegeo",
    "wof:belongsto":[
        85797977,
        85633337,
        85687043
    ],
    "wof:breaches":[],
    "wof:concordances":{
        "sg:id":"SG_1XjSyTpBebtAIPi3NeAHJd_51.968414_5.909317@1306269996"
    },
    "wof:country":"NL",
    "wof:geomhash":"f956948551351149b138809f6afb92ee",
    "wof:hierarchy":[
        {
            "continent_id":-1,
            "country_id":85633337,
            "locality_id":-1,
            "neighbourhood_id":85797977,
            "region_id":85687043,
            "venue_id":320246687
        }
    ],
    "wof:id":320246687,
    "wof:lastmodified":1449011495,
    "wof:name":"Yuceyurt Export",
    "wof:parent_id":85797977,
    "wof:placetype":"venue",
    "wof:superseded_by":[],
    "wof:supersedes":[],
    "wof:tags":[]
},
  "bbox": [5.909317,51.968414,5.909317,51.968414],
  "geometry": {"coordinates":[5.909317,51.968414],"type":"Point"}
}