{
  "id": 253499257,
  "type": "Feature",
  "properties": {
    "edtf:cessation":"u",
    "edtf:inception":"u",
    "geom:area":0.0,
    "geom:bbox":"4.939282,52.398464,4.939282,52.398464",
    "geom:latitude":52.398464,
    "geom:longitude":4.939282,
    "iso:country":"NL",
    "sg:address":"Buikslotermeerpln 247",
    "sg:city":"Amsterdam",
    "sg:classifiers":[],
    "sg:orig_category":"Parfumerie\u00c3\u00abn",
    "sg:owner":"simplegeo",
    "sg:phone":"+31 20 637 3284",
    "sg:postcode":"1025 XC",
    "sg:province":"Noord-Holland",
    "src:geom":"simplegeo",
    "wof:belongsto":[
        85797215,
        85633337,
        101751893,
        85687053
    ],
    "wof:breaches":[],
    "wof:concordances":{
        "sg:id":"SG_6u3wVb8fUK7aRjdXpbS8my_52.398464_4.939282@1306269950"
    },
    "wof:country":"NL",
    "wof:geomhash":"6d0cff37838977d33f710dfb9ed21c32",
    "wof:hierarchy":[
        {
            "continent_id":-1,
            "country_id":85633337,
            "locality_id":101751893,
            "neighbourhood_id":85797215,
            "region_id":85687053,
            "venue_id":253499257
        }
    ],
    "wof:id":253499257,
    "wof:lastmodified":1449063374,
    "wof:name":"Douglas",
    "wof:parent_id":85797215,
    "wof:placetype":"venue",
    "wof:superseded_by":[],
    "wof:supersedes":[],
    "wof:tags":[]
},
  "bbox": [4.939282,52.398464,4.939282,52.398464],
  "geometry": {"coordinates":[4.939282,52.398464],"type":"Point"}
}