{
  "id": 202501767,
  "type": "Feature",
  "properties": {
    "edtf:cessation":"u",
    "edtf:inception":"u",
    "geom:area":0.0,
    "geom:bbox":"5.263961,52.222485,5.263961,52.222485",
    "geom:latitude":52.222485,
    "geom:longitude":5.263961,
    "iso:country":"NL",
    "sg:address":"Hermesweg 24",
    "sg:city":"Baarn",
    "sg:classifiers":[],
    "sg:orig_category":"Verhuur Gereedschapsmachines And Gereedschappen",
    "sg:owner":"simplegeo",
    "sg:phone":"+31 35 541 6753",
    "sg:postcode":"3741 GP",
    "sg:province":"Utrecht",
    "src:geom":"simplegeo",
    "wof:belongsto":[
        85797031,
        85633337,
        85687039
    ],
    "wof:breaches":[],
    "wof:concordances":{
        "sg:id":"SG_1ugmNpdVrpuwJyGNA0WyE9_52.222485_5.263961@1306269915"
    },
    "wof:country":"NL",
    "wof:geomhash":"9a9f15baf00f99f4e0b42eec0cdebaaf",
    "wof:hierarchy":[
        {
            "continent_id":-1,
            "country_id":85633337,
            "locality_id":-1,
            "neighbourhood_id":85797031,
            "region_id":85687039,
            "venue_id":202501767
        }
    ],
    "wof:id":202501767,
    "wof:lastmodified":1449062672,
    "wof:name":"Publi Air Nv",
    "wof:parent_id":85797031,
    "wof:placetype":"venue",
    "wof:superseded_by":[],
    "wof:supersedes":[],
    "wof:tags":[]
},
  "bbox": [5.263961,52.222485,5.263961,52.222485],
  "geometry": {"coordinates":[5.263961,52.222485],"type":"Point"}
}