{
  "id": 185878963,
  "type": "Feature",
  "properties": {
    "edtf:cessation":"u",
    "edtf:inception":"u",
    "geom:area":0.0,
    "geom:bbox":"4.207925,51.993217,4.207925,51.993217",
    "geom:latitude":51.993217,
    "geom:longitude":4.207925,
    "iso:country":"NL",
    "sg:address":"Wilhelminaplein 8",
    "sg:city":"Naaldwijk",
    "sg:classifiers":[],
    "sg:orig_category":"Kinderopvang Behalve Thuis",
    "sg:owner":"simplegeo",
    "sg:phone":"+31 174 641 698",
    "sg:postcode":"2671 GR",
    "sg:province":"South Holland",
    "src:geom":"simplegeo",
    "wof:belongsto":[
        85633337,
        101837719,
        85687041
    ],
    "wof:breaches":[],
    "wof:concordances":{
        "sg:id":"SG_5YWSCX5ClPVrZ55DZCmJVW_51.993217_4.207925@1306269908"
    },
    "wof:country":"NL",
    "wof:geomhash":"e230f025e97de5295640dc79a9bd7f68",
    "wof:hierarchy":[
        {
            "continent_id":-1,
            "country_id":85633337,
            "locality_id":101837719,
            "neighbourhood_id":-1,
            "region_id":85687041,
            "venue_id":185878963
        }
    ],
    "wof:id":185878963,
    "wof:lastmodified":1449007466,
    "wof:name":"Bim Bam",
    "wof:parent_id":-1,
    "wof:placetype":"venue",
    "wof:superseded_by":[],
    "wof:supersedes":[],
    "wof:tags":[]
},
  "bbox": [4.207925,51.993217,4.207925,51.993217],
  "geometry": {"coordinates":[4.207925,51.993217],"type":"Point"}
}