{
  "id": 286825575,
  "type": "Feature",
  "properties": {
    "edtf:cessation":"u",
    "edtf:inception":"u",
    "geom:area":0.0,
    "geom:bbox":"5.25275,52.69566,5.25275,52.69566",
    "geom:latitude":52.69566,
    "geom:longitude":5.25275,
    "iso:country":"NL",
    "sg:address":"Broekerhavenwg 79",
    "sg:city":"Bovenkarspel",
    "sg:classifiers":[],
    "sg:orig_category":"Bloembollen - Groothandel",
    "sg:owner":"simplegeo",
    "sg:phone":"+31 228 512 152",
    "sg:postcode":"1611 CA",
    "sg:province":"Noord-Holland",
    "src:geom":"simplegeo",
    "wof:belongsto":[
        85859947,
        85633337,
        101837903,
        85687053
    ],
    "wof:breaches":[],
    "wof:concordances":{
        "sg:id":"SG_3wC8CHphfLXwPYgTWxqyEn_52.695660_5.252750@1306269973"
    },
    "wof:country":"NL",
    "wof:geomhash":"2a03871ed83c4abfd2073c99e6cb8caa",
    "wof:hierarchy":[
        {
            "continent_id":-1,
            "country_id":85633337,
            "locality_id":101837903,
            "neighbourhood_id":85859947,
            "region_id":85687053,
            "venue_id":286825575
        }
    ],
    "wof:id":286825575,
    "wof:lastmodified":1449015277,
    "wof:name":"Simon En Karin Visser",
    "wof:parent_id":85859947,
    "wof:placetype":"venue",
    "wof:superseded_by":[],
    "wof:supersedes":[],
    "wof:tags":[]
},
  "bbox": [5.25275,52.69566,5.25275,52.69566],
  "geometry": {"coordinates":[5.25275,52.69566],"type":"Point"}
}