{
  "id": 253224995,
  "type": "Feature",
  "properties": {
    "edtf:cessation":"u",
    "edtf:inception":"u",
    "geom:area":0.0,
    "geom:bbox":"5.57804,51.964512,5.57804,51.964512",
    "geom:latitude":51.964512,
    "geom:longitude":5.57804,
    "iso:country":"NL",
    "sg:address":"Ribeslaan 4",
    "sg:city":"Rhenen",
    "sg:classifiers":[],
    "sg:orig_category":"Meubels And Huishoudapparatuur Gh",
    "sg:owner":"simplegeo",
    "sg:phone":"+31 317 616 747",
    "sg:postcode":"3911 ZW",
    "sg:province":"Utrecht",
    "src:geom":"simplegeo",
    "wof:belongsto":[
        85633337,
        101809835,
        85687039
    ],
    "wof:breaches":[],
    "wof:concordances":{
        "sg:id":"SG_1KOvIV8s2PjsDLYisX4bTE_51.964512_5.578040@1306269947"
    },
    "wof:country":"NL",
    "wof:geomhash":"207278d92e60cc171df6f9d419d507ee",
    "wof:hierarchy":[
        {
            "continent_id":-1,
            "country_id":85633337,
            "locality_id":101809835,
            "neighbourhood_id":-1,
            "region_id":85687039,
            "venue_id":253224995
        }
    ],
    "wof:id":253224995,
    "wof:lastmodified":1449064991,
    "wof:name":"Skalma A/S",
    "wof:parent_id":-1,
    "wof:placetype":"venue",
    "wof:superseded_by":[],
    "wof:supersedes":[],
    "wof:tags":[]
},
  "bbox": [5.57804,51.964512,5.57804,51.964512],
  "geometry": {"coordinates":[5.57804,51.964512],"type":"Point"}
}