{
  "id": 269979577,
  "type": "Feature",
  "properties": {
    "edtf:cessation":"u",
    "edtf:inception":"u",
    "geom:area":0.0,
    "geom:bbox":"5.848278,50.888268,5.848278,50.888268",
    "geom:latitude":50.888268,
    "geom:longitude":5.848278,
    "iso:country":"NL",
    "sg:address":"Vlasveld 47",
    "sg:city":"Hulsberg",
    "sg:classifiers":[],
    "sg:orig_category":"Film-, Tv- And Videoproductie",
    "sg:owner":"simplegeo",
    "sg:phone":"+31 45 405 5803",
    "sg:postcode":"6336 WN",
    "sg:province":"Limburg",
    "src:geom":"simplegeo",
    "wof:belongsto":[
        85633337,
        101809549,
        85687033
    ],
    "wof:breaches":[],
    "wof:concordances":{
        "sg:id":"SG_0CwoLSZibvQoW2L96BtTlM_50.888268_5.848278@1306269960"
    },
    "wof:country":"NL",
    "wof:geomhash":"c49ac9076a70eed5341dda01a799bcce",
    "wof:hierarchy":[
        {
            "continent_id":-1,
            "country_id":85633337,
            "locality_id":101809549,
            "neighbourhood_id":-1,
            "region_id":85687033,
            "venue_id":269979577
        }
    ],
    "wof:id":269979577,
    "wof:lastmodified":1449037855,
    "wof:name":"Marell Digitale Muzieksystemen",
    "wof:parent_id":-1,
    "wof:placetype":"venue",
    "wof:superseded_by":[],
    "wof:supersedes":[],
    "wof:tags":[]
},
  "bbox": [5.848278,50.888268,5.848278,50.888268],
  "geometry": {"coordinates":[5.848278,50.888268],"type":"Point"}
}