{
  "id": 236262151,
  "type": "Feature",
  "properties": {
    "edtf:cessation":"u",
    "edtf:inception":"u",
    "geom:area":0.0,
    "geom:bbox":"5.943173,50.910011,5.943173,50.910011",
    "geom:latitude":50.910011,
    "geom:longitude":5.943173,
    "iso:country":"NL",
    "sg:address":"De Koumen 58",
    "sg:city":"Hoensbroek",
    "sg:classifiers":[],
    "sg:orig_category":"Antiekzaken",
    "sg:owner":"simplegeo",
    "sg:phone":"+31 45 522 3333",
    "sg:postcode":"6433 KD",
    "sg:province":"Limburg",
    "src:geom":"simplegeo",
    "wof:belongsto":[
        85797635,
        85633337,
        101839247,
        85687033
    ],
    "wof:breaches":[],
    "wof:concordances":{
        "sg:id":"SG_0tyOBVVLHUiTMNhDVwAetq_50.910011_5.943173@1306269936"
    },
    "wof:country":"NL",
    "wof:geomhash":"535e5219c5c212950921c3ef424011ca",
    "wof:hierarchy":[
        {
            "continent_id":-1,
            "country_id":85633337,
            "locality_id":101839247,
            "neighbourhood_id":85797635,
            "region_id":85687033,
            "venue_id":236262151
        }
    ],
    "wof:id":236262151,
    "wof:lastmodified":1449003738,
    "wof:name":"Architectural Antiques Th. Evers Bv",
    "wof:parent_id":85797635,
    "wof:placetype":"venue",
    "wof:superseded_by":[],
    "wof:supersedes":[],
    "wof:tags":[]
},
  "bbox": [5.943173,50.910011,5.943173,50.910011],
  "geometry": {"coordinates":[5.943173,50.910011],"type":"Point"}
}