{
  "id": 270060447,
  "type": "Feature",
  "properties": {
    "edtf:cessation":"u",
    "edtf:inception":"u",
    "geom:area":0.0,
    "geom:bbox":"4.336103,51.858673,4.336103,51.858673",
    "geom:latitude":51.858673,
    "geom:longitude":4.336103,
    "iso:country":"NL",
    "sg:address":"Fitnesspad 1",
    "sg:city":"Spykenisse",
    "sg:classifiers":[],
    "sg:orig_category":"Fitnesscentra",
    "sg:owner":"simplegeo",
    "sg:phone":"+31 181 613 153",
    "sg:postcode":"3202 LK",
    "sg:province":"Zuid-Holland",
    "src:geom":"simplegeo",
    "wof:belongsto":[
        85798679,
        85633337,
        101760475,
        85687041
    ],
    "wof:breaches":[],
    "wof:concordances":{
        "sg:id":"SG_5BSDdZYi5kjDeR4BGIs6e3_51.858673_4.336103@1306269961"
    },
    "wof:country":"NL",
    "wof:geomhash":"48e12758103c1e09938cee0489aa75a4",
    "wof:hierarchy":[
        {
            "continent_id":-1,
            "country_id":85633337,
            "locality_id":101760475,
            "neighbourhood_id":85798679,
            "region_id":85687041,
            "venue_id":270060447
        }
    ],
    "wof:id":270060447,
    "wof:lastmodified":1449010872,
    "wof:name":"Oude Maas Resort",
    "wof:parent_id":85798679,
    "wof:placetype":"venue",
    "wof:superseded_by":[],
    "wof:supersedes":[],
    "wof:tags":[]
},
  "bbox": [4.336103,51.858673,4.336103,51.858673],
  "geometry": {"coordinates":[4.336103,51.858673],"type":"Point"}
}