{
  "id": 186493739,
  "type": "Feature",
  "properties": {
    "edtf:cessation":"u",
    "edtf:inception":"u",
    "geom:area":0.0,
    "geom:bbox":"5.211181,52.365219,5.211181,52.365219",
    "geom:latitude":52.365219,
    "geom:longitude":5.211181,
    "iso:country":"NL",
    "sg:address":"Hengelostr 39",
    "sg:city":"Almere",
    "sg:classifiers":[],
    "sg:orig_category":"Verenigingen En Stichtingen",
    "sg:owner":"simplegeo",
    "sg:phone":"+31 36 533 9464",
    "sg:postcode":"1324 GR",
    "sg:province":"NL.",
    "src:geom":"simplegeo",
    "wof:belongsto":[
        85633337,
        101751877,
        85687049
    ],
    "wof:breaches":[],
    "wof:concordances":{
        "sg:id":"SG_1uOveUYoya3lQeMqDJcdhm_52.365219_5.211181@1306269913"
    },
    "wof:country":"NL",
    "wof:geomhash":"ded493986a486052c9f90cb21f3837f5",
    "wof:hierarchy":[
        {
            "continent_id":-1,
            "country_id":85633337,
            "locality_id":101751877,
            "neighbourhood_id":-1,
            "region_id":85687049,
            "venue_id":186493739
        }
    ],
    "wof:id":186493739,
    "wof:lastmodified":1449051236,
    "wof:name":"Ruimte, De",
    "wof:parent_id":-1,
    "wof:placetype":"venue",
    "wof:superseded_by":[],
    "wof:supersedes":[],
    "wof:tags":[]
},
  "bbox": [5.211181,52.365219,5.211181,52.365219],
  "geometry": {"coordinates":[5.211181,52.365219],"type":"Point"}
}