{
  "id": 270465329,
  "type": "Feature",
  "properties": {
    "edtf:cessation":"u",
    "edtf:inception":"u",
    "geom:area":0.0,
    "geom:bbox":"6.562054,53.217674,6.562054,53.217674",
    "geom:latitude":53.217674,
    "geom:longitude":6.562054,
    "iso:country":"NL",
    "sg:address":"Akerkstraat 20",
    "sg:city":"Groningen",
    "sg:classifiers":[
        {
            "category":"Bars & Pubs",
            "subcategory":"",
            "type":"Food & Drink"
        }
    ],
    "sg:owner":"simplegeo",
    "sg:phone":"+31 50 312 2213",
    "sg:postcode":"9712 BE",
    "sg:province":"Groningen",
    "src:geom":"simplegeo",
    "wof:belongsto":[
        85798579,
        85633337,
        101751909,
        85687059,
        85797835
    ],
    "wof:breaches":[],
    "wof:concordances":{
        "sg:id":"SG_0aRSjGuGViLo8VcO2n6H9K_53.217674_6.562054@1306269966"
    },
    "wof:country":"NL",
    "wof:geomhash":"563a2be4047ebac99d926f8c714e7727",
    "wof:hierarchy":[
        {
            "continent_id":-1,
            "country_id":85633337,
            "locality_id":101751909,
            "neighbourhood_id":85798579,
            "region_id":85687059,
            "venue_id":270465329
        },
        {
            "continent_id":-1,
            "country_id":85633337,
            "locality_id":-1,
            "neighbourhood_id":85797835,
            "region_id":85687059,
            "venue_id":270465329
        }
    ],
    "wof:id":270465329,
    "wof:lastmodified":1449010310,
    "wof:name":"Leto",
    "wof:parent_id":-1,
    "wof:placetype":"venue",
    "wof:superseded_by":[],
    "wof:supersedes":[],
    "wof:tags":[]
},
  "bbox": [6.562054,53.217674,6.562054,53.217674],
  "geometry": {"coordinates":[6.562054,53.217674],"type":"Point"}
}