{
  "id": 186196137,
  "type": "Feature",
  "properties": {
    "edtf:cessation":"u",
    "edtf:inception":"u",
    "geom:area":0.0,
    "geom:bbox":"5.877455,50.87788,5.877455,50.87788",
    "geom:latitude":50.87788,
    "geom:longitude":5.877455,
    "iso:country":"NL",
    "sg:address":"Kruisveldstr 4",
    "sg:city":"Klimmen",
    "sg:classifiers":[],
    "sg:orig_category":"Kunststoffen- Verwerkende Industrie",
    "sg:owner":"simplegeo",
    "sg:phone":"+31 45 405 9075",
    "sg:postcode":"6343 AM",
    "sg:province":"Limburg",
    "src:geom":"simplegeo",
    "wof:belongsto":[
        85633337,
        101839259,
        85687033
    ],
    "wof:breaches":[],
    "wof:concordances":{
        "sg:id":"SG_1R4ITlJI0asvQMbENZnQXH_50.877880_5.877455@1306269911"
    },
    "wof:country":"NL",
    "wof:geomhash":"fa8063dbf3749634f10c0bddf2919b9e",
    "wof:hierarchy":[
        {
            "continent_id":-1,
            "country_id":85633337,
            "locality_id":101839259,
            "neighbourhood_id":-1,
            "region_id":85687033,
            "venue_id":186196137
        }
    ],
    "wof:id":186196137,
    "wof:lastmodified":1449051004,
    "wof:name":"Bosschaart, M",
    "wof:parent_id":-1,
    "wof:placetype":"venue",
    "wof:superseded_by":[],
    "wof:supersedes":[],
    "wof:tags":[]
},
  "bbox": [5.877455,50.87788,5.877455,50.87788],
  "geometry": {"coordinates":[5.877455,50.87788],"type":"Point"}
}