{
  "id": 270361519,
  "type": "Feature",
  "properties": {
    "edtf:cessation":"u",
    "edtf:inception":"u",
    "geom:area":0.0,
    "geom:bbox":"6.129089,51.941586,6.129089,51.941586",
    "geom:latitude":51.941586,
    "geom:longitude":6.129089,
    "iso:country":"NL",
    "sg:address":"Kerkstraat 20",
    "sg:city":"Didam",
    "sg:classifiers":[],
    "sg:orig_category":"Banken And Kredietinstellingen",
    "sg:owner":"simplegeo",
    "sg:phone":"+31 316 297 777",
    "sg:postcode":"6941 AG",
    "sg:province":"Gelderland",
    "src:geom":"simplegeo",
    "wof:belongsto":[
        85633337,
        101837755,
        85687043
    ],
    "wof:breaches":[],
    "wof:concordances":{
        "sg:id":"SG_1ZCid62Hs1Ox0bskeRCvs4_51.941586_6.129089@1306269964"
    },
    "wof:country":"NL",
    "wof:geomhash":"475d49662ac641626aacc4c2eafd1112",
    "wof:hierarchy":[
        {
            "continent_id":-1,
            "country_id":85633337,
            "locality_id":101837755,
            "neighbourhood_id":-1,
            "region_id":85687043,
            "venue_id":270361519
        }
    ],
    "wof:id":270361519,
    "wof:lastmodified":1449010440,
    "wof:name":"Rabobank",
    "wof:parent_id":-1,
    "wof:placetype":"venue",
    "wof:superseded_by":[],
    "wof:supersedes":[],
    "wof:tags":[]
},
  "bbox": [6.129089,51.941586,6.129089,51.941586],
  "geometry": {"coordinates":[6.129089,51.941586],"type":"Point"}
}