{
  "id": 303280617,
  "type": "Feature",
  "properties": {
    "edtf:cessation":"u",
    "edtf:inception":"u",
    "geom:area":0.0,
    "geom:bbox":"5.093179,52.664227,5.093179,52.664227",
    "geom:latitude":52.664227,
    "geom:longitude":5.093179,
    "iso:country":"NL",
    "sg:address":"Plantage 33",
    "sg:city":"Blokker",
    "sg:classifiers":[],
    "sg:orig_category":"Schilderwerk",
    "sg:owner":"simplegeo",
    "sg:phone":"+31 229 246 578",
    "sg:postcode":"1695 BB",
    "sg:province":"Noord-Holland",
    "src:geom":"simplegeo",
    "wof:belongsto":[
        85633337,
        101751883,
        85687053
    ],
    "wof:breaches":[],
    "wof:concordances":{
        "sg:id":"SG_2iJlywIVVBJhKR4UePQKzS_52.664227_5.093179@1306269982"
    },
    "wof:country":"NL",
    "wof:geomhash":"b2c4ac84e0aab43b689253825666659b",
    "wof:hierarchy":[
        {
            "continent_id":-1,
            "country_id":85633337,
            "locality_id":101751883,
            "neighbourhood_id":-1,
            "region_id":85687053,
            "venue_id":303280617
        }
    ],
    "wof:id":303280617,
    "wof:lastmodified":1448999318,
    "wof:name":"Schilderbedrijf Jong",
    "wof:parent_id":-1,
    "wof:placetype":"venue",
    "wof:superseded_by":[],
    "wof:supersedes":[],
    "wof:tags":[]
},
  "bbox": [5.093179,52.664227,5.093179,52.664227],
  "geometry": {"coordinates":[5.093179,52.664227],"type":"Point"}
}