{
  "id": 336739767,
  "type": "Feature",
  "properties": {
    "edtf:cessation":"u",
    "edtf:inception":"u",
    "geom:area":0.0,
    "geom:bbox":"5.778305,52.711479,5.778305,52.711479",
    "geom:latitude":52.711479,
    "geom:longitude":5.778305,
    "iso:country":"NL",
    "sg:address":"Duit 14",
    "sg:city":"Emmeloord",
    "sg:classifiers":[
        {
            "category":"Professional",
            "subcategory":"Accounting & Tax Preparation",
            "type":"Services"
        }
    ],
    "sg:owner":"simplegeo",
    "sg:phone":"+31 527 613 841",
    "sg:postcode":"8305 BB",
    "sg:province":"NL.",
    "sg:tags":[
        "accountant"
    ],
    "src:geom":"simplegeo",
    "wof:belongsto":[
        85633337,
        101807245,
        85687049
    ],
    "wof:breaches":[],
    "wof:concordances":{
        "sg:id":"SG_0zntLhY41PIlSIL024ElZJ_52.711479_5.778305@1306270005"
    },
    "wof:country":"NL",
    "wof:geomhash":"ae311c3b74463c71c55fb68fb3b469b7",
    "wof:hierarchy":[
        {
            "continent_id":-1,
            "country_id":85633337,
            "locality_id":101807245,
            "neighbourhood_id":-1,
            "region_id":85687049,
            "venue_id":336739767
        }
    ],
    "wof:id":336739767,
    "wof:lastmodified":1448997397,
    "wof:name":"Meeuwsen Ten Hoopen & Co",
    "wof:parent_id":-1,
    "wof:placetype":"venue",
    "wof:superseded_by":[],
    "wof:supersedes":[],
    "wof:tags":[
        "accountant"
    ]
},
  "bbox": [5.778305,52.711479,5.778305,52.711479],
  "geometry": {"coordinates":[5.778305,52.711479],"type":"Point"}
}