{
  "id": 303623625,
  "type": "Feature",
  "properties": {
    "edtf:cessation":"u",
    "edtf:inception":"u",
    "geom:area":0.0,
    "geom:bbox":"5.421777,51.408741,5.421777,51.408741",
    "geom:latitude":51.408741,
    "geom:longitude":5.421777,
    "iso:country":"NL",
    "sg:address":"De Run 4441",
    "sg:city":"Veldhoven",
    "sg:classifiers":[],
    "sg:orig_category":"Diverse Bedrijfsinstallaties Gh",
    "sg:owner":"simplegeo",
    "sg:phone":"+31 79 343 3931",
    "sg:postcode":"5503 LS",
    "sg:province":"Noord-Brabant",
    "src:geom":"simplegeo",
    "wof:belongsto":[
        85798003,
        85633337,
        101754579,
        85687035
    ],
    "wof:breaches":[],
    "wof:concordances":{
        "sg:id":"SG_0F3ZhVn67T23r0vL62eIAe_51.408741_5.421777@1306269986"
    },
    "wof:country":"NL",
    "wof:geomhash":"471cb6acdb5966a529bba8a327951f2e",
    "wof:hierarchy":[
        {
            "continent_id":-1,
            "country_id":85633337,
            "locality_id":101754579,
            "neighbourhood_id":85798003,
            "region_id":85687035,
            "venue_id":303623625
        }
    ],
    "wof:id":303623625,
    "wof:lastmodified":1448999835,
    "wof:name":"Atas Benelux Bv",
    "wof:parent_id":85798003,
    "wof:placetype":"venue",
    "wof:superseded_by":[],
    "wof:supersedes":[],
    "wof:tags":[]
},
  "bbox": [5.421777,51.408741,5.421777,51.408741],
  "geometry": {"coordinates":[5.421777,51.408741],"type":"Point"}
}