{
  "id": 185703267,
  "type": "Feature",
  "properties": {
    "edtf:cessation":"u",
    "edtf:inception":"u",
    "geom:area":0.0,
    "geom:bbox":"6.733484,53.272198,6.733484,53.272198",
    "geom:latitude":53.272198,
    "geom:longitude":6.733484,
    "iso:country":"NL",
    "sg:address":"Kollerywg 26",
    "sg:city":"Woltersum",
    "sg:classifiers":[],
    "sg:orig_category":"Kermisexploitatie",
    "sg:owner":"simplegeo",
    "sg:phone":"+31 50 302 2433",
    "sg:postcode":"9795 PM",
    "sg:province":"Groningen",
    "src:geom":"simplegeo",
    "wof:belongsto":[
        85633337,
        85687059
    ],
    "wof:breaches":[],
    "wof:concordances":{
        "sg:id":"SG_1pwhXaWSTNBepGU7WCmXPu_53.272198_6.733484@1306269907"
    },
    "wof:country":"NL",
    "wof:geomhash":"3991fdb7b390578af3a12588111e698b",
    "wof:hierarchy":[
        {
            "continent_id":-1,
            "country_id":85633337,
            "locality_id":-1,
            "neighbourhood_id":-1,
            "region_id":85687059,
            "venue_id":185703267
        }
    ],
    "wof:id":185703267,
    "wof:lastmodified":1449007095,
    "wof:name":"Bosman, F J S",
    "wof:parent_id":-1,
    "wof:placetype":"venue",
    "wof:superseded_by":[],
    "wof:supersedes":[],
    "wof:tags":[]
},
  "bbox": [6.733484,53.272198,6.733484,53.272198],
  "geometry": {"coordinates":[6.733484,53.272198],"type":"Point"}
}