{
  "id": 236635655,
  "type": "Feature",
  "properties": {
    "edtf:cessation":"u",
    "edtf:inception":"u",
    "geom:area":0.0,
    "geom:bbox":"4.743926,52.47142,4.743926,52.47142",
    "geom:latitude":52.47142,
    "geom:longitude":4.743926,
    "iso:country":"NL",
    "sg:address":"Dorpsstraat 508",
    "sg:city":"Assendelft",
    "sg:classifiers":[],
    "sg:orig_category":"Autokeuringen",
    "sg:owner":"simplegeo",
    "sg:phone":"+31 75 687 1656",
    "sg:postcode":"1566 BW",
    "sg:province":"Noord-Holland",
    "src:geom":"simplegeo",
    "wof:belongsto":[
        85633337,
        101754787,
        85687053
    ],
    "wof:breaches":[],
    "wof:concordances":{
        "sg:id":"SG_2xp572YDOkkeslgrmhvDFe_52.471420_4.743926@1306269939"
    },
    "wof:country":"NL",
    "wof:geomhash":"544f554f78c63323fe11043be60eb15a",
    "wof:hierarchy":[
        {
            "continent_id":-1,
            "country_id":85633337,
            "locality_id":101754787,
            "neighbourhood_id":-1,
            "region_id":85687053,
            "venue_id":236635655
        }
    ],
    "wof:id":236635655,
    "wof:lastmodified":1449003018,
    "wof:name":"Ron Van Den Bosch Autoservice",
    "wof:parent_id":-1,
    "wof:placetype":"venue",
    "wof:superseded_by":[],
    "wof:supersedes":[],
    "wof:tags":[]
},
  "bbox": [4.743926,52.47142,4.743926,52.47142],
  "geometry": {"coordinates":[4.743926,52.47142],"type":"Point"}
}