{
  "id": 270522599,
  "type": "Feature",
  "properties": {
    "edtf:cessation":"u",
    "edtf:inception":"u",
    "geom:area":0.0,
    "geom:bbox":"6.40371,53.21579,6.40371,53.21579",
    "geom:latitude":53.21579,
    "geom:longitude":6.40371,
    "iso:country":"NL",
    "sg:address":"Dorpsstraat 33",
    "sg:city":"Enumatil",
    "sg:classifiers":[
        {
            "category":"Education",
            "subcategory":"Preschool",
            "type":"Public Place"
        }
    ],
    "sg:owner":"simplegeo",
    "sg:phone":"+31 594 503 319",
    "sg:postcode":"9811 PA",
    "sg:province":"Groningen",
    "sg:tags":[
        "kleuteronderwijs",
        "basis-"
    ],
    "src:geom":"simplegeo",
    "wof:belongsto":[
        85633337,
        85687059
    ],
    "wof:breaches":[],
    "wof:concordances":{
        "sg:id":"SG_1Msnr6U6st0vRJODRUhh64_53.215790_6.403710@1306269966"
    },
    "wof:country":"NL",
    "wof:geomhash":"9baad97cb5867998b9e0459c96c0a68e",
    "wof:hierarchy":[
        {
            "continent_id":-1,
            "country_id":85633337,
            "locality_id":-1,
            "neighbourhood_id":-1,
            "region_id":85687059,
            "venue_id":270522599
        }
    ],
    "wof:id":270522599,
    "wof:lastmodified":1449009803,
    "wof:name":"Gereformeerde Basisschool 'T Klimop",
    "wof:parent_id":-1,
    "wof:placetype":"venue",
    "wof:superseded_by":[],
    "wof:supersedes":[],
    "wof:tags":[
        "kleuteronderwijs",
        "basis-"
    ]
},
  "bbox": [6.40371,53.21579,6.40371,53.21579],
  "geometry": {"coordinates":[6.40371,53.21579],"type":"Point"}
}