{
  "id": 286893051,
  "type": "Feature",
  "properties": {
    "edtf:cessation":"u",
    "edtf:inception":"u",
    "geom:area":0.0,
    "geom:bbox":"5.088553,52.66106,5.088553,52.66106",
    "geom:latitude":52.66106,
    "geom:longitude":5.088553,
    "iso:country":"NL",
    "sg:address":"Westerblokker 113A",
    "sg:city":"Blokker",
    "sg:classifiers":[],
    "sg:orig_category":"Bloemen And Planten",
    "sg:owner":"simplegeo",
    "sg:phone":"+31 229 234 777",
    "sg:postcode":"1695 AC",
    "sg:province":"Noord-Holland",
    "src:geom":"simplegeo",
    "wof:belongsto":[
        85798357,
        85633337,
        101751883,
        85687053
    ],
    "wof:breaches":[],
    "wof:concordances":{
        "sg:id":"SG_5Pk2YKdSDoIPMteXA2Q1A1_52.661060_5.088553@1306269974"
    },
    "wof:country":"NL",
    "wof:geomhash":"d6110d4a8102fa6c8fd5a21f83183ca2",
    "wof:hierarchy":[
        {
            "continent_id":-1,
            "country_id":85633337,
            "locality_id":101751883,
            "neighbourhood_id":85798357,
            "region_id":85687053,
            "venue_id":286893051
        }
    ],
    "wof:id":286893051,
    "wof:lastmodified":1449017566,
    "wof:name":"Deen Supermarkten Bv",
    "wof:parent_id":85798357,
    "wof:placetype":"venue",
    "wof:superseded_by":[],
    "wof:supersedes":[],
    "wof:tags":[]
},
  "bbox": [5.088553,52.66106,5.088553,52.66106],
  "geometry": {"coordinates":[5.088553,52.66106],"type":"Point"}
}