{
  "id": 236421851,
  "type": "Feature",
  "properties": {
    "edtf:cessation":"u",
    "edtf:inception":"u",
    "geom:area":0.0,
    "geom:bbox":"4.81972,52.444775,4.81972,52.444775",
    "geom:latitude":52.444775,
    "geom:longitude":4.81972,
    "iso:country":"NL",
    "sg:address":"Westzijde 148",
    "sg:city":"Zaandam",
    "sg:classifiers":[],
    "sg:orig_category":"Artistiek Onderwijs",
    "sg:owner":"simplegeo",
    "sg:phone":"+31 75 635 6111",
    "sg:postcode":"1506 EK",
    "sg:province":"Noord-Holland",
    "src:geom":"simplegeo",
    "wof:belongsto":[
        85798723,
        85633337,
        85687053
    ],
    "wof:breaches":[],
    "wof:concordances":{
        "sg:id":"SG_0KbSF3tdNMDEN7a0phYi84_52.444775_4.819720@1306269937"
    },
    "wof:country":"NL",
    "wof:geomhash":"c5f472aabcb9885d7c940887be8d516e",
    "wof:hierarchy":[
        {
            "continent_id":-1,
            "country_id":85633337,
            "locality_id":-1,
            "neighbourhood_id":85798723,
            "region_id":85687053,
            "venue_id":236421851
        }
    ],
    "wof:id":236421851,
    "wof:lastmodified":1449003805,
    "wof:name":"Fluxus Centrum Voor De Kunst",
    "wof:parent_id":85798723,
    "wof:placetype":"venue",
    "wof:superseded_by":[],
    "wof:supersedes":[],
    "wof:tags":[]
},
  "bbox": [4.81972,52.444775,4.81972,52.444775],
  "geometry": {"coordinates":[4.81972,52.444775],"type":"Point"}
}