{
  "id": 269688281,
  "type": "Feature",
  "properties": {
    "edtf:cessation":"u",
    "edtf:inception":"u",
    "geom:area":0.0,
    "geom:bbox":"4.481559,52.198284,4.481559,52.198284",
    "geom:latitude":52.198284,
    "geom:longitude":4.481559,
    "iso:country":"NL",
    "sg:address":"Gerrit Rietveldlaan 69",
    "sg:city":"Oegstgeest",
    "sg:classifiers":[],
    "sg:orig_category":"Public Relationbureaus",
    "sg:owner":"simplegeo",
    "sg:phone":"+31 71 515 5944",
    "sg:postcode":"2343 MB",
    "sg:province":"Zuid-Holland",
    "src:geom":"simplegeo",
    "wof:belongsto":[
        85798025,
        85633337,
        101754717,
        85687041
    ],
    "wof:breaches":[],
    "wof:concordances":{
        "sg:id":"SG_4joUhVqCfk7VE7CW9HVkF0_52.198284_4.481559@1306269956"
    },
    "wof:country":"NL",
    "wof:geomhash":"9f2e9cd0faad54cca192d41ded1f862d",
    "wof:hierarchy":[
        {
            "continent_id":-1,
            "country_id":85633337,
            "locality_id":101754717,
            "neighbourhood_id":85798025,
            "region_id":85687041,
            "venue_id":269688281
        }
    ],
    "wof:id":269688281,
    "wof:lastmodified":1449037046,
    "wof:name":"Pb Sets",
    "wof:parent_id":85798025,
    "wof:placetype":"venue",
    "wof:superseded_by":[],
    "wof:supersedes":[],
    "wof:tags":[]
},
  "bbox": [4.481559,52.198284,4.481559,52.198284],
  "geometry": {"coordinates":[4.481559,52.198284],"type":"Point"}
}