{
  "id": 286623645,
  "type": "Feature",
  "properties": {
    "edtf:cessation":"u",
    "edtf:inception":"u",
    "geom:area":0.0,
    "geom:bbox":"5.51556,51.882225,5.51556,51.882225",
    "geom:latitude":51.882225,
    "geom:longitude":5.51556,
    "iso:country":"NL",
    "sg:address":"Postbus 79",
    "sg:city":"Beneden Leeuwen",
    "sg:classifiers":[],
    "sg:orig_category":"Belastingconsulenten/ Belastingadviseurs",
    "sg:owner":"simplegeo",
    "sg:phone":"+31 487 502 171",
    "sg:postcode":"6658 ZH",
    "sg:province":"Gelderland",
    "src:geom":"simplegeo",
    "wof:belongsto":[
        85633337,
        101808597,
        85687043
    ],
    "wof:breaches":[],
    "wof:concordances":{
        "sg:id":"SG_4asXAS8wksyqrOaTsZEUiF_51.882225_5.515560@1306269971"
    },
    "wof:country":"NL",
    "wof:geomhash":"89533f657873513653eca1f35a297774",
    "wof:hierarchy":[
        {
            "continent_id":-1,
            "country_id":85633337,
            "locality_id":101808597,
            "neighbourhood_id":-1,
            "region_id":85687043,
            "venue_id":286623645
        }
    ],
    "wof:id":286623645,
    "wof:lastmodified":1449017247,
    "wof:name":"Croonen",
    "wof:parent_id":-1,
    "wof:placetype":"venue",
    "wof:superseded_by":[],
    "wof:supersedes":[],
    "wof:tags":[]
},
  "bbox": [5.51556,51.882225,5.51556,51.882225],
  "geometry": {"coordinates":[5.51556,51.882225],"type":"Point"}
}