{
  "id": 202593767,
  "type": "Feature",
  "properties": {
    "edtf:cessation":"u",
    "edtf:inception":"u",
    "geom:area":0.0,
    "geom:bbox":"4.925138,52.359665,4.925138,52.359665",
    "geom:latitude":52.359665,
    "geom:longitude":4.925138,
    "iso:country":"NL",
    "sg:address":"Linnaeusstraat 10",
    "sg:city":"Amsterdam",
    "sg:classifiers":[],
    "sg:orig_category":"Verlichting And Huishoudartikelen",
    "sg:owner":"simplegeo",
    "sg:phone":"+31 20 694 0210",
    "sg:postcode":"1092 CK",
    "sg:province":"Noord-Holland",
    "src:geom":"simplegeo",
    "wof:belongsto":[
        85798627,
        85633337,
        101751893,
        85687053
    ],
    "wof:breaches":[],
    "wof:concordances":{
        "sg:id":"SG_0KspRuZ7X67W2HfvT69aNy_52.359665_4.925138@1306269916"
    },
    "wof:country":"NL",
    "wof:geomhash":"7841756a69f06418e3cf42d221e55706",
    "wof:hierarchy":[
        {
            "continent_id":-1,
            "country_id":85633337,
            "locality_id":101751893,
            "neighbourhood_id":85798627,
            "region_id":85687053,
            "venue_id":202593767
        }
    ],
    "wof:id":202593767,
    "wof:lastmodified":1449061766,
    "wof:name":"Bonaparte Luxe Artikelen En Verlichting",
    "wof:parent_id":85798627,
    "wof:placetype":"venue",
    "wof:superseded_by":[],
    "wof:supersedes":[],
    "wof:tags":[]
},
  "bbox": [4.925138,52.359665,4.925138,52.359665],
  "geometry": {"coordinates":[4.925138,52.359665],"type":"Point"}
}