{
  "id": 269682059,
  "type": "Feature",
  "properties": {
    "edtf:cessation":"u",
    "edtf:inception":"u",
    "geom:area":0.0,
    "geom:bbox":"5.118899,52.086151,5.118899,52.086151",
    "geom:latitude":52.086151,
    "geom:longitude":5.118899,
    "iso:country":"NL",
    "sg:address":"Geertebolwerk 23",
    "sg:city":"Utrecht",
    "sg:classifiers":[],
    "sg:orig_category":"Public Relationbureaus",
    "sg:owner":"simplegeo",
    "sg:phone":"+31 30 233 2330",
    "sg:postcode":"3511 XA",
    "sg:province":"Utrecht",
    "src:geom":"simplegeo",
    "wof:belongsto":[
        85798509,
        85633337,
        101751827,
        85687039
    ],
    "wof:breaches":[],
    "wof:concordances":{
        "sg:id":"SG_6XPpX2qRz1dW5CIH6u6bno_52.086151_5.118899@1306269956"
    },
    "wof:country":"NL",
    "wof:geomhash":"edafb125ad018c40ea5b2ae4b1400004",
    "wof:hierarchy":[
        {
            "continent_id":-1,
            "country_id":85633337,
            "locality_id":101751827,
            "neighbourhood_id":85798509,
            "region_id":85687039,
            "venue_id":269682059
        }
    ],
    "wof:id":269682059,
    "wof:lastmodified":1449036545,
    "wof:name":"J. Van Beek Communicatie",
    "wof:parent_id":85798509,
    "wof:placetype":"venue",
    "wof:superseded_by":[],
    "wof:supersedes":[],
    "wof:tags":[]
},
  "bbox": [5.118899,52.086151,5.118899,52.086151],
  "geometry": {"coordinates":[5.118899,52.086151],"type":"Point"}
}