{
  "id": 236951337,
  "type": "Feature",
  "properties": {
    "edtf:cessation":"u",
    "edtf:inception":"u",
    "geom:area":0.0,
    "geom:bbox":"5.885397,50.842651,5.885397,50.842651",
    "geom:latitude":50.842651,
    "geom:longitude":5.885397,
    "iso:country":"NL",
    "sg:address":"Valkenburgerwg 76",
    "sg:city":"Wylre",
    "sg:classifiers":[],
    "sg:orig_category":"Makelaars En Adviseurs Onroerende Goederen",
    "sg:owner":"simplegeo",
    "sg:phone":"+31 43 459 2881",
    "sg:postcode":"6321 GH",
    "sg:province":"Limburg",
    "src:geom":"simplegeo",
    "wof:belongsto":[
        85633337,
        85687033
    ],
    "wof:breaches":[],
    "wof:concordances":{
        "sg:id":"SG_5f1cweDjDoHqqLlaJUZJov_50.842651_5.885397@1306269942"
    },
    "wof:country":"NL",
    "wof:geomhash":"75fb49d5e0ee93d23f66fa21d581fb0f",
    "wof:hierarchy":[
        {
            "continent_id":-1,
            "country_id":85633337,
            "locality_id":-1,
            "neighbourhood_id":-1,
            "region_id":85687033,
            "venue_id":236951337
        }
    ],
    "wof:id":236951337,
    "wof:lastmodified":1449001788,
    "wof:name":"Hollanders Vof",
    "wof:parent_id":-1,
    "wof:placetype":"venue",
    "wof:superseded_by":[],
    "wof:supersedes":[],
    "wof:tags":[]
},
  "bbox": [5.885397,50.842651,5.885397,50.842651],
  "geometry": {"coordinates":[5.885397,50.842651],"type":"Point"}
}