{
  "id": 320721329,
  "type": "Feature",
  "properties": {
    "edtf:cessation":"u",
    "edtf:inception":"u",
    "geom:area":0.0,
    "geom:bbox":"5.954952,51.051479,5.954952,51.051479",
    "geom:latitude":51.051479,
    "geom:longitude":5.954952,
    "iso:country":"NL",
    "sg:address":"Mauritshof 2",
    "sg:city":"Koningsbosch",
    "sg:classifiers":[],
    "sg:orig_category":"Zonweringen",
    "sg:owner":"simplegeo",
    "sg:phone":"+31 475 302 332",
    "sg:postcode":"6104 CC",
    "sg:province":"North Rhine-Westphalia",
    "src:geom":"simplegeo",
    "wof:belongsto":[
        85633337,
        101809555,
        85687033
    ],
    "wof:breaches":[],
    "wof:concordances":{
        "sg:id":"SG_3ryXhBQCESf9Tt6cwAfWG3_51.051479_5.954952@1306270001"
    },
    "wof:country":"NL",
    "wof:geomhash":"b29d4e25b5370de52f7438f2887a034e",
    "wof:hierarchy":[
        {
            "continent_id":-1,
            "country_id":85633337,
            "locality_id":101809555,
            "neighbourhood_id":-1,
            "region_id":85687033,
            "venue_id":320721329
        }
    ],
    "wof:id":320721329,
    "wof:lastmodified":1449014955,
    "wof:name":"Inzo",
    "wof:parent_id":-1,
    "wof:placetype":"venue",
    "wof:superseded_by":[],
    "wof:supersedes":[],
    "wof:tags":[]
},
  "bbox": [5.954952,51.051479,5.954952,51.051479],
  "geometry": {"coordinates":[5.954952,51.051479],"type":"Point"}
}