{
  "id": 185698711,
  "type": "Feature",
  "properties": {
    "edtf:cessation":"u",
    "edtf:inception":"u",
    "geom:area":0.0,
    "geom:bbox":"6.179211,52.075832,6.179211,52.075832",
    "geom:latitude":52.075832,
    "geom:longitude":6.179211,
    "iso:country":"NL",
    "sg:address":"Boterstraat 1",
    "sg:city":"Bronkhorst",
    "sg:classifiers":[],
    "sg:orig_category":"Keramische Producten Fab",
    "sg:owner":"simplegeo",
    "sg:phone":"+31 575 452 477",
    "sg:postcode":"7226 LH",
    "sg:province":"Gelderland",
    "src:geom":"simplegeo",
    "wof:belongsto":[
        85633337,
        85687043
    ],
    "wof:breaches":[],
    "wof:concordances":{
        "sg:id":"SG_7ch9FiPoGgcrlEEuUsNcSk_52.075832_6.179211@1306269907"
    },
    "wof:country":"NL",
    "wof:geomhash":"08e218566d1f1762f5e4af5af6a771c1",
    "wof:hierarchy":[
        {
            "continent_id":-1,
            "country_id":85633337,
            "locality_id":-1,
            "neighbourhood_id":-1,
            "region_id":85687043,
            "venue_id":185698711
        }
    ],
    "wof:id":185698711,
    "wof:lastmodified":1449008112,
    "wof:name":"Potterie En Droogbloemen Atelier H. Plan",
    "wof:parent_id":-1,
    "wof:placetype":"venue",
    "wof:superseded_by":[],
    "wof:supersedes":[],
    "wof:tags":[]
},
  "bbox": [6.179211,52.075832,6.179211,52.075832],
  "geometry": {"coordinates":[6.179211,52.075832],"type":"Point"}
}