{
  "id": 219536299,
  "type": "Feature",
  "properties": {
    "edtf:cessation":"u",
    "edtf:inception":"u",
    "geom:area":0.0,
    "geom:bbox":"4.633196,52.270035,4.633196,52.270035",
    "geom:latitude":52.270035,
    "geom:longitude":4.633196,
    "iso:country":"NL",
    "sg:address":"Warande 17",
    "sg:city":"Nieuw Vennep",
    "sg:classifiers":[],
    "sg:orig_category":"Luchtvrachtexpediteurs",
    "sg:owner":"simplegeo",
    "sg:phone":"+31 252 674 640",
    "sg:postcode":"2152 CK",
    "sg:province":"Noord-Holland",
    "src:geom":"simplegeo",
    "wof:belongsto":[
        85797085,
        85633337,
        85687053
    ],
    "wof:breaches":[],
    "wof:concordances":{
        "sg:id":"SG_4OSl1A3ChGyteZAY5innDR_52.270035_4.633196@1306269927"
    },
    "wof:country":"NL",
    "wof:geomhash":"37bc1eaf322782de25704f84cd29bebf",
    "wof:hierarchy":[
        {
            "continent_id":-1,
            "country_id":85633337,
            "locality_id":-1,
            "neighbourhood_id":85797085,
            "region_id":85687053,
            "venue_id":219536299
        }
    ],
    "wof:id":219536299,
    "wof:lastmodified":1449072490,
    "wof:name":"Farna Internationaal Bv",
    "wof:parent_id":85797085,
    "wof:placetype":"venue",
    "wof:superseded_by":[],
    "wof:supersedes":[],
    "wof:tags":[]
},
  "bbox": [4.633196,52.270035,4.633196,52.270035],
  "geometry": {"coordinates":[4.633196,52.270035],"type":"Point"}
}