{
  "id": 219620365,
  "type": "Feature",
  "properties": {
    "edtf:cessation":"u",
    "edtf:inception":"u",
    "geom:area":0.0,
    "geom:bbox":"5.263725,52.390606,5.263725,52.390606",
    "geom:latitude":52.390606,
    "geom:longitude":5.263725,
    "iso:country":"NL",
    "sg:address":"Hofstedestr 25",
    "sg:city":"Almere",
    "sg:classifiers":[],
    "sg:orig_category":"Administratie- En Boekhoudkantoren",
    "sg:owner":"simplegeo",
    "sg:phone":"+31 36 532 9474",
    "sg:postcode":"1333 TB",
    "sg:province":"Flevoland",
    "src:geom":"simplegeo",
    "wof:belongsto":[
        85633337,
        101751875,
        85687049
    ],
    "wof:breaches":[],
    "wof:concordances":{
        "sg:id":"SG_1CdvVR2Qzh0IBnhl4llZ22_52.390606_5.263725@1306269927"
    },
    "wof:country":"NL",
    "wof:geomhash":"2b3343d436226577e6a12c6ef9866c3c",
    "wof:hierarchy":[
        {
            "continent_id":-1,
            "country_id":85633337,
            "locality_id":101751875,
            "neighbourhood_id":-1,
            "region_id":85687049,
            "venue_id":219620365
        }
    ],
    "wof:id":219620365,
    "wof:lastmodified":1449073615,
    "wof:name":"Fbd",
    "wof:parent_id":-1,
    "wof:placetype":"venue",
    "wof:superseded_by":[],
    "wof:supersedes":[],
    "wof:tags":[]
},
  "bbox": [5.263725,52.390606,5.263725,52.390606],
  "geometry": {"coordinates":[5.263725,52.390606],"type":"Point"}
}