{
  "id": 185702905,
  "type": "Feature",
  "properties": {
    "edtf:cessation":"u",
    "edtf:inception":"u",
    "geom:area":0.0,
    "geom:bbox":"-89.622375,40.348873,-89.622375,40.348873",
    "geom:latitude":40.348873,
    "geom:longitude":-89.622375,
    "iso:country":"NL",
    "sg:address":"Winkelerzand 24",
    "sg:city":"Winkel",
    "sg:classifiers":[],
    "sg:orig_category":"Kermisexploitatie",
    "sg:owner":"simplegeo",
    "sg:phone":"+31 224 542 634",
    "sg:postcode":"1731 LZ",
    "sg:province":"Illinois",
    "src:geom":"simplegeo",
    "wof:belongsto":[
        85633793,
        85688697
    ],
    "wof:breaches":[],
    "wof:concordances":{
        "sg:id":"SG_6WYrHjo25TC3dGHBZ6D5s8_40.348873_-89.622375@1306269907"
    },
    "wof:country":"NL",
    "wof:geomhash":"7257e99089ef14e54190c1e8ad842bea",
    "wof:hierarchy":[
        {
            "continent_id":-1,
            "country_id":85633793,
            "locality_id":-1,
            "neighbourhood_id":-1,
            "region_id":85688697,
            "venue_id":185702905
        }
    ],
    "wof:id":185702905,
    "wof:lastmodified":1449007430,
    "wof:name":"Blokker, J G",
    "wof:parent_id":-1,
    "wof:placetype":"venue",
    "wof:superseded_by":[],
    "wof:supersedes":[],
    "wof:tags":[]
},
  "bbox": [-89.622375,40.348873,-89.622375,40.348873],
  "geometry": {"coordinates":[-89.622375,40.348873],"type":"Point"}
}