{
  "id": 252970657,
  "type": "Feature",
  "properties": {
    "edtf:cessation":"u",
    "edtf:inception":"u",
    "geom:area":0.0,
    "geom:bbox":"6.334167,52.43998,6.334167,52.43998",
    "geom:latitude":52.43998,
    "geom:longitude":6.334167,
    "iso:country":"NL",
    "sg:address":"Handelswg 31",
    "sg:city":"Lemelerveld",
    "sg:classifiers":[
        {
            "category":"Home & Garden",
            "subcategory":"Hardware",
            "type":"Retail Goods"
        }
    ],
    "sg:owner":"simplegeo",
    "sg:phone":"+31 572 372 075",
    "sg:postcode":"8152 BN",
    "sg:province":"Overijssel",
    "sg:tags":[
        "machine",
        "-",
        "metaalbewerking"
    ],
    "sg:website":"http://www.reimink.nl",
    "src:geom":"simplegeo",
    "wof:belongsto":[
        85633337,
        101807213,
        85687045
    ],
    "wof:breaches":[],
    "wof:concordances":{
        "sg:id":"SG_17zm0MY5dgdgn0CW5wdlDJ_52.439980_6.334167@1306269945"
    },
    "wof:country":"NL",
    "wof:geomhash":"3644c537ea57c2c3a1af060e17b998e6",
    "wof:hierarchy":[
        {
            "continent_id":-1,
            "country_id":85633337,
            "locality_id":101807213,
            "neighbourhood_id":-1,
            "region_id":85687045,
            "venue_id":252970657
        }
    ],
    "wof:id":252970657,
    "wof:lastmodified":1449006483,
    "wof:name":"Reimink Machines Bv",
    "wof:parent_id":-1,
    "wof:placetype":"venue",
    "wof:superseded_by":[],
    "wof:supersedes":[],
    "wof:tags":[
        "machine",
        "-",
        "metaalbewerking"
    ]
},
  "bbox": [6.334167,52.43998,6.334167,52.43998],
  "geometry": {"coordinates":[6.334167,52.43998],"type":"Point"}
}