{
  "id": 320548337,
  "type": "Feature",
  "properties": {
    "edtf:cessation":"u",
    "edtf:inception":"u",
    "geom:area":0.0,
    "geom:bbox":"5.36617,51.322079,5.36617,51.322079",
    "geom:latitude":51.322079,
    "geom:longitude":5.36617,
    "iso:country":"NL",
    "sg:address":"Kerkstraat 50",
    "sg:city":"Bergeyk",
    "sg:classifiers":[
        {
            "category":"Food & Beverages",
            "subcategory":"Fruits & Vegetables",
            "type":"Retail Goods"
        }
    ],
    "sg:owner":"simplegeo",
    "sg:phone":"+31 40 211 0823",
    "sg:postcode":"5571 CK",
    "sg:province":"Noord-Brabant",
    "sg:tags":[
        "groenten"
    ],
    "src:geom":"simplegeo",
    "wof:belongsto":[
        85633337,
        101839321,
        85687035
    ],
    "wof:breaches":[],
    "wof:concordances":{
        "sg:id":"SG_5DbpAOqbcrluzU9MpbgKvm_51.322079_5.366170@1306269999"
    },
    "wof:country":"NL",
    "wof:geomhash":"1276156a47e2b0570941e1cfdc064bef",
    "wof:hierarchy":[
        {
            "continent_id":-1,
            "country_id":85633337,
            "locality_id":101839321,
            "neighbourhood_id":-1,
            "region_id":85687035,
            "venue_id":320548337
        }
    ],
    "wof:id":320548337,
    "wof:lastmodified":1449013853,
    "wof:name":"Daniels Cuypers Vof",
    "wof:parent_id":-1,
    "wof:placetype":"venue",
    "wof:superseded_by":[],
    "wof:supersedes":[],
    "wof:tags":[
        "groenten"
    ]
},
  "bbox": [5.36617,51.322079,5.36617,51.322079],
  "geometry": {"coordinates":[5.36617,51.322079],"type":"Point"}
}