{
  "id": 236587681,
  "type": "Feature",
  "properties": {
    "edtf:cessation":"u",
    "edtf:inception":"u",
    "geom:area":0.0,
    "geom:bbox":"5.72711,51.91391,5.72711,51.91391",
    "geom:latitude":51.91391,
    "geom:longitude":5.72711,
    "iso:country":"NL",
    "sg:address":"Ambachtsweg 20",
    "sg:city":"Andelst",
    "sg:classifiers":[],
    "sg:orig_category":"Autokeuringen",
    "sg:owner":"simplegeo",
    "sg:phone":"+31 488 455 005",
    "sg:postcode":"6673 DK",
    "sg:province":"Gelderland",
    "src:geom":"simplegeo",
    "wof:belongsto":[
        85633337,
        101808581,
        85687043
    ],
    "wof:breaches":[],
    "wof:concordances":{
        "sg:id":"SG_6JWg0ylqTh95qL44FVJrts_51.913910_5.727110@1306269939"
    },
    "wof:country":"NL",
    "wof:geomhash":"11ebafc64a883ebf06b399e63744986c",
    "wof:hierarchy":[
        {
            "continent_id":-1,
            "country_id":85633337,
            "locality_id":101808581,
            "neighbourhood_id":-1,
            "region_id":85687043,
            "venue_id":236587681
        }
    ],
    "wof:id":236587681,
    "wof:lastmodified":1449002644,
    "wof:name":"Gertjan Van Lonkhuyzen Auto'S",
    "wof:parent_id":-1,
    "wof:placetype":"venue",
    "wof:superseded_by":[],
    "wof:supersedes":[],
    "wof:tags":[]
},
  "bbox": [5.72711,51.91391,5.72711,51.91391],
  "geometry": {"coordinates":[5.72711,51.91391],"type":"Point"}
}