{
  "id": 253544449,
  "type": "Feature",
  "properties": {
    "edtf:cessation":"u",
    "edtf:inception":"u",
    "geom:area":0.0,
    "geom:bbox":"6.579351,52.232719,6.579351,52.232719",
    "geom:latitude":52.232719,
    "geom:longitude":6.579351,
    "iso:country":"NL",
    "sg:address":"Kerkstr 55",
    "sg:city":"Goor",
    "sg:classifiers":[
        {
            "category":"Personal",
            "subcategory":"Nail Salon",
            "type":"Services"
        }
    ],
    "sg:owner":"simplegeo",
    "sg:phone":"+31 547 385 755",
    "sg:postcode":"7471 AG",
    "sg:province":"Overijssel",
    "sg:tags":[
        "pedicure"
    ],
    "src:geom":"simplegeo",
    "wof:belongsto":[
        85633337,
        101807197,
        85687045
    ],
    "wof:breaches":[],
    "wof:concordances":{
        "sg:id":"SG_3t0RM3TLpyplNnStlOWJNN_52.232719_6.579351@1306269951"
    },
    "wof:country":"NL",
    "wof:geomhash":"b266899ca910e4ea9265003dc5cd3a55",
    "wof:hierarchy":[
        {
            "continent_id":-1,
            "country_id":85633337,
            "locality_id":101807197,
            "neighbourhood_id":-1,
            "region_id":85687045,
            "venue_id":253544449
        }
    ],
    "wof:id":253544449,
    "wof:lastmodified":1449065803,
    "wof:name":"Brusse, Ingeborg",
    "wof:parent_id":-1,
    "wof:placetype":"venue",
    "wof:superseded_by":[],
    "wof:supersedes":[],
    "wof:tags":[
        "pedicure"
    ]
},
  "bbox": [6.579351,52.232719,6.579351,52.232719],
  "geometry": {"coordinates":[6.579351,52.232719],"type":"Point"}
}