{
  "id": 236005257,
  "type": "Feature",
  "properties": {
    "edtf:cessation":"u",
    "edtf:inception":"u",
    "geom:area":0.0,
    "geom:bbox":"5.052094,51.68903,5.052094,51.68903",
    "geom:latitude":51.68903,
    "geom:longitude":5.052094,
    "iso:country":"NL",
    "sg:address":"Grotestr 29",
    "sg:city":"Waalwijk",
    "sg:classifiers":[],
    "sg:orig_category":"Cafetaria'S",
    "sg:owner":"simplegeo",
    "sg:phone":"+31 416 340 136",
    "sg:postcode":"5141 JM",
    "sg:province":"Noord-Brabant",
    "src:geom":"simplegeo",
    "wof:belongsto":[
        85633337,
        101839421,
        85687035
    ],
    "wof:breaches":[],
    "wof:concordances":{
        "sg:id":"SG_5GpAkER7qQlpDUl579EWKB_51.689030_5.052094@1306269933"
    },
    "wof:country":"NL",
    "wof:geomhash":"1703d1848edc2f4708db56f18c984af9",
    "wof:hierarchy":[
        {
            "continent_id":-1,
            "country_id":85633337,
            "locality_id":101839421,
            "neighbourhood_id":-1,
            "region_id":85687035,
            "venue_id":236005257
        }
    ],
    "wof:id":236005257,
    "wof:lastmodified":1449004928,
    "wof:name":"Naberke, 'T",
    "wof:parent_id":-1,
    "wof:placetype":"venue",
    "wof:superseded_by":[],
    "wof:supersedes":[],
    "wof:tags":[]
},
  "bbox": [5.052094,51.68903,5.052094,51.68903],
  "geometry": {"coordinates":[5.052094,51.68903],"type":"Point"}
}