{
  "id": 236678325,
  "type": "Feature",
  "properties": {
    "edtf:cessation":"u",
    "edtf:inception":"u",
    "geom:area":0.0,
    "geom:bbox":"4.524123,52.223137,4.524123,52.223137",
    "geom:latitude":52.223137,
    "geom:longitude":4.524123,
    "iso:country":"NL",
    "sg:address":"Parklaan 60",
    "sg:city":"Sassenheim",
    "sg:classifiers":[],
    "sg:orig_category":"Autokeuringen",
    "sg:owner":"simplegeo",
    "sg:phone":"+31 252 214 625",
    "sg:postcode":"2171 EG",
    "sg:province":"Zuid-Holland",
    "src:geom":"simplegeo",
    "wof:belongsto":[
        85798109,
        85633337,
        101837701,
        85687041
    ],
    "wof:breaches":[],
    "wof:concordances":{
        "sg:id":"SG_0CDWZbGrPfXwHd7eO9b6gJ_52.223137_4.524123@1306269940"
    },
    "wof:country":"NL",
    "wof:geomhash":"794556ccfb473e3fe3923a2df7894749",
    "wof:hierarchy":[
        {
            "continent_id":-1,
            "country_id":85633337,
            "locality_id":101837701,
            "neighbourhood_id":85798109,
            "region_id":85687041,
            "venue_id":236678325
        }
    ],
    "wof:id":236678325,
    "wof:lastmodified":1449003201,
    "wof:name":"Total Zelftankstation Sassenheim",
    "wof:parent_id":85798109,
    "wof:placetype":"venue",
    "wof:superseded_by":[],
    "wof:supersedes":[],
    "wof:tags":[]
},
  "bbox": [4.524123,52.223137,4.524123,52.223137],
  "geometry": {"coordinates":[4.524123,52.223137],"type":"Point"}
}