{
  "id": 219707611,
  "type": "Feature",
  "properties": {
    "edtf:cessation":"u",
    "edtf:inception":"u",
    "geom:area":0.0,
    "geom:bbox":"5.772553,52.10128,5.772553,52.10128",
    "geom:latitude":52.10128,
    "geom:longitude":5.772553,
    "iso:country":"NL",
    "sg:address":"Dorpsstr 6B",
    "sg:city":"Otterlo",
    "sg:classifiers":[],
    "sg:orig_category":"Administratie- En Boekhoudkantoren",
    "sg:owner":"simplegeo",
    "sg:phone":"+31 318 591 609",
    "sg:postcode":"6731 AT",
    "sg:province":"Gelderland",
    "src:geom":"simplegeo",
    "wof:belongsto":[
        85633337,
        101807129,
        85687043
    ],
    "wof:breaches":[],
    "wof:concordances":{
        "sg:id":"SG_18l2qVSb4UogIHeSaaGTM1_52.101280_5.772553@1306269928"
    },
    "wof:country":"NL",
    "wof:geomhash":"0208b4d1461f6bee64301bfd0849f570",
    "wof:hierarchy":[
        {
            "continent_id":-1,
            "country_id":85633337,
            "locality_id":101807129,
            "neighbourhood_id":-1,
            "region_id":85687043,
            "venue_id":219707611
        }
    ],
    "wof:id":219707611,
    "wof:lastmodified":1449073359,
    "wof:name":"Plaggenhoef, Van",
    "wof:parent_id":-1,
    "wof:placetype":"venue",
    "wof:superseded_by":[],
    "wof:supersedes":[],
    "wof:tags":[]
},
  "bbox": [5.772553,52.10128,5.772553,52.10128],
  "geometry": {"coordinates":[5.772553,52.10128],"type":"Point"}
}