{
  "id": 319821207,
  "type": "Feature",
  "properties": {
    "edtf:cessation":"u",
    "edtf:inception":"u",
    "geom:area":0.0,
    "geom:bbox":"5.795786,50.873112,5.795786,50.873112",
    "geom:latitude":50.873112,
    "geom:longitude":5.795786,
    "iso:country":"NL",
    "sg:address":"Stationswg 4",
    "sg:city":"Valkenburg Lb",
    "sg:classifiers":[
        {
            "category":"Travel",
            "subcategory":"Hotels & Motels",
            "type":"Entertainment"
        }
    ],
    "sg:owner":"simplegeo",
    "sg:phone":"+31 43 604 0893",
    "sg:postcode":"6301 JE",
    "sg:province":"Limburg",
    "src:geom":"simplegeo",
    "wof:belongsto":[
        85797779,
        85633337,
        85687033
    ],
    "wof:breaches":[],
    "wof:concordances":{
        "sg:id":"SG_26FycpdXQoPxHKeBM5HkdU_50.873112_5.795786@1306269991"
    },
    "wof:country":"NL",
    "wof:geomhash":"4e33969de1241a3f43486bebe880792e",
    "wof:hierarchy":[
        {
            "continent_id":-1,
            "country_id":85633337,
            "locality_id":-1,
            "neighbourhood_id":85797779,
            "region_id":85687033,
            "venue_id":319821207
        }
    ],
    "wof:id":319821207,
    "wof:lastmodified":1449024505,
    "wof:name":"Sonnenblinck",
    "wof:parent_id":85797779,
    "wof:placetype":"venue",
    "wof:superseded_by":[],
    "wof:supersedes":[],
    "wof:tags":[]
},
  "bbox": [5.795786,50.873112,5.795786,50.873112],
  "geometry": {"coordinates":[5.795786,50.873112],"type":"Point"}
}