{
  "id": 219373411,
  "type": "Feature",
  "properties": {
    "edtf:cessation":"u",
    "edtf:inception":"u",
    "geom:area":0.0,
    "geom:bbox":"5.15018,52.300022,5.15018,52.300022",
    "geom:latitude":52.300022,
    "geom:longitude":5.15018,
    "iso:country":"NL",
    "sg:address":"Kolonel Van Brienenstr 31",
    "sg:city":"Naarden",
    "sg:classifiers":[],
    "sg:orig_category":"Loodgieterswerk, Verwarming And Sanitaire Installaties",
    "sg:owner":"simplegeo",
    "sg:phone":"+31 35 694 6088",
    "sg:postcode":"1411 TH",
    "sg:province":"North Holland",
    "src:geom":"simplegeo",
    "wof:belongsto":[
        85797181,
        85633337,
        85687053
    ],
    "wof:breaches":[],
    "wof:concordances":{
        "sg:id":"SG_3YRhtdU9n6Yn2wMB5SHbFI_52.300022_5.150180@1306269925"
    },
    "wof:country":"NL",
    "wof:geomhash":"aab8ae15a4ad69eb65df0ec6af1d5dbe",
    "wof:hierarchy":[
        {
            "continent_id":-1,
            "country_id":85633337,
            "locality_id":-1,
            "neighbourhood_id":85797181,
            "region_id":85687053,
            "venue_id":219373411
        }
    ],
    "wof:id":219373411,
    "wof:lastmodified":1449072207,
    "wof:name":"Technisch Buro Kruijer En Van Der Meulen",
    "wof:parent_id":85797181,
    "wof:placetype":"venue",
    "wof:superseded_by":[],
    "wof:supersedes":[],
    "wof:tags":[]
},
  "bbox": [5.15018,52.300022,5.15018,52.300022],
  "geometry": {"coordinates":[5.15018,52.300022],"type":"Point"}
}