{
  "id": 219816309,
  "type": "Feature",
  "properties": {
    "edtf:cessation":"u",
    "edtf:inception":"u",
    "geom:area":0.0,
    "geom:bbox":"4.075438,51.869846,4.075438,51.869846",
    "geom:latitude":51.869846,
    "geom:longitude":4.075438,
    "iso:country":"NL",
    "sg:address":"Vogelgaarde 31",
    "sg:city":"Rockanje",
    "sg:classifiers":[],
    "sg:orig_category":"Adviesbureaus Bedrijfsorganisatie",
    "sg:owner":"simplegeo",
    "sg:phone":"+31 181 402 571",
    "sg:postcode":"3235 SH",
    "sg:province":"Zuid-Holland",
    "src:geom":"simplegeo",
    "wof:belongsto":[
        85633337,
        101809839,
        85687041
    ],
    "wof:breaches":[],
    "wof:concordances":{
        "sg:id":"SG_4tDiouw036jWECc00G0Ddh_51.869846_4.075438@1306269929"
    },
    "wof:country":"NL",
    "wof:geomhash":"f39b14ddfba53b1bdf102a8e89b96ce0",
    "wof:hierarchy":[
        {
            "continent_id":-1,
            "country_id":85633337,
            "locality_id":101809839,
            "neighbourhood_id":-1,
            "region_id":85687041,
            "venue_id":219816309
        }
    ],
    "wof:id":219816309,
    "wof:lastmodified":1449072436,
    "wof:name":"Hob & Partn",
    "wof:parent_id":-1,
    "wof:placetype":"venue",
    "wof:superseded_by":[],
    "wof:supersedes":[],
    "wof:tags":[]
},
  "bbox": [4.075438,51.869846,4.075438,51.869846],
  "geometry": {"coordinates":[4.075438,51.869846],"type":"Point"}
}