{
  "id": 220084179,
  "type": "Feature",
  "properties": {
    "edtf:cessation":"u",
    "edtf:inception":"u",
    "geom:area":0.0,
    "geom:bbox":"5.931647,52.212963,5.931647,52.212963",
    "geom:latitude":52.212963,
    "geom:longitude":5.931647,
    "iso:country":"NL",
    "sg:address":"Grindbergln 2",
    "sg:city":"Apeldoorn",
    "sg:classifiers":[],
    "sg:orig_category":"Adviesbureaus Personeel",
    "sg:owner":"simplegeo",
    "sg:phone":"+31 6 50233513",
    "sg:postcode":"7313 HG",
    "sg:province":"Gelderland",
    "src:geom":"simplegeo",
    "wof:belongsto":[
        85797095,
        85633337,
        85687043
    ],
    "wof:breaches":[],
    "wof:concordances":{
        "sg:id":"SG_0brwqWXr569w2zvLflnKzO_52.212963_5.931647@1306269932"
    },
    "wof:country":"NL",
    "wof:geomhash":"3f9dd67a2125f7733e7cbd932139cef3",
    "wof:hierarchy":[
        {
            "continent_id":-1,
            "country_id":85633337,
            "locality_id":-1,
            "neighbourhood_id":85797095,
            "region_id":85687043,
            "venue_id":220084179
        }
    ],
    "wof:id":220084179,
    "wof:lastmodified":1449074120,
    "wof:name":"P & O",
    "wof:parent_id":85797095,
    "wof:placetype":"venue",
    "wof:superseded_by":[],
    "wof:supersedes":[],
    "wof:tags":[]
},
  "bbox": [5.931647,52.212963,5.931647,52.212963],
  "geometry": {"coordinates":[5.931647,52.212963],"type":"Point"}
}