{
  "id": 236643173,
  "type": "Feature",
  "properties": {
    "edtf:cessation":"u",
    "edtf:inception":"u",
    "geom:area":0.0,
    "geom:bbox":"5.956978,53.219166,5.956978,53.219166",
    "geom:latitude":53.219166,
    "geom:longitude":5.956978,
    "iso:country":"NL",
    "sg:address":"Rijksstraatweg 161",
    "sg:city":"Hardegarijp",
    "sg:classifiers":[],
    "sg:orig_category":"Autokeuringen",
    "sg:owner":"simplegeo",
    "sg:phone":"+31 511 477 508",
    "sg:postcode":"9254 DD",
    "sg:province":"Friesland",
    "src:geom":"simplegeo",
    "wof:belongsto":[
        85633337,
        85687055
    ],
    "wof:breaches":[],
    "wof:concordances":{
        "sg:id":"SG_0TKgyLsOZwo30ITQB5kfJL_53.219166_5.956978@1306269939"
    },
    "wof:country":"NL",
    "wof:geomhash":"d53e6c07c6d671adb1a2653cb201fd90",
    "wof:hierarchy":[
        {
            "continent_id":-1,
            "country_id":85633337,
            "locality_id":-1,
            "neighbourhood_id":-1,
            "region_id":85687055,
            "venue_id":236643173
        }
    ],
    "wof:id":236643173,
    "wof:lastmodified":1449004716,
    "wof:name":"T Broersma",
    "wof:parent_id":-1,
    "wof:placetype":"venue",
    "wof:superseded_by":[],
    "wof:supersedes":[],
    "wof:tags":[]
},
  "bbox": [5.956978,53.219166,5.956978,53.219166],
  "geometry": {"coordinates":[5.956978,53.219166],"type":"Point"}
}