{
  "id": 269685685,
  "type": "Feature",
  "properties": {
    "edtf:cessation":"u",
    "edtf:inception":"u",
    "geom:area":0.0,
    "geom:bbox":"3.567728,51.462601,3.567728,51.462601",
    "geom:latitude":51.462601,
    "geom:longitude":3.567728,
    "iso:country":"NL",
    "sg:address":"Rosenburglaan 4",
    "sg:city":"Vlissingen",
    "sg:classifiers":[],
    "sg:orig_category":"Public Relationbureaus",
    "sg:owner":"simplegeo",
    "sg:phone":"+31 118 474 519",
    "sg:postcode":"4385 JD",
    "sg:province":"Zeeland",
    "src:geom":"simplegeo",
    "wof:belongsto":[
        85797165,
        85633337,
        101839445,
        85687037
    ],
    "wof:breaches":[],
    "wof:concordances":{
        "sg:id":"SG_3zY46IOgWBMyt4QZgXnoHy_51.462601_3.567728@1306269956"
    },
    "wof:country":"NL",
    "wof:geomhash":"fd4d10b88c5ef84450b880e419b3c1c5",
    "wof:hierarchy":[
        {
            "continent_id":-1,
            "country_id":85633337,
            "locality_id":101839445,
            "neighbourhood_id":85797165,
            "region_id":85687037,
            "venue_id":269685685
        }
    ],
    "wof:id":269685685,
    "wof:lastmodified":1449038887,
    "wof:name":"Mission Public Relations",
    "wof:parent_id":85797165,
    "wof:placetype":"venue",
    "wof:superseded_by":[],
    "wof:supersedes":[],
    "wof:tags":[]
},
  "bbox": [3.567728,51.462601,3.567728,51.462601],
  "geometry": {"coordinates":[3.567728,51.462601],"type":"Point"}
}