{
  "id": 320077565,
  "type": "Feature",
  "properties": {
    "edtf:cessation":"u",
    "edtf:inception":"u",
    "geom:area":0.0,
    "geom:bbox":"4.661658,52.72237,4.661658,52.72237",
    "geom:latitude":52.72237,
    "geom:longitude":4.661658,
    "iso:country":"NL",
    "sg:address":"Heerewg 325",
    "sg:city":"Groet",
    "sg:classifiers":[
        {
            "category":"Retail",
            "subcategory":"Auto Repair",
            "type":"Services"
        }
    ],
    "sg:owner":"simplegeo",
    "sg:phone":"+31 72 509 1913",
    "sg:postcode":"1873 GC",
    "sg:province":"North Holland",
    "sg:tags":[
        "garage"
    ],
    "src:geom":"simplegeo",
    "wof:belongsto":[
        85633337,
        85687053
    ],
    "wof:breaches":[],
    "wof:concordances":{
        "sg:id":"SG_4SY5KqnQm6l1m6PyG5k1qb_52.722370_4.661658@1306269994"
    },
    "wof:country":"NL",
    "wof:geomhash":"af96dd55488c198a8893f10dc8131fe7",
    "wof:hierarchy":[
        {
            "continent_id":-1,
            "country_id":85633337,
            "locality_id":-1,
            "neighbourhood_id":-1,
            "region_id":85687053,
            "venue_id":320077565
        }
    ],
    "wof:id":320077565,
    "wof:lastmodified":1449011850,
    "wof:name":"Hoexum",
    "wof:parent_id":-1,
    "wof:placetype":"venue",
    "wof:superseded_by":[],
    "wof:supersedes":[],
    "wof:tags":[
        "garage"
    ]
},
  "bbox": [4.661658,52.72237,4.661658,52.72237],
  "geometry": {"coordinates":[4.661658,52.72237],"type":"Point"}
}