{
  "id": 236248527,
  "type": "Feature",
  "properties": {
    "edtf:cessation":"u",
    "edtf:inception":"u",
    "geom:area":0.0,
    "geom:bbox":"6.98543,52.725262,6.98543,52.725262",
    "geom:latitude":52.725262,
    "geom:longitude":6.98543,
    "iso:country":"NL",
    "sg:address":"Postbus 38",
    "sg:city":"Klazienaveen",
    "sg:classifiers":[
        {
            "category":"Recreation",
            "subcategory":"Amusement Park",
            "type":"Entertainment"
        }
    ],
    "sg:owner":"simplegeo",
    "sg:phone":"+31 591 393 049",
    "sg:postcode":"7890 AA",
    "sg:province":"Drenthe",
    "src:geom":"simplegeo",
    "wof:belongsto":[
        85633337,
        101837879,
        85687051
    ],
    "wof:breaches":[],
    "wof:concordances":{
        "sg:id":"SG_3qkVzENmnfn5e9D2LKogWo_52.725262_6.985430@1306269936"
    },
    "wof:country":"NL",
    "wof:geomhash":"87f85dddc40db4d901f21e528d067458",
    "wof:hierarchy":[
        {
            "continent_id":-1,
            "country_id":85633337,
            "locality_id":101837879,
            "neighbourhood_id":-1,
            "region_id":85687051,
            "venue_id":236248527
        }
    ],
    "wof:id":236248527,
    "wof:lastmodified":1449003473,
    "wof:name":"Valkenier Falconry Solutions",
    "wof:parent_id":-1,
    "wof:placetype":"venue",
    "wof:superseded_by":[],
    "wof:supersedes":[],
    "wof:tags":[]
},
  "bbox": [6.98543,52.725262,6.98543,52.725262],
  "geometry": {"coordinates":[6.98543,52.725262],"type":"Point"}
}