{
  "id": 220033201,
  "type": "Feature",
  "properties": {
    "edtf:cessation":"u",
    "edtf:inception":"u",
    "geom:area":0.0,
    "geom:bbox":"-111.930344,34.168091,-111.930344,34.168091",
    "geom:latitude":34.168091,
    "geom:longitude":-111.930344,
    "iso:country":"NL",
    "sg:address":"De Klaptes 13",
    "sg:city":"Horssen",
    "sg:classifiers":[],
    "sg:orig_category":"Adviesbureaus Economie",
    "sg:owner":"simplegeo",
    "sg:phone":"+31 487 542 237",
    "sg:postcode":"6631 AZ",
    "sg:province":"Gelderland",
    "src:geom":"simplegeo",
    "wof:belongsto":[
        85633793,
        85688719
    ],
    "wof:breaches":[],
    "wof:concordances":{
        "sg:id":"SG_4c7mbW6cS2qsHZSwP47f30_34.168091_-111.930344@1306269931"
    },
    "wof:country":"NL",
    "wof:geomhash":"6fb9ff332afc5b10d8ae6dfcfe7e020b",
    "wof:hierarchy":[
        {
            "continent_id":-1,
            "country_id":85633793,
            "locality_id":-1,
            "neighbourhood_id":-1,
            "region_id":85688719,
            "venue_id":220033201
        }
    ],
    "wof:id":220033201,
    "wof:lastmodified":1449074209,
    "wof:name":"Fleskens",
    "wof:parent_id":-1,
    "wof:placetype":"venue",
    "wof:superseded_by":[],
    "wof:supersedes":[],
    "wof:tags":[]
},
  "bbox": [-111.930344,34.168091,-111.930344,34.168091],
  "geometry": {"coordinates":[-111.930344,34.168091],"type":"Point"}
}