{
  "id": 336859953,
  "type": "Feature",
  "properties": {
    "edtf:cessation":"u",
    "edtf:inception":"u",
    "geom:area":0.0,
    "geom:bbox":"6.00832,53.158459,6.00832,53.158459",
    "geom:latitude":53.158459,
    "geom:longitude":6.00832,
    "iso:country":"NL",
    "sg:address":"Heidereed 11",
    "sg:city":"Suameer",
    "sg:classifiers":[],
    "sg:orig_category":"Onderhoudswerken",
    "sg:owner":"simplegeo",
    "sg:phone":"+31 511 521 162",
    "sg:postcode":"9262 ST",
    "sg:province":"Provincie Friesland",
    "src:geom":"simplegeo",
    "wof:belongsto":[
        85633337,
        85687055
    ],
    "wof:breaches":[],
    "wof:concordances":{
        "sg:id":"SG_2VEMSdWx0MP3IyYo8gmuPj_53.158459_6.008320@1306270006"
    },
    "wof:country":"NL",
    "wof:geomhash":"6001acf0d2cefa298c35119fe4b7c855",
    "wof:hierarchy":[
        {
            "continent_id":-1,
            "country_id":85633337,
            "locality_id":-1,
            "neighbourhood_id":-1,
            "region_id":85687055,
            "venue_id":336859953
        }
    ],
    "wof:id":336859953,
    "wof:lastmodified":1448997701,
    "wof:name":"Meer, H J Van De",
    "wof:parent_id":-1,
    "wof:placetype":"venue",
    "wof:superseded_by":[],
    "wof:supersedes":[],
    "wof:tags":[]
},
  "bbox": [6.00832,53.158459,6.00832,53.158459],
  "geometry": {"coordinates":[6.00832,53.158459],"type":"Point"}
}