{
  "id": 235987131,
  "type": "Feature",
  "properties": {
    "edtf:cessation":"u",
    "edtf:inception":"u",
    "geom:area":0.0,
    "geom:bbox":"6.006663,53.31496,6.006663,53.31496",
    "geom:latitude":53.31496,
    "geom:longitude":6.006663,
    "iso:country":"NL",
    "sg:address":"Beukenlaan 100",
    "sg:city":"Dokkum",
    "sg:classifiers":[],
    "sg:orig_category":"Alternatieve Geneeskunde",
    "sg:owner":"simplegeo",
    "sg:phone":"+31 519 296 248",
    "sg:postcode":"9103 RB",
    "sg:province":"Friesland",
    "src:geom":"simplegeo",
    "wof:belongsto":[
        85633337,
        101806131,
        85687055
    ],
    "wof:breaches":[],
    "wof:concordances":{
        "sg:id":"SG_3OH3XZMkv6eEBStCY5cMGp_53.314960_6.006663@1306269933"
    },
    "wof:country":"NL",
    "wof:geomhash":"a5f9f645c51761837d72de2a99935c72",
    "wof:hierarchy":[
        {
            "continent_id":-1,
            "country_id":85633337,
            "locality_id":101806131,
            "neighbourhood_id":-1,
            "region_id":85687055,
            "venue_id":235987131
        }
    ],
    "wof:id":235987131,
    "wof:lastmodified":1449008432,
    "wof:name":"Salon Francy",
    "wof:parent_id":-1,
    "wof:placetype":"venue",
    "wof:superseded_by":[],
    "wof:supersedes":[],
    "wof:tags":[]
},
  "bbox": [6.006663,53.31496,6.006663,53.31496],
  "geometry": {"coordinates":[6.006663,53.31496],"type":"Point"}
}