{
  "id": 252850431,
  "type": "Feature",
  "properties": {
    "edtf:cessation":"u",
    "edtf:inception":"u",
    "geom:area":0.0,
    "geom:bbox":"4.542704,51.959053,4.542704,51.959053",
    "geom:latitude":51.959053,
    "geom:longitude":4.542704,
    "iso:country":"NL",
    "sg:address":"Kelloggplaats 266",
    "sg:city":"Rotterdam",
    "sg:classifiers":[],
    "sg:orig_category":"Medische Apparatuur And Prothesen Fab",
    "sg:owner":"simplegeo",
    "sg:phone":"+31 10 421 5346",
    "sg:postcode":"3068 JG",
    "sg:province":"South Holland",
    "src:geom":"simplegeo",
    "wof:belongsto":[
        85798149,
        85633337,
        101752769,
        85687041
    ],
    "wof:breaches":[],
    "wof:concordances":{
        "sg:id":"SG_2vkprHD1D9MsMSSfAQaTOX_51.959053_4.542704@1306269944"
    },
    "wof:country":"NL",
    "wof:geomhash":"39768ce67870c31ccbdeaa8e2a082bee",
    "wof:hierarchy":[
        {
            "continent_id":-1,
            "country_id":85633337,
            "locality_id":101752769,
            "neighbourhood_id":85798149,
            "region_id":85687041,
            "venue_id":252850431
        }
    ],
    "wof:id":252850431,
    "wof:lastmodified":1449006043,
    "wof:name":"H. Van Opstal",
    "wof:parent_id":85798149,
    "wof:placetype":"venue",
    "wof:superseded_by":[],
    "wof:supersedes":[],
    "wof:tags":[]
},
  "bbox": [4.542704,51.959053,4.542704,51.959053],
  "geometry": {"coordinates":[4.542704,51.959053],"type":"Point"}
}