{
  "id": 202936389,
  "type": "Feature",
  "properties": {
    "edtf:cessation":"u",
    "edtf:inception":"u",
    "geom:area":0.0,
    "geom:bbox":"5.023428,52.729759,5.023428,52.729759",
    "geom:latitude":52.729759,
    "geom:longitude":5.023428,
    "iso:country":"NL",
    "sg:address":"Lindenstr 38",
    "sg:city":"Abbekerk",
    "sg:classifiers":[],
    "sg:orig_category":"Verzekeringen - Verzekeringskantoren",
    "sg:owner":"simplegeo",
    "sg:phone":"+31 229 581 245",
    "sg:postcode":"1657 AV",
    "sg:province":"Noord-Holland",
    "src:geom":"simplegeo",
    "wof:belongsto":[
        85633337,
        101807323,
        85687053
    ],
    "wof:breaches":[],
    "wof:concordances":{
        "sg:id":"SG_3KJzB3HzbYUBe7xYhPxpSx_52.729759_5.023428@1306269919"
    },
    "wof:country":"NL",
    "wof:geomhash":"f3f5b344e3a93de2f4e295da1c8b4629",
    "wof:hierarchy":[
        {
            "continent_id":-1,
            "country_id":85633337,
            "locality_id":101807323,
            "neighbourhood_id":-1,
            "region_id":85687053,
            "venue_id":202936389
        }
    ],
    "wof:id":202936389,
    "wof:lastmodified":1449060957,
    "wof:name":"Eriks",
    "wof:parent_id":-1,
    "wof:placetype":"venue",
    "wof:superseded_by":[],
    "wof:supersedes":[],
    "wof:tags":[]
},
  "bbox": [5.023428,52.729759,5.023428,52.729759],
  "geometry": {"coordinates":[5.023428,52.729759],"type":"Point"}
}