{
  "id": 202466353,
  "type": "Feature",
  "properties": {
    "edtf:cessation":"u",
    "edtf:inception":"u",
    "geom:area":0.0,
    "geom:bbox":"4.432729,51.918419,4.432729,51.918419",
    "geom:latitude":51.918419,
    "geom:longitude":4.432729,
    "iso:country":"NL",
    "sg:address":"Spartastraat 216",
    "sg:city":"Rotterdam",
    "sg:classifiers":[],
    "sg:orig_category":"Verhuur Catering-, Feest- En Evenementbenodigdheden",
    "sg:owner":"simplegeo",
    "sg:phone":"+31 10 437 5321",
    "sg:postcode":"3027 ET",
    "sg:province":"Zuid-Holland",
    "src:geom":"simplegeo",
    "wof:belongsto":[
        85798427,
        85633337,
        101751843,
        85687041
    ],
    "wof:breaches":[],
    "wof:concordances":{
        "sg:id":"SG_2nLUkU2wCncfblxcnpDuvX_51.918419_4.432729@1306269915"
    },
    "wof:country":"NL",
    "wof:geomhash":"4d09ab3b73cdcec1f720766fa7bdb4ca",
    "wof:hierarchy":[
        {
            "continent_id":-1,
            "country_id":85633337,
            "locality_id":101751843,
            "neighbourhood_id":85798427,
            "region_id":85687041,
            "venue_id":202466353
        }
    ],
    "wof:id":202466353,
    "wof:lastmodified":1449060873,
    "wof:name":"Abreijmis Bv",
    "wof:parent_id":85798427,
    "wof:placetype":"venue",
    "wof:superseded_by":[],
    "wof:supersedes":[],
    "wof:tags":[]
},
  "bbox": [4.432729,51.918419,4.432729,51.918419],
  "geometry": {"coordinates":[4.432729,51.918419],"type":"Point"}
}