{
  "id": 219771645,
  "type": "Feature",
  "properties": {
    "edtf:cessation":"u",
    "edtf:inception":"u",
    "geom:area":0.0,
    "geom:bbox":"5.384807,52.202198,5.384807,52.202198",
    "geom:latitude":52.202198,
    "geom:longitude":5.384807,
    "iso:country":"NL",
    "sg:address":"Ln V Duurzaamheid 139",
    "sg:city":"Amersfoort",
    "sg:classifiers":[],
    "sg:orig_category":"Adviesbureaus Bedrijfsorganisatie",
    "sg:owner":"simplegeo",
    "sg:phone":"+31 6 21500878",
    "sg:postcode":"3824 DZ",
    "sg:province":"Utrecht",
    "sg:website":"http://www.dcg.myweb.nl",
    "src:geom":"simplegeo",
    "wof:belongsto":[
        85798419,
        85633337,
        101855289,
        85687039
    ],
    "wof:breaches":[],
    "wof:concordances":{
        "sg:id":"SG_0KX4MsEoOGflCiWKTJMhoC_52.202198_5.384807@1306269929"
    },
    "wof:country":"NL",
    "wof:geomhash":"9655d294017cd51636b872bb8f22866e",
    "wof:hierarchy":[
        {
            "continent_id":-1,
            "country_id":85633337,
            "locality_id":101855289,
            "neighbourhood_id":85798419,
            "region_id":85687039,
            "venue_id":219771645
        }
    ],
    "wof:id":219771645,
    "wof:lastmodified":1449072291,
    "wof:name":"Derksen",
    "wof:parent_id":85798419,
    "wof:placetype":"venue",
    "wof:superseded_by":[],
    "wof:supersedes":[],
    "wof:tags":[]
},
  "bbox": [5.384807,52.202198,5.384807,52.202198],
  "geometry": {"coordinates":[5.384807,52.202198],"type":"Point"}
}