{
  "id": 253609919,
  "type": "Feature",
  "properties": {
    "edtf:cessation":"u",
    "edtf:inception":"u",
    "geom:area":0.0,
    "geom:bbox":"6.17878,51.358517,6.17878,51.358517",
    "geom:latitude":51.358517,
    "geom:longitude":6.17878,
    "iso:country":"NL",
    "sg:address":"Kaldenkerkerwg 105",
    "sg:city":"Venlo",
    "sg:classifiers":[
        {
            "category":"Banks & Credit Unions",
            "subcategory":"Investment Brokerage",
            "type":"Services"
        }
    ],
    "sg:owner":"simplegeo",
    "sg:phone":"+31 77 354 8977",
    "sg:postcode":"5915 AA",
    "sg:province":"Limburg",
    "sg:tags":[
        "pension"
    ],
    "src:geom":"simplegeo",
    "wof:belongsto":[
        85797131,
        85633337,
        101839287,
        85687033
    ],
    "wof:breaches":[],
    "wof:concordances":{
        "sg:id":"SG_6vQKZsR4xegoZTlva64oGt_51.358517_6.178780@1306269952"
    },
    "wof:country":"NL",
    "wof:geomhash":"0dd749ad66be356e6f02ddf31cd6897f",
    "wof:hierarchy":[
        {
            "continent_id":-1,
            "country_id":85633337,
            "locality_id":101839287,
            "neighbourhood_id":85797131,
            "region_id":85687033,
            "venue_id":253609919
        }
    ],
    "wof:id":253609919,
    "wof:lastmodified":1449063938,
    "wof:name":"Welkom",
    "wof:parent_id":85797131,
    "wof:placetype":"venue",
    "wof:superseded_by":[],
    "wof:supersedes":[],
    "wof:tags":[
        "pension"
    ]
},
  "bbox": [6.17878,51.358517,6.17878,51.358517],
  "geometry": {"coordinates":[6.17878,51.358517],"type":"Point"}
}