{
  "id": 236912901,
  "type": "Feature",
  "properties": {
    "edtf:cessation":"u",
    "edtf:inception":"u",
    "geom:area":0.0,
    "geom:bbox":"5.847076,51.780621,5.847076,51.780621",
    "geom:latitude":51.780621,
    "geom:longitude":5.847076,
    "iso:country":"NL",
    "sg:address":"Ambachtswg 15A",
    "sg:city":"Malden",
    "sg:classifiers":[],
    "sg:orig_category":"Machinehandel",
    "sg:owner":"simplegeo",
    "sg:phone":"+31 24 358 5328",
    "sg:postcode":"6581 AX",
    "sg:province":"Gelderland",
    "sg:website":"http://www.ineco-tradingcompany.nl",
    "src:geom":"simplegeo",
    "wof:belongsto":[
        85797179,
        85633337,
        101751859,
        85687043
    ],
    "wof:breaches":[],
    "wof:concordances":{
        "sg:id":"SG_0IWw0nxvBw5SSYaA6dl0ci_51.780621_5.847076@1306269942"
    },
    "wof:country":"NL",
    "wof:geomhash":"6e34551e72225b151495293fecddad04",
    "wof:hierarchy":[
        {
            "continent_id":-1,
            "country_id":85633337,
            "locality_id":101751859,
            "neighbourhood_id":85797179,
            "region_id":85687043,
            "venue_id":236912901
        }
    ],
    "wof:id":236912901,
    "wof:lastmodified":1449003245,
    "wof:name":"In\u00e9co Trading Company",
    "wof:parent_id":85797179,
    "wof:placetype":"venue",
    "wof:superseded_by":[],
    "wof:supersedes":[],
    "wof:tags":[]
},
  "bbox": [5.847076,51.780621,5.847076,51.780621],
  "geometry": {"coordinates":[5.847076,51.780621],"type":"Point"}
}