{
  "id": 202454489,
  "type": "Feature",
  "properties": {
    "edtf:cessation":"u",
    "edtf:inception":"u",
    "geom:area":0.0,
    "geom:bbox":"6.375323,51.870567,6.375323,51.870567",
    "geom:latitude":51.870567,
    "geom:longitude":6.375323,
    "iso:country":"NL",
    "sg:address":"Koningsstraat 24",
    "sg:city":"Gendringen",
    "sg:classifiers":[],
    "sg:orig_category":"Verhuur Bouwmachines",
    "sg:owner":"simplegeo",
    "sg:phone":"+31 315 683 814",
    "sg:postcode":"7081 DE",
    "sg:province":"Gelderland",
    "src:geom":"simplegeo",
    "wof:belongsto":[
        85633337,
        101837795,
        85687043
    ],
    "wof:breaches":[],
    "wof:concordances":{
        "sg:id":"SG_111L3BjzxFcM6Xrl1NXgaf_51.870567_6.375323@1306269915"
    },
    "wof:country":"NL",
    "wof:geomhash":"2252ec603cec50d1221abb8ed9c2da27",
    "wof:hierarchy":[
        {
            "continent_id":-1,
            "country_id":85633337,
            "locality_id":101837795,
            "neighbourhood_id":-1,
            "region_id":85687043,
            "venue_id":202454489
        }
    ],
    "wof:id":202454489,
    "wof:lastmodified":1449062409,
    "wof:name":"Fa. Fles Multi Music",
    "wof:parent_id":-1,
    "wof:placetype":"venue",
    "wof:superseded_by":[],
    "wof:supersedes":[],
    "wof:tags":[]
},
  "bbox": [6.375323,51.870567,6.375323,51.870567],
  "geometry": {"coordinates":[6.375323,51.870567],"type":"Point"}
}