{
  "id": 219442823,
  "type": "Feature",
  "properties": {
    "edtf:cessation":"u",
    "edtf:inception":"u",
    "geom:area":0.0,
    "geom:bbox":"4.486948,52.166695,4.486948,52.166695",
    "geom:latitude":52.166695,
    "geom:longitude":4.486948,
    "iso:country":"NL",
    "sg:address":"Aloelaan 4",
    "sg:city":"Leiden",
    "sg:classifiers":[],
    "sg:orig_category":"Loodgieterswerk, Verwarming And Sanitaire Installaties",
    "sg:owner":"simplegeo",
    "sg:phone":"+31 71 522 3956",
    "sg:postcode":"2316 XS",
    "sg:province":"Zuid-Holland",
    "src:geom":"simplegeo",
    "wof:belongsto":[
        85798091,
        85633337,
        101751833,
        85687041
    ],
    "wof:breaches":[],
    "wof:concordances":{
        "sg:id":"SG_6dKTbvfPSW86PkoIG6mcrc_52.166695_4.486948@1306269926"
    },
    "wof:country":"NL",
    "wof:geomhash":"8d4d40dddb87cd485121009944d7d80e",
    "wof:hierarchy":[
        {
            "continent_id":-1,
            "country_id":85633337,
            "locality_id":101751833,
            "neighbourhood_id":85798091,
            "region_id":85687041,
            "venue_id":219442823
        }
    ],
    "wof:id":219442823,
    "wof:lastmodified":1449071942,
    "wof:name":"W Van Santen Onderhoudsbedr",
    "wof:parent_id":85798091,
    "wof:placetype":"venue",
    "wof:superseded_by":[],
    "wof:supersedes":[],
    "wof:tags":[]
},
  "bbox": [4.486948,52.166695,4.486948,52.166695],
  "geometry": {"coordinates":[4.486948,52.166695],"type":"Point"}
}