{
  "id": 320059453,
  "type": "Feature",
  "properties": {
    "edtf:cessation":"u",
    "edtf:inception":"u",
    "geom:area":0.0,
    "geom:bbox":"5.565606,51.393215,5.565606,51.393215",
    "geom:latitude":51.393215,
    "geom:longitude":5.565606,
    "iso:country":"NL",
    "sg:address":"Geldropsewg 14",
    "sg:city":"Heeze",
    "sg:classifiers":[
        {
            "category":"Retail",
            "subcategory":"Auto Repair",
            "type":"Services"
        }
    ],
    "sg:owner":"simplegeo",
    "sg:phone":"+31 40 226 0600",
    "sg:postcode":"5591 EC",
    "sg:province":"Noord-Brabant",
    "sg:tags":[
        "garage"
    ],
    "src:geom":"simplegeo",
    "wof:belongsto":[
        85797733,
        85633337,
        85687035
    ],
    "wof:breaches":[],
    "wof:concordances":{
        "sg:id":"SG_1oVDXSeW3ipDMSQlYN3GLT_51.393215_5.565606@1306269994"
    },
    "wof:country":"NL",
    "wof:geomhash":"44cb6b730e0d38b990c2e7b7516b237a",
    "wof:hierarchy":[
        {
            "continent_id":-1,
            "country_id":85633337,
            "locality_id":-1,
            "neighbourhood_id":85797733,
            "region_id":85687035,
            "venue_id":320059453
        }
    ],
    "wof:id":320059453,
    "wof:lastmodified":1449012283,
    "wof:name":"Burgt, Rik Van De",
    "wof:parent_id":85797733,
    "wof:placetype":"venue",
    "wof:superseded_by":[],
    "wof:supersedes":[],
    "wof:tags":[
        "garage"
    ]
},
  "bbox": [5.565606,51.393215,5.565606,51.393215],
  "geometry": {"coordinates":[5.565606,51.393215],"type":"Point"}
}