{
  "id": 303285485,
  "type": "Feature",
  "properties": {
    "edtf:cessation":"u",
    "edtf:inception":"u",
    "geom:area":0.0,
    "geom:bbox":"4.551251,52.258297,4.551251,52.258297",
    "geom:latitude":52.258297,
    "geom:longitude":4.551251,
    "iso:country":"NL",
    "sg:address":"Achterweg 8",
    "sg:city":"Lisse",
    "sg:classifiers":[],
    "sg:orig_category":"Schilderwerk",
    "sg:owner":"simplegeo",
    "sg:phone":"+31 252 417 106",
    "sg:postcode":"2161 GB",
    "sg:province":"Zuid-Holland",
    "src:geom":"simplegeo",
    "wof:belongsto":[
        85798313,
        85633337,
        101837693,
        85687041
    ],
    "wof:breaches":[],
    "wof:concordances":{
        "sg:id":"SG_0XIfoNoIgYObPT3WlCuKeB_52.258297_4.551251@1306269982"
    },
    "wof:country":"NL",
    "wof:geomhash":"bae3ca37e2b5f865d83669d7643145b2",
    "wof:hierarchy":[
        {
            "continent_id":-1,
            "country_id":85633337,
            "locality_id":101837693,
            "neighbourhood_id":85798313,
            "region_id":85687041,
            "venue_id":303285485
        }
    ],
    "wof:id":303285485,
    "wof:lastmodified":1448998188,
    "wof:name":"Schildersbedrijf Goedemans",
    "wof:parent_id":85798313,
    "wof:placetype":"venue",
    "wof:superseded_by":[],
    "wof:supersedes":[],
    "wof:tags":[]
},
  "bbox": [4.551251,52.258297,4.551251,52.258297],
  "geometry": {"coordinates":[4.551251,52.258297],"type":"Point"}
}