{
  "id": 286360801,
  "type": "Feature",
  "properties": {
    "edtf:cessation":"u",
    "edtf:inception":"u",
    "geom:area":0.0,
    "geom:bbox":"5.722943,50.821232,5.722943,50.821232",
    "geom:latitude":50.821232,
    "geom:longitude":5.722943,
    "iso:country":"NL",
    "sg:address":"Haeskensdaal 12",
    "sg:city":"Maastricht",
    "sg:classifiers":[],
    "sg:orig_category":"Bedrijfs- And Managementsconsultants",
    "sg:owner":"simplegeo",
    "sg:phone":"+31 43 361 8841",
    "sg:postcode":"6228 GN",
    "sg:province":"Limburg",
    "src:geom":"simplegeo",
    "wof:belongsto":[
        85797317,
        85633337,
        85687033
    ],
    "wof:breaches":[],
    "wof:concordances":{
        "sg:id":"SG_3CXsDdmsq1F7aLLmcp42yb_50.821232_5.722943@1306269968"
    },
    "wof:country":"NL",
    "wof:geomhash":"1c2185092a69c7a7df250dd560caa754",
    "wof:hierarchy":[
        {
            "continent_id":-1,
            "country_id":85633337,
            "locality_id":-1,
            "neighbourhood_id":85797317,
            "region_id":85687033,
            "venue_id":286360801
        }
    ],
    "wof:id":286360801,
    "wof:lastmodified":1449017454,
    "wof:name":"Schouten",
    "wof:parent_id":85797317,
    "wof:placetype":"venue",
    "wof:superseded_by":[],
    "wof:supersedes":[],
    "wof:tags":[]
},
  "bbox": [5.722943,50.821232,5.722943,50.821232],
  "geometry": {"coordinates":[5.722943,50.821232],"type":"Point"}
}