{
  "id": 236694527,
  "type": "Feature",
  "properties": {
    "edtf:cessation":"u",
    "edtf:inception":"u",
    "geom:area":0.0,
    "geom:bbox":"6.214372,52.24052,6.214372,52.24052",
    "geom:latitude":52.24052,
    "geom:longitude":6.214372,
    "iso:country":"NL",
    "sg:address":"Solingenstr 13",
    "sg:city":"Deventer",
    "sg:classifiers":[],
    "sg:orig_category":"Autolakken",
    "sg:owner":"simplegeo",
    "sg:phone":"+31 570 510 330",
    "sg:postcode":"7421 ZN",
    "sg:province":"Overijssel",
    "src:geom":"simplegeo",
    "wof:belongsto":[
        85797823,
        85633337,
        101751865,
        85687045
    ],
    "wof:breaches":[],
    "wof:concordances":{
        "sg:id":"SG_31cFvljd5z82tw3m1L91yi_52.240520_6.214372@1306269940"
    },
    "wof:country":"NL",
    "wof:geomhash":"691071434fbc654ddb2d17c34a1706b5",
    "wof:hierarchy":[
        {
            "continent_id":-1,
            "country_id":85633337,
            "locality_id":101751865,
            "neighbourhood_id":85797823,
            "region_id":85687045,
            "venue_id":236694527
        }
    ],
    "wof:id":236694527,
    "wof:lastmodified":1449002398,
    "wof:name":"Mipa Ned Bv",
    "wof:parent_id":85797823,
    "wof:placetype":"venue",
    "wof:superseded_by":[],
    "wof:supersedes":[],
    "wof:tags":[]
},
  "bbox": [6.214372,52.24052,6.214372,52.24052],
  "geometry": {"coordinates":[6.214372,52.24052],"type":"Point"}
}