{
  "id": 186614033,
  "type": "Feature",
  "properties": {
    "edtf:cessation":"u",
    "edtf:inception":"u",
    "geom:area":0.0,
    "geom:bbox":"5.727661,51.906296,5.727661,51.906296",
    "geom:latitude":51.906296,
    "geom:longitude":5.727661,
    "iso:country":"NL",
    "sg:address":"Kerkstr 5",
    "sg:city":"Andelst",
    "sg:classifiers":[],
    "sg:orig_category":"Verenigingsgebouwen",
    "sg:owner":"simplegeo",
    "sg:phone":"+31 488 453 913",
    "sg:postcode":"6673 BM",
    "sg:province":"Gelderland",
    "src:geom":"simplegeo",
    "wof:belongsto":[
        85633337,
        101808581,
        85687043
    ],
    "wof:breaches":[],
    "wof:concordances":{
        "sg:id":"SG_6hXZf9eFSqDuQKJMNDotIa_51.906296_5.727661@1306269914"
    },
    "wof:country":"NL",
    "wof:geomhash":"529510e9adf3a4face4e8d784f76e8b9",
    "wof:hierarchy":[
        {
            "continent_id":-1,
            "country_id":85633337,
            "locality_id":101808581,
            "neighbourhood_id":-1,
            "region_id":85687043,
            "venue_id":186614033
        }
    ],
    "wof:id":186614033,
    "wof:lastmodified":1449053093,
    "wof:name":"Poort, De",
    "wof:parent_id":-1,
    "wof:placetype":"venue",
    "wof:superseded_by":[],
    "wof:supersedes":[],
    "wof:tags":[]
},
  "bbox": [5.727661,51.906296,5.727661,51.906296],
  "geometry": {"coordinates":[5.727661,51.906296],"type":"Point"}
}