{
  "id": 320081735,
  "type": "Feature",
  "properties": {
    "edtf:cessation":"u",
    "edtf:inception":"u",
    "geom:area":0.0,
    "geom:bbox":"4.877052,51.697369,4.877052,51.697369",
    "geom:latitude":51.697369,
    "geom:longitude":4.877052,
    "iso:country":"NL",
    "sg:address":"Pr Hendrikstr 48",
    "sg:city":"Raamsdonksveer",
    "sg:classifiers":[
        {
            "category":"Retail",
            "subcategory":"Auto Repair",
            "type":"Services"
        }
    ],
    "sg:owner":"simplegeo",
    "sg:phone":"+31 162 521 903",
    "sg:postcode":"4941 JV",
    "sg:province":"Noord-Brabant",
    "sg:tags":[
        "garage"
    ],
    "src:geom":"simplegeo",
    "wof:belongsto":[
        85797897,
        85633337,
        85687035
    ],
    "wof:breaches":[],
    "wof:concordances":{
        "sg:id":"SG_0gGgVELwvipYnHu986rPwr_51.697369_4.877052@1306269994"
    },
    "wof:country":"NL",
    "wof:geomhash":"25d68561c8bb1f9b65c7459ad8e8d45a",
    "wof:hierarchy":[
        {
            "continent_id":-1,
            "country_id":85633337,
            "locality_id":-1,
            "neighbourhood_id":85797897,
            "region_id":85687035,
            "venue_id":320081735
        }
    ],
    "wof:id":320081735,
    "wof:lastmodified":1449012431,
    "wof:name":"Kaay, G Van Der",
    "wof:parent_id":85797897,
    "wof:placetype":"venue",
    "wof:superseded_by":[],
    "wof:supersedes":[],
    "wof:tags":[
        "garage"
    ]
},
  "bbox": [4.877052,51.697369,4.877052,51.697369],
  "geometry": {"coordinates":[4.877052,51.697369],"type":"Point"}
}