{
  "id": 320806385,
  "type": "Feature",
  "properties": {
    "edtf:cessation":"u",
    "edtf:inception":"u",
    "geom:area":0.0,
    "geom:bbox":"6.007822,53.324539,6.007822,53.324539",
    "geom:latitude":53.324539,
    "geom:longitude":6.007822,
    "iso:country":"NL",
    "sg:address":"Hogedijken 27",
    "sg:city":"Dokkum",
    "sg:classifiers":[],
    "sg:orig_category":"Jachthavens - Jachtwerven",
    "sg:owner":"simplegeo",
    "sg:phone":"+31 519 293 716",
    "sg:postcode":"9101 WV",
    "sg:province":"Provincie Friesland",
    "src:geom":"simplegeo",
    "wof:belongsto":[
        85633337,
        101806131,
        85687055
    ],
    "wof:breaches":[],
    "wof:concordances":{
        "sg:id":"SG_7I00EddyXlHfbOEgquOGFU_53.324539_6.007822@1306270002"
    },
    "wof:country":"NL",
    "wof:geomhash":"ff46a79912cd9c5511442824aa7d84f6",
    "wof:hierarchy":[
        {
            "continent_id":-1,
            "country_id":85633337,
            "locality_id":101806131,
            "neighbourhood_id":-1,
            "region_id":85687055,
            "venue_id":320806385
        }
    ],
    "wof:id":320806385,
    "wof:lastmodified":1449011252,
    "wof:name":"Zwaag, F Van Der",
    "wof:parent_id":-1,
    "wof:placetype":"venue",
    "wof:superseded_by":[],
    "wof:supersedes":[],
    "wof:tags":[]
},
  "bbox": [6.007822,53.324539,6.007822,53.324539],
  "geometry": {"coordinates":[6.007822,53.324539],"type":"Point"}
}