{
  "id": 236404685,
  "type": "Feature",
  "properties": {
    "edtf:cessation":"u",
    "edtf:inception":"u",
    "geom:area":0.0,
    "geom:bbox":"26.379141,56.063648,26.379141,56.063648",
    "geom:latitude":56.063648,
    "geom:longitude":26.379141,
    "iso:country":"NL",
    "sg:address":"Basalt 3",
    "sg:city":"Langenboom",
    "sg:classifiers":[],
    "sg:orig_category":"Artiesten/Gezelschappen",
    "sg:owner":"simplegeo",
    "sg:phone":"+31 413 296 095",
    "sg:postcode":"5453 LV",
    "sg:province":"Noord-Brabant",
    "src:geom":"simplegeo",
    "wof:belongsto":[
        85633279,
        85685825
    ],
    "wof:breaches":[],
    "wof:concordances":{
        "sg:id":"SG_7PKpcd2LdOY3WnuErskfsT_56.063648_26.379141@1306269937"
    },
    "wof:country":"NL",
    "wof:geomhash":"24523bbc348ac30d6c5130044b740684",
    "wof:hierarchy":[
        {
            "continent_id":-1,
            "country_id":85633279,
            "locality_id":-1,
            "neighbourhood_id":-1,
            "region_id":85685825,
            "venue_id":236404685
        }
    ],
    "wof:id":236404685,
    "wof:lastmodified":1449003923,
    "wof:name":"Samsam",
    "wof:parent_id":-1,
    "wof:placetype":"venue",
    "wof:superseded_by":[],
    "wof:supersedes":[],
    "wof:tags":[]
},
  "bbox": [26.379141,56.063648,26.379141,56.063648],
  "geometry": {"coordinates":[26.379141,56.063648],"type":"Point"}
}