{
  "id": 336766935,
  "type": "Feature",
  "properties": {
    "edtf:cessation":"u",
    "edtf:inception":"u",
    "geom:area":0.0,
    "geom:bbox":"6.107627,52.540398,6.107627,52.540398",
    "geom:latitude":52.540398,
    "geom:longitude":6.107627,
    "iso:country":"NL",
    "sg:address":"Vordensebeek 39",
    "sg:city":"Zwolle",
    "sg:classifiers":[],
    "sg:orig_category":"Acupunctuur",
    "sg:owner":"simplegeo",
    "sg:phone":"+31 38 454 5633",
    "sg:postcode":"8033 DD",
    "sg:province":"NL.08",
    "src:geom":"simplegeo",
    "wof:belongsto":[
        85797041,
        85633337,
        85687045
    ],
    "wof:breaches":[],
    "wof:concordances":{
        "sg:id":"SG_2WxqLizVabrM9jEhVVlm8a_52.540398_6.107627@1306270005"
    },
    "wof:country":"NL",
    "wof:geomhash":"c910225bb7c9f615f88c89d8e7475a2b",
    "wof:hierarchy":[
        {
            "continent_id":-1,
            "country_id":85633337,
            "locality_id":-1,
            "neighbourhood_id":85797041,
            "region_id":85687045,
            "venue_id":336766935
        }
    ],
    "wof:id":336766935,
    "wof:lastmodified":1448996908,
    "wof:name":"Ree, R J",
    "wof:parent_id":85797041,
    "wof:placetype":"venue",
    "wof:superseded_by":[],
    "wof:supersedes":[],
    "wof:tags":[]
},
  "bbox": [6.107627,52.540398,6.107627,52.540398],
  "geometry": {"coordinates":[6.107627,52.540398],"type":"Point"}
}