{
  "id": 219936697,
  "type": "Feature",
  "properties": {
    "edtf:cessation":"u",
    "edtf:inception":"u",
    "geom:area":0.0,
    "geom:bbox":"4.92752,51.59277,4.92752,51.59277",
    "geom:latitude":51.59277,
    "geom:longitude":4.92752,
    "iso:country":"NL",
    "sg:address":"Dundelbroek 9",
    "sg:city":"Ryen",
    "sg:classifiers":[],
    "sg:orig_category":"Adviesbureaus Bedrijfsorganisatie",
    "sg:owner":"simplegeo",
    "sg:phone":"+31 161 223 666",
    "sg:postcode":"5122 HW",
    "sg:province":"Noord-Brabant",
    "src:geom":"simplegeo",
    "wof:belongsto":[
        85633337,
        101839413,
        85687035
    ],
    "wof:breaches":[],
    "wof:concordances":{
        "sg:id":"SG_3MllxfaxNMFjlGrU9HOfwL_51.592770_4.927520@1306269930"
    },
    "wof:country":"NL",
    "wof:geomhash":"09b2d8298480a24b15aab5d8e307b833",
    "wof:hierarchy":[
        {
            "continent_id":-1,
            "country_id":85633337,
            "locality_id":101839413,
            "neighbourhood_id":-1,
            "region_id":85687035,
            "venue_id":219936697
        }
    ],
    "wof:id":219936697,
    "wof:lastmodified":1449071572,
    "wof:name":"Verhoeff Bv",
    "wof:parent_id":-1,
    "wof:placetype":"venue",
    "wof:superseded_by":[],
    "wof:supersedes":[],
    "wof:tags":[]
},
  "bbox": [4.92752,51.59277,4.92752,51.59277],
  "geometry": {"coordinates":[4.92752,51.59277],"type":"Point"}
}