{
  "id": 236793995,
  "type": "Feature",
  "properties": {
    "edtf:cessation":"u",
    "edtf:inception":"u",
    "geom:area":0.0,
    "geom:bbox":"5.956107,50.915157,5.956107,50.915157",
    "geom:latitude":50.915157,
    "geom:longitude":5.956107,
    "iso:country":"NL",
    "sg:address":"Lokerstr 16",
    "sg:city":"Heerlen",
    "sg:classifiers":[],
    "sg:orig_category":"Autorijscholen",
    "sg:owner":"simplegeo",
    "sg:phone":"+31 45 521 4217",
    "sg:postcode":"6413 EN",
    "sg:province":"Limburg",
    "src:geom":"simplegeo",
    "wof:belongsto":[
        85797635,
        85633337,
        101839247,
        85687033
    ],
    "wof:breaches":[],
    "wof:concordances":{
        "sg:id":"SG_5yncwYJc4mfsmL0Rc6dgxR_50.915157_5.956107@1306269941"
    },
    "wof:country":"NL",
    "wof:geomhash":"a0d11a98baa5d922804df8bf4e556b2d",
    "wof:hierarchy":[
        {
            "continent_id":-1,
            "country_id":85633337,
            "locality_id":101839247,
            "neighbourhood_id":85797635,
            "region_id":85687033,
            "venue_id":236793995
        }
    ],
    "wof:id":236793995,
    "wof:lastmodified":1449003476,
    "wof:name":"Lindelauf, P M J G",
    "wof:parent_id":85797635,
    "wof:placetype":"venue",
    "wof:superseded_by":[],
    "wof:supersedes":[],
    "wof:tags":[]
},
  "bbox": [5.956107,50.915157,5.956107,50.915157],
  "geometry": {"coordinates":[5.956107,50.915157],"type":"Point"}
}