{
  "id": 169794223,
  "type": "Feature",
  "properties": {
    "edtf:cessation":"u",
    "edtf:inception":"u",
    "geom:area":0.0,
    "geom:bbox":"4.636191,52.263775,4.636191,52.263775",
    "geom:latitude":52.263775,
    "geom:longitude":4.636191,
    "iso:country":"NL",
    "sg:address":"Rustoordstr 1",
    "sg:city":"Nieuw Vennep",
    "sg:classifiers":[],
    "sg:orig_category":"Kappers",
    "sg:owner":"simplegeo",
    "sg:phone":"+31 252 686 280",
    "sg:postcode":"2153 AG",
    "sg:province":"North Holland",
    "src:geom":"simplegeo",
    "wof:belongsto":[
        85797085,
        85633337,
        85687053
    ],
    "wof:breaches":[],
    "wof:concordances":{
        "sg:id":"SG_6Zt3VP5PxXJy2rYvhMwey3_52.263775_4.636191@1306269905"
    },
    "wof:country":"NL",
    "wof:geomhash":"143db6acc5c476c6ec742a38af232f23",
    "wof:hierarchy":[
        {
            "continent_id":-1,
            "country_id":85633337,
            "locality_id":-1,
            "neighbourhood_id":85797085,
            "region_id":85687053,
            "venue_id":169794223
        }
    ],
    "wof:id":169794223,
    "wof:lastmodified":1449034266,
    "wof:name":"New Hairfashion",
    "wof:parent_id":85797085,
    "wof:placetype":"venue",
    "wof:superseded_by":[],
    "wof:supersedes":[],
    "wof:tags":[]
},
  "bbox": [4.636191,52.263775,4.636191,52.263775],
  "geometry": {"coordinates":[4.636191,52.263775],"type":"Point"}
}