{
  "id": 319818829,
  "type": "Feature",
  "properties": {
    "edtf:cessation":"u",
    "edtf:inception":"u",
    "geom:area":0.0,
    "geom:bbox":"5.33527,51.910694,5.33527,51.910694",
    "geom:latitude":51.910694,
    "geom:longitude":5.33527,
    "iso:country":"NL",
    "sg:address":"Peperstr 25",
    "sg:city":"Buren Gld",
    "sg:classifiers":[
        {
            "category":"Travel",
            "subcategory":"Hotels & Motels",
            "type":"Entertainment"
        }
    ],
    "sg:owner":"simplegeo",
    "sg:phone":"+31 344 571 261",
    "sg:postcode":"4116 BG",
    "sg:province":"Gelderland",
    "src:geom":"simplegeo",
    "wof:belongsto":[
        85633337,
        101808615,
        85687043
    ],
    "wof:breaches":[],
    "wof:concordances":{
        "sg:id":"SG_3EQGBbpbZcJB4iE1Lpewub_51.910694_5.335270@1306269991"
    },
    "wof:country":"NL",
    "wof:geomhash":"fd5548dedf1011609a4800f4b3b5acf5",
    "wof:hierarchy":[
        {
            "continent_id":-1,
            "country_id":85633337,
            "locality_id":101808615,
            "neighbourhood_id":-1,
            "region_id":85687043,
            "venue_id":319818829
        }
    ],
    "wof:id":319818829,
    "wof:lastmodified":1449024462,
    "wof:name":"Prins, De",
    "wof:parent_id":-1,
    "wof:placetype":"venue",
    "wof:superseded_by":[],
    "wof:supersedes":[],
    "wof:tags":[]
},
  "bbox": [5.33527,51.910694,5.33527,51.910694],
  "geometry": {"coordinates":[5.33527,51.910694],"type":"Point"}
}