{
  "id": 286709449,
  "type": "Feature",
  "properties": {
    "edtf:cessation":"u",
    "edtf:inception":"u",
    "geom:area":0.0,
    "geom:bbox":"4.852429,52.402142,4.852429,52.402142",
    "geom:latitude":52.402142,
    "geom:longitude":4.852429,
    "iso:country":"NL",
    "sg:address":"Vlothavenwg 10",
    "sg:city":"Amsterdam",
    "sg:classifiers":[],
    "sg:orig_category":"Bevrachting",
    "sg:owner":"simplegeo",
    "sg:phone":"+31 20 686 7041",
    "sg:postcode":"1013 BJ",
    "sg:province":"Noord-Holland",
    "src:geom":"simplegeo",
    "wof:belongsto":[
        85797161,
        85633337,
        101751893,
        85687053
    ],
    "wof:breaches":[],
    "wof:concordances":{
        "sg:id":"SG_0FJG5N6mvuYXCwyBg6F7J6_52.402142_4.852429@1306269972"
    },
    "wof:country":"NL",
    "wof:geomhash":"cd0df6bd0cb6123db7d293ef02d54131",
    "wof:hierarchy":[
        {
            "continent_id":-1,
            "country_id":85633337,
            "locality_id":101751893,
            "neighbourhood_id":85797161,
            "region_id":85687053,
            "venue_id":286709449
        }
    ],
    "wof:id":286709449,
    "wof:lastmodified":1449015752,
    "wof:name":"Stoffers Bv, H",
    "wof:parent_id":85797161,
    "wof:placetype":"venue",
    "wof:superseded_by":[],
    "wof:supersedes":[],
    "wof:tags":[]
},
  "bbox": [4.852429,52.402142,4.852429,52.402142],
  "geometry": {"coordinates":[4.852429,52.402142],"type":"Point"}
}