{
  "id": 202627517,
  "type": "Feature",
  "properties": {
    "edtf:cessation":"u",
    "edtf:inception":"u",
    "geom:area":0.0,
    "geom:bbox":"4.383635,52.089973,4.383635,52.089973",
    "geom:latitude":52.089973,
    "geom:longitude":4.383635,
    "iso:country":"NL",
    "sg:address":"Eglantierhof 16",
    "sg:city":"Leidschendam",
    "sg:classifiers":[],
    "sg:orig_category":"Verlichting And Huishoudartikelen",
    "sg:owner":"simplegeo",
    "sg:phone":"+31 70 320 1052",
    "sg:postcode":"2262 AS",
    "sg:province":"South Holland",
    "src:geom":"simplegeo",
    "wof:belongsto":[
        85859679,
        85633337,
        101754679,
        85687041
    ],
    "wof:breaches":[],
    "wof:concordances":{
        "sg:id":"SG_4E20hYNN33TLMdquwS1f8B_52.089973_4.383635@1306269916"
    },
    "wof:country":"NL",
    "wof:geomhash":"554126252b88cb018813181fc1b193fd",
    "wof:hierarchy":[
        {
            "continent_id":-1,
            "country_id":85633337,
            "locality_id":101754679,
            "neighbourhood_id":85859679,
            "region_id":85687041,
            "venue_id":202627517
        }
    ],
    "wof:id":202627517,
    "wof:lastmodified":1449062719,
    "wof:name":"Marskramer Bv",
    "wof:parent_id":85859679,
    "wof:placetype":"venue",
    "wof:superseded_by":[],
    "wof:supersedes":[],
    "wof:tags":[]
},
  "bbox": [4.383635,52.089973,4.383635,52.089973],
  "geometry": {"coordinates":[4.383635,52.089973],"type":"Point"}
}