{
  "id": 185633587,
  "type": "Feature",
  "properties": {
    "edtf:cessation":"u",
    "edtf:inception":"u",
    "geom:area":0.0,
    "geom:bbox":"4.54727,51.750832,4.54727,51.750832",
    "geom:latitude":51.750832,
    "geom:longitude":4.54727,
    "iso:country":"NL",
    "sg:address":"Kerkstr 37",
    "sg:city":"Stryen",
    "sg:classifiers":[],
    "sg:orig_category":"Kappers",
    "sg:owner":"simplegeo",
    "sg:phone":"+31 78 674 5055",
    "sg:postcode":"3291 AJ",
    "sg:province":"South Holland",
    "src:geom":"simplegeo",
    "wof:belongsto":[
        85633337,
        85687041
    ],
    "wof:breaches":[],
    "wof:concordances":{
        "sg:id":"SG_2zqGX5Mrp2wj8wtHe1ZDjZ_51.750832_4.547270@1306269906"
    },
    "wof:country":"NL",
    "wof:geomhash":"379f6e2e0e69e5fcd5c4498d0228e3e3",
    "wof:hierarchy":[
        {
            "continent_id":-1,
            "country_id":85633337,
            "locality_id":-1,
            "neighbourhood_id":-1,
            "region_id":85687041,
            "venue_id":185633587
        }
    ],
    "wof:id":185633587,
    "wof:lastmodified":1449008185,
    "wof:name":"Villevoije, Kapsalon",
    "wof:parent_id":-1,
    "wof:placetype":"venue",
    "wof:superseded_by":[],
    "wof:supersedes":[],
    "wof:tags":[]
},
  "bbox": [4.54727,51.750832,4.54727,51.750832],
  "geometry": {"coordinates":[4.54727,51.750832],"type":"Point"}
}