{
  "id": 203126539,
  "type": "Feature",
  "properties": {
    "edtf:cessation":"u",
    "edtf:inception":"u",
    "geom:area":0.0,
    "geom:bbox":"5.561666,51.959461,5.561666,51.959461",
    "geom:latitude":51.959461,
    "geom:longitude":5.561666,
    "iso:country":"NL",
    "sg:address":"Spitsbergerpad 26",
    "sg:city":"Rhenen",
    "sg:classifiers":[],
    "sg:orig_category":"Verzekeringen",
    "sg:owner":"simplegeo",
    "sg:phone":"+31 317 620 128",
    "sg:postcode":"3911 NH",
    "sg:province":"Utrecht",
    "src:geom":"simplegeo",
    "wof:belongsto":[
        85633337,
        101809835,
        85687039
    ],
    "wof:breaches":[],
    "wof:concordances":{
        "sg:id":"SG_1Wddxev8epDxaz1X8VV88N_51.959461_5.561666@1306269921"
    },
    "wof:country":"NL",
    "wof:geomhash":"3eafb790a5b628f8ba980af52ff3dab4",
    "wof:hierarchy":[
        {
            "continent_id":-1,
            "country_id":85633337,
            "locality_id":101809835,
            "neighbourhood_id":-1,
            "region_id":85687039,
            "venue_id":203126539
        }
    ],
    "wof:id":203126539,
    "wof:lastmodified":1449025619,
    "wof:name":"De Spaarbelegger",
    "wof:parent_id":-1,
    "wof:placetype":"venue",
    "wof:superseded_by":[],
    "wof:supersedes":[],
    "wof:tags":[]
},
  "bbox": [5.561666,51.959461,5.561666,51.959461],
  "geometry": {"coordinates":[5.561666,51.959461],"type":"Point"}
}