{
  "id": 169750777,
  "type": "Feature",
  "properties": {
    "edtf:cessation":"u",
    "edtf:inception":"u",
    "geom:area":0.0,
    "geom:bbox":"5.487749,51.434223,5.487749,51.434223",
    "geom:latitude":51.434223,
    "geom:longitude":5.487749,
    "iso:country":"NL",
    "sg:address":"Geldropsewg 53",
    "sg:city":"Eindhoven",
    "sg:classifiers":[],
    "sg:orig_category":"Kappers",
    "sg:owner":"simplegeo",
    "sg:phone":"+31 40 213 8138",
    "sg:postcode":"5611 SC",
    "sg:province":"North Brabant",
    "src:geom":"simplegeo",
    "wof:belongsto":[
        85798505,
        85633337,
        85687035
    ],
    "wof:breaches":[],
    "wof:concordances":{
        "sg:id":"SG_3kqx27mWkdMpfoO1xUXRFb_51.434223_5.487749@1306269905"
    },
    "wof:country":"NL",
    "wof:geomhash":"defc530b451b5f6d524fcd41da1c5f16",
    "wof:hierarchy":[
        {
            "continent_id":-1,
            "country_id":85633337,
            "locality_id":-1,
            "neighbourhood_id":85798505,
            "region_id":85687035,
            "venue_id":169750777
        }
    ],
    "wof:id":169750777,
    "wof:lastmodified":1449034674,
    "wof:name":"Marcel",
    "wof:parent_id":85798505,
    "wof:placetype":"venue",
    "wof:superseded_by":[],
    "wof:supersedes":[],
    "wof:tags":[]
},
  "bbox": [5.487749,51.434223,5.487749,51.434223],
  "geometry": {"coordinates":[5.487749,51.434223],"type":"Point"}
}