{
  "id": 219916329,
  "type": "Feature",
  "properties": {
    "edtf:cessation":"u",
    "edtf:inception":"u",
    "geom:area":0.0,
    "geom:bbox":"4.633389,52.37722,4.633389,52.37722",
    "geom:latitude":52.37722,
    "geom:longitude":4.633389,
    "iso:country":"NL",
    "sg:address":"Ravelingstg 7",
    "sg:city":"Haarlem",
    "sg:classifiers":[],
    "sg:orig_category":"Adviesbureaus Bedrijfsorganisatie",
    "sg:owner":"simplegeo",
    "sg:phone":"+31 23 532 8520",
    "sg:postcode":"2011 EL",
    "sg:province":"Noord-Holland",
    "src:geom":"simplegeo",
    "wof:belongsto":[
        85797103,
        85633337,
        101754813,
        85687053
    ],
    "wof:breaches":[],
    "wof:concordances":{
        "sg:id":"SG_1pYgJPODPSDbKP4k9u4B8S_52.377220_4.633389@1306269930"
    },
    "wof:country":"NL",
    "wof:geomhash":"5b379b80ed92991b743180ff7fb66e73",
    "wof:hierarchy":[
        {
            "continent_id":-1,
            "country_id":85633337,
            "locality_id":101754813,
            "neighbourhood_id":85797103,
            "region_id":85687053,
            "venue_id":219916329
        }
    ],
    "wof:id":219916329,
    "wof:lastmodified":1449072307,
    "wof:name":"Queste",
    "wof:parent_id":85797103,
    "wof:placetype":"venue",
    "wof:superseded_by":[],
    "wof:supersedes":[],
    "wof:tags":[]
},
  "bbox": [4.633389,52.37722,4.633389,52.37722],
  "geometry": {"coordinates":[4.633389,52.37722],"type":"Point"}
}