{
  "id": 253529723,
  "type": "Feature",
  "properties": {
    "edtf:cessation":"u",
    "edtf:inception":"u",
    "geom:area":0.0,
    "geom:bbox":"5.092188,52.095459,5.092188,52.095459",
    "geom:latitude":52.095459,
    "geom:longitude":5.092188,
    "iso:country":"NL",
    "sg:address":"Heijermansstraat 20",
    "sg:city":"Utrecht",
    "sg:classifiers":[],
    "sg:orig_category":"Partycatering And -Organisatie",
    "sg:owner":"simplegeo",
    "sg:phone":"+31 30 293 3931",
    "sg:postcode":"3532 EH",
    "sg:province":"Utrecht",
    "src:geom":"simplegeo",
    "wof:belongsto":[
        85797951,
        85633337,
        101751827,
        85687039
    ],
    "wof:breaches":[],
    "wof:concordances":{
        "sg:id":"SG_7PUElTIHyQAZBVBQxYgyTo_52.095459_5.092188@1306269950"
    },
    "wof:country":"NL",
    "wof:geomhash":"5f0151cd6812825d7e2d9c26979154e3",
    "wof:hierarchy":[
        {
            "continent_id":-1,
            "country_id":85633337,
            "locality_id":101751827,
            "neighbourhood_id":85797951,
            "region_id":85687039,
            "venue_id":253529723
        }
    ],
    "wof:id":253529723,
    "wof:lastmodified":1449064117,
    "wof:name":"De Thuiskok",
    "wof:parent_id":85797951,
    "wof:placetype":"venue",
    "wof:superseded_by":[],
    "wof:supersedes":[],
    "wof:tags":[]
},
  "bbox": [5.092188,52.095459,5.092188,52.095459],
  "geometry": {"coordinates":[5.092188,52.095459],"type":"Point"}
}