{
  "id": 320056687,
  "type": "Feature",
  "properties": {
    "edtf:cessation":"u",
    "edtf:inception":"u",
    "geom:area":0.0,
    "geom:bbox":"6.268369,51.974586,6.268369,51.974586",
    "geom:latitude":51.974586,
    "geom:longitude":6.268369,
    "iso:country":"NL",
    "sg:address":"Plakhorstwg 8",
    "sg:city":"Doetinchem",
    "sg:classifiers":[
        {
            "category":"Retail",
            "subcategory":"Auto Repair",
            "type":"Services"
        }
    ],
    "sg:owner":"simplegeo",
    "sg:phone":"+31 314 332 851",
    "sg:postcode":"7008 AT",
    "sg:province":"Gelderland",
    "sg:tags":[
        "garage"
    ],
    "sg:website":"http://www.brandon.nl",
    "src:geom":"simplegeo",
    "wof:belongsto":[
        85797743,
        85633337,
        101808663,
        85687043
    ],
    "wof:breaches":[],
    "wof:concordances":{
        "sg:id":"SG_2mj1gHY1AKO9mxxnrgBZJH_51.974586_6.268369@1306269994"
    },
    "wof:country":"NL",
    "wof:geomhash":"86cbccf8c1cb1021525d263d79b43fc7",
    "wof:hierarchy":[
        {
            "continent_id":-1,
            "country_id":85633337,
            "locality_id":101808663,
            "neighbourhood_id":85797743,
            "region_id":85687043,
            "venue_id":320056687
        }
    ],
    "wof:id":320056687,
    "wof:lastmodified":1449012332,
    "wof:name":"Brandon Doetinchem Bv",
    "wof:parent_id":85797743,
    "wof:placetype":"venue",
    "wof:superseded_by":[],
    "wof:supersedes":[],
    "wof:tags":[
        "garage"
    ]
},
  "bbox": [6.268369,51.974586,6.268369,51.974586],
  "geometry": {"coordinates":[6.268369,51.974586],"type":"Point"}
}