{
  "id": 320322311,
  "type": "Feature",
  "properties": {
    "edtf:cessation":"u",
    "edtf:inception":"u",
    "geom:area":0.0,
    "geom:bbox":"3.479783,51.31982,3.479783,51.31982",
    "geom:latitude":51.31982,
    "geom:longitude":3.479783,
    "iso:country":"NL",
    "sg:address":"Nieuwstraat 76",
    "sg:city":"Oostburg",
    "sg:classifiers":[],
    "sg:orig_category":"Goederenvervoer Over De Weg",
    "sg:owner":"simplegeo",
    "sg:phone":"+31 117 455 375",
    "sg:postcode":"4501 ND",
    "sg:province":"Zeeland",
    "src:geom":"simplegeo",
    "wof:belongsto":[
        85633337,
        85687037
    ],
    "wof:breaches":[],
    "wof:concordances":{
        "sg:id":"SG_2zmuXza1xGJBS5s0WvBHKq_51.319820_3.479783@1306269997"
    },
    "wof:country":"NL",
    "wof:geomhash":"3debcde596f3564a575c7941900556ad",
    "wof:hierarchy":[
        {
            "continent_id":-1,
            "country_id":85633337,
            "locality_id":-1,
            "neighbourhood_id":-1,
            "region_id":85687037,
            "venue_id":320322311
        }
    ],
    "wof:id":320322311,
    "wof:lastmodified":1449011219,
    "wof:name":"E.F. Van Hal",
    "wof:parent_id":-1,
    "wof:placetype":"venue",
    "wof:superseded_by":[],
    "wof:supersedes":[],
    "wof:tags":[]
},
  "bbox": [3.479783,51.31982,3.479783,51.31982],
  "geometry": {"coordinates":[3.479783,51.31982],"type":"Point"}
}