{
  "id": 320132129,
  "type": "Feature",
  "properties": {
    "edtf:cessation":"u",
    "edtf:inception":"u",
    "geom:area":0.0,
    "geom:bbox":"5.073145,51.553555,5.073145,51.553555",
    "geom:latitude":51.553555,
    "geom:longitude":5.073145,
    "iso:country":"NL",
    "sg:address":"Hooistraat 12",
    "sg:city":"Tilburg",
    "sg:classifiers":[],
    "sg:orig_category":"Gebouwenafwerking, Renovaties And Reiniging",
    "sg:owner":"simplegeo",
    "sg:phone":"+31 6 22098123",
    "sg:postcode":"5025 KE",
    "sg:province":"North Brabant",
    "src:geom":"simplegeo",
    "wof:belongsto":[
        85797843,
        85633337,
        101751817,
        85687035
    ],
    "wof:breaches":[],
    "wof:concordances":{
        "sg:id":"SG_4wvpbPvfyZ2xbXys3laIPx_51.553555_5.073145@1306269995"
    },
    "wof:country":"NL",
    "wof:geomhash":"04d41279d6e70f49e279b1a7b4a62055",
    "wof:hierarchy":[
        {
            "continent_id":-1,
            "country_id":85633337,
            "locality_id":101751817,
            "neighbourhood_id":85797843,
            "region_id":85687035,
            "venue_id":320132129
        }
    ],
    "wof:id":320132129,
    "wof:lastmodified":1449013090,
    "wof:name":"Vto Klussenbedrijf",
    "wof:parent_id":85797843,
    "wof:placetype":"venue",
    "wof:superseded_by":[],
    "wof:supersedes":[],
    "wof:tags":[]
},
  "bbox": [5.073145,51.553555,5.073145,51.553555],
  "geometry": {"coordinates":[5.073145,51.553555],"type":"Point"}
}