{
  "id": 320410877,
  "type": "Feature",
  "properties": {
    "edtf:cessation":"u",
    "edtf:inception":"u",
    "geom:area":0.0,
    "geom:bbox":"5.138082,52.194759,5.138082,52.194759",
    "geom:latitude":52.194759,
    "geom:longitude":5.138082,
    "iso:country":"NL",
    "sg:address":"Vrijheid 30",
    "sg:city":"Loosdrecht",
    "sg:classifiers":[],
    "sg:orig_category":"Goederenvervoer Over De Weg",
    "sg:owner":"simplegeo",
    "sg:phone":"+31 35 582 3472",
    "sg:postcode":"1231 TN",
    "sg:province":"Noord-Holland",
    "src:geom":"simplegeo",
    "wof:belongsto":[
        85797793,
        85633337,
        85687053
    ],
    "wof:breaches":[],
    "wof:concordances":{
        "sg:id":"SG_0rdBfhvU7OgNfbadQQlJzS_52.194759_5.138082@1306269998"
    },
    "wof:country":"NL",
    "wof:geomhash":"cd2a2cb569a0453fa4f28349b44b8ff0",
    "wof:hierarchy":[
        {
            "continent_id":-1,
            "country_id":85633337,
            "locality_id":-1,
            "neighbourhood_id":85797793,
            "region_id":85687053,
            "venue_id":320410877
        }
    ],
    "wof:id":320410877,
    "wof:lastmodified":1449011309,
    "wof:name":"Van Wensveen Veetransport",
    "wof:parent_id":85797793,
    "wof:placetype":"venue",
    "wof:superseded_by":[],
    "wof:supersedes":[],
    "wof:tags":[]
},
  "bbox": [5.138082,52.194759,5.138082,52.194759],
  "geometry": {"coordinates":[5.138082,52.194759],"type":"Point"}
}