{
  "id": 169788917,
  "type": "Feature",
  "properties": {
    "edtf:cessation":"u",
    "edtf:inception":"u",
    "geom:area":0.0,
    "geom:bbox":"4.740084,52.890656,4.740084,52.890656",
    "geom:latitude":52.890656,
    "geom:longitude":4.740084,
    "iso:country":"NL",
    "sg:address":"Kruiszwin 1250",
    "sg:city":"Den Helder",
    "sg:classifiers":[],
    "sg:orig_category":"Kappers",
    "sg:owner":"simplegeo",
    "sg:phone":"+31 223 643 016",
    "sg:postcode":"1788 LG",
    "sg:province":"Noord-Holland",
    "src:geom":"simplegeo",
    "wof:belongsto":[
        85633337,
        101806077,
        85687053
    ],
    "wof:breaches":[],
    "wof:concordances":{
        "sg:id":"SG_631b7bM2Y2IJGuUQgIyfsI_52.890656_4.740084@1306269905"
    },
    "wof:country":"NL",
    "wof:geomhash":"7a9a9b003eeaa76c584799f87b5ae9be",
    "wof:hierarchy":[
        {
            "continent_id":-1,
            "country_id":85633337,
            "locality_id":101806077,
            "neighbourhood_id":-1,
            "region_id":85687053,
            "venue_id":169788917
        }
    ],
    "wof:id":169788917,
    "wof:lastmodified":1449034384,
    "wof:name":"Mw K Jagt - Schilp",
    "wof:parent_id":-1,
    "wof:placetype":"venue",
    "wof:superseded_by":[],
    "wof:supersedes":[],
    "wof:tags":[]
},
  "bbox": [4.740084,52.890656,4.740084,52.890656],
  "geometry": {"coordinates":[4.740084,52.890656],"type":"Point"}
}