{
  "id": 270469263,
  "type": "Feature",
  "properties": {
    "edtf:cessation":"u",
    "edtf:inception":"u",
    "geom:area":0.0,
    "geom:bbox":"5.604881,52.334705,5.604881,52.334705",
    "geom:latitude":52.334705,
    "geom:longitude":5.604881,
    "iso:country":"NL",
    "sg:address":"Ijsselmeerpad 6",
    "sg:city":"Harderwijk",
    "sg:classifiers":[
        {
            "category":"Education",
            "subcategory":"Preschool",
            "type":"Public Place"
        }
    ],
    "sg:owner":"simplegeo",
    "sg:phone":"+31 341 416 758",
    "sg:postcode":"3844 HT",
    "sg:province":"Gelderland",
    "sg:tags":[
        "kleuteronderwijs",
        "basis-"
    ],
    "src:geom":"simplegeo",
    "wof:belongsto":[
        85798397,
        85633337,
        101837779,
        85687043
    ],
    "wof:breaches":[],
    "wof:concordances":{
        "sg:id":"SG_5iCwbhwdAZYNzkGORdfebE_52.334705_5.604881@1306269966"
    },
    "wof:country":"NL",
    "wof:geomhash":"e5d20eb38a64fba419bbb7b1262a72f4",
    "wof:hierarchy":[
        {
            "continent_id":-1,
            "country_id":85633337,
            "locality_id":101837779,
            "neighbourhood_id":85798397,
            "region_id":85687043,
            "venue_id":270469263
        }
    ],
    "wof:id":270469263,
    "wof:lastmodified":1449011156,
    "wof:name":"Alfons Ariensschool",
    "wof:parent_id":85798397,
    "wof:placetype":"venue",
    "wof:superseded_by":[],
    "wof:supersedes":[],
    "wof:tags":[
        "kleuteronderwijs",
        "basis-"
    ]
},
  "bbox": [5.604881,52.334705,5.604881,52.334705],
  "geometry": {"coordinates":[5.604881,52.334705],"type":"Point"}
}