{
  "id": 202542143,
  "type": "Feature",
  "properties": {
    "edtf:cessation":"u",
    "edtf:inception":"u",
    "geom:area":0.0,
    "geom:bbox":"5.771083,51.860283,5.771083,51.860283",
    "geom:latitude":51.860283,
    "geom:longitude":5.771083,
    "iso:country":"NL",
    "sg:address":"Julianaplein 170",
    "sg:city":"Beuningen Gld",
    "sg:classifiers":[
        {
            "category":"Communications",
            "subcategory":"Television Station",
            "type":"Services"
        }
    ],
    "sg:owner":"simplegeo",
    "sg:phone":"+31 24 677 6070",
    "sg:postcode":"6641 CT",
    "sg:province":"Gelderland",
    "sg:tags":[
        "video",
        "audio",
        "verhuur"
    ],
    "src:geom":"simplegeo",
    "wof:belongsto":[
        85797941,
        85633337,
        101751859,
        85687043
    ],
    "wof:breaches":[],
    "wof:concordances":{
        "sg:id":"SG_61UAFSBjpuNK5ZGhlCuRQQ_51.860283_5.771083@1306269916"
    },
    "wof:country":"NL",
    "wof:geomhash":"1c04483f99b6a6dc1868cb4f3ea2f9d7",
    "wof:hierarchy":[
        {
            "continent_id":-1,
            "country_id":85633337,
            "locality_id":101751859,
            "neighbourhood_id":85797941,
            "region_id":85687043,
            "venue_id":202542143
        }
    ],
    "wof:id":202542143,
    "wof:lastmodified":1449062096,
    "wof:name":"Videotheek Videomarkt",
    "wof:parent_id":85797941,
    "wof:placetype":"venue",
    "wof:superseded_by":[],
    "wof:supersedes":[],
    "wof:tags":[
        "video",
        "audio",
        "verhuur"
    ]
},
  "bbox": [5.771083,51.860283,5.771083,51.860283],
  "geometry": {"coordinates":[5.771083,51.860283],"type":"Point"}
}