{
  "id": 236857555,
  "type": "Feature",
  "properties": {
    "edtf:cessation":"u",
    "edtf:inception":"u",
    "geom:area":0.0,
    "geom:bbox":"5.226114,52.378113,5.226114,52.378113",
    "geom:latitude":52.378113,
    "geom:longitude":5.226114,
    "iso:country":"NL",
    "sg:address":"Randstad 2231",
    "sg:city":"Almere",
    "sg:classifiers":[],
    "sg:orig_category":"Autoschade- Herstelbedrijven",
    "sg:owner":"simplegeo",
    "sg:phone":"+31 36 534 3410",
    "sg:postcode":"1316 BR",
    "sg:province":"NL.",
    "sg:website":"http://www.care-schadeservice.nl",
    "src:geom":"simplegeo",
    "wof:belongsto":[
        85633337,
        101751877,
        85687049
    ],
    "wof:breaches":[],
    "wof:concordances":{
        "sg:id":"SG_43UIdwD4X2Mp6d0IEDR0ks_52.378113_5.226114@1306269941"
    },
    "wof:country":"NL",
    "wof:geomhash":"c1f47997f0a786a852f7a8de50738593",
    "wof:hierarchy":[
        {
            "continent_id":-1,
            "country_id":85633337,
            "locality_id":101751877,
            "neighbourhood_id":-1,
            "region_id":85687049,
            "venue_id":236857555
        }
    ],
    "wof:id":236857555,
    "wof:lastmodified":1449003862,
    "wof:name":"Care Schadeservice Almere Bv",
    "wof:parent_id":-1,
    "wof:placetype":"venue",
    "wof:superseded_by":[],
    "wof:supersedes":[],
    "wof:tags":[]
},
  "bbox": [5.226114,52.378113,5.226114,52.378113],
  "geometry": {"coordinates":[5.226114,52.378113],"type":"Point"}
}