{
  "id": 253186529,
  "type": "Feature",
  "properties": {
    "edtf:cessation":"u",
    "edtf:inception":"u",
    "geom:area":0.0,
    "geom:bbox":"3.611806,51.500656,3.611806,51.500656",
    "geom:latitude":51.500656,
    "geom:longitude":3.611806,
    "iso:country":"NL",
    "sg:address":"Blindenhoek 6",
    "sg:city":"Middelburg",
    "sg:classifiers":[],
    "sg:orig_category":"Meubelreparatie And -Restauratie",
    "sg:owner":"simplegeo",
    "sg:phone":"+31 118 615 985",
    "sg:postcode":"4331 CA",
    "sg:province":"Zeeland",
    "src:geom":"simplegeo",
    "wof:belongsto":[
        85797815,
        85633337,
        85687037
    ],
    "wof:breaches":[],
    "wof:concordances":{
        "sg:id":"SG_1WXIwojTdiW5tiMYjzwHAc_51.500656_3.611806@1306269947"
    },
    "wof:country":"NL",
    "wof:geomhash":"36da7ad31a66715fd106ca2bc9598f10",
    "wof:hierarchy":[
        {
            "continent_id":-1,
            "country_id":85633337,
            "locality_id":-1,
            "neighbourhood_id":85797815,
            "region_id":85687037,
            "venue_id":253186529
        }
    ],
    "wof:id":253186529,
    "wof:lastmodified":1449065115,
    "wof:name":"Antiek Restauratie M.J. Matthijsse",
    "wof:parent_id":85797815,
    "wof:placetype":"venue",
    "wof:superseded_by":[],
    "wof:supersedes":[],
    "wof:tags":[]
},
  "bbox": [3.611806,51.500656,3.611806,51.500656],
  "geometry": {"coordinates":[3.611806,51.500656],"type":"Point"}
}