{
  "id": 219694285,
  "type": "Feature",
  "properties": {
    "edtf:cessation":"u",
    "edtf:inception":"u",
    "geom:area":0.0,
    "geom:bbox":"4.735296,52.634678,4.735296,52.634678",
    "geom:latitude":52.634678,
    "geom:longitude":4.735296,
    "iso:country":"NL",
    "sg:address":"V Leeuwenhoekstr 19",
    "sg:city":"Alkmaar",
    "sg:classifiers":[],
    "sg:orig_category":"Administratie- En Boekhoudkantoren",
    "sg:owner":"simplegeo",
    "sg:phone":"+31 72 515 0936",
    "sg:postcode":"1815 VP",
    "sg:province":"Noord-Holland",
    "src:geom":"simplegeo",
    "wof:belongsto":[
        85797325,
        85633337,
        85687053
    ],
    "wof:breaches":[],
    "wof:concordances":{
        "sg:id":"SG_6TP5yq8em6m7mKrzTlBG4k_52.634678_4.735296@1306269928"
    },
    "wof:country":"NL",
    "wof:geomhash":"ab44ade658074e00803bf2a73f111e39",
    "wof:hierarchy":[
        {
            "continent_id":-1,
            "country_id":85633337,
            "locality_id":-1,
            "neighbourhood_id":85797325,
            "region_id":85687053,
            "venue_id":219694285
        }
    ],
    "wof:id":219694285,
    "wof:lastmodified":1449071397,
    "wof:name":"Nbi",
    "wof:parent_id":85797325,
    "wof:placetype":"venue",
    "wof:superseded_by":[],
    "wof:supersedes":[],
    "wof:tags":[]
},
  "bbox": [4.735296,52.634678,4.735296,52.634678],
  "geometry": {"coordinates":[4.735296,52.634678],"type":"Point"}
}