{
  "id": 219593359,
  "type": "Feature",
  "properties": {
    "edtf:cessation":"u",
    "edtf:inception":"u",
    "geom:area":0.0,
    "geom:bbox":"5.289899,51.882812,5.289899,51.882812",
    "geom:latitude":51.882812,
    "geom:longitude":5.289899,
    "iso:country":"NL",
    "sg:address":"W De Zwygerwg 94",
    "sg:city":"Geldermalsen",
    "sg:classifiers":[],
    "sg:orig_category":"Administratie- En Boekhoudkantoren",
    "sg:owner":"simplegeo",
    "sg:phone":"+31 345 574 722",
    "sg:postcode":"4191 WH",
    "sg:province":"Gelderland",
    "src:geom":"simplegeo",
    "wof:belongsto":[
        85633337,
        101837793,
        85687043
    ],
    "wof:breaches":[],
    "wof:concordances":{
        "sg:id":"SG_2dn3I82FvoOsX8uI6dUyF3_51.882812_5.289899@1306269927"
    },
    "wof:country":"NL",
    "wof:geomhash":"2fd6bcc723fb1d26e469a7d88ea39d2f",
    "wof:hierarchy":[
        {
            "continent_id":-1,
            "country_id":85633337,
            "locality_id":101837793,
            "neighbourhood_id":-1,
            "region_id":85687043,
            "venue_id":219593359
        }
    ],
    "wof:id":219593359,
    "wof:lastmodified":1449072723,
    "wof:name":"Bruin, De",
    "wof:parent_id":-1,
    "wof:placetype":"venue",
    "wof:superseded_by":[],
    "wof:supersedes":[],
    "wof:tags":[]
},
  "bbox": [5.289899,51.882812,5.289899,51.882812],
  "geometry": {"coordinates":[5.289899,51.882812],"type":"Point"}
}