{
  "id": 286267687,
  "type": "Feature",
  "properties": {
    "edtf:cessation":"u",
    "edtf:inception":"u",
    "geom:area":0.0,
    "geom:bbox":"5.072947,51.559029,5.072947,51.559029",
    "geom:latitude":51.559029,
    "geom:longitude":5.072947,
    "iso:country":"NL",
    "sg:address":"Elzenstraat 64",
    "sg:city":"Tilburg",
    "sg:classifiers":[
        {
            "category":"Education",
            "subcategory":"Preschool",
            "type":"Public Place"
        }
    ],
    "sg:owner":"simplegeo",
    "sg:phone":"+31 13 542 3141",
    "sg:postcode":"5038 HD",
    "sg:province":"Noord-Brabant",
    "sg:tags":[
        "kleuteronderwijs",
        "basis-"
    ],
    "src:geom":"simplegeo",
    "wof:belongsto":[
        85798103,
        85633337,
        101751817,
        85687035
    ],
    "wof:breaches":[],
    "wof:concordances":{
        "sg:id":"SG_1dn6DUQyVeEI50t9p3sFw4_51.559029_5.072947@1306269967"
    },
    "wof:country":"NL",
    "wof:geomhash":"375387b32e2e948a0a5e8b61fa763393",
    "wof:hierarchy":[
        {
            "continent_id":-1,
            "country_id":85633337,
            "locality_id":101751817,
            "neighbourhood_id":85798103,
            "region_id":85687035,
            "venue_id":286267687
        }
    ],
    "wof:id":286267687,
    "wof:lastmodified":1449017826,
    "wof:name":"Montessorischool De Elzen",
    "wof:parent_id":85798103,
    "wof:placetype":"venue",
    "wof:superseded_by":[],
    "wof:supersedes":[],
    "wof:tags":[
        "kleuteronderwijs",
        "basis-"
    ]
},
  "bbox": [5.072947,51.559029,5.072947,51.559029],
  "geometry": {"coordinates":[5.072947,51.559029],"type":"Point"}
}