{
  "id": 219765459,
  "type": "Feature",
  "properties": {
    "edtf:cessation":"u",
    "edtf:inception":"u",
    "geom:area":0.0,
    "geom:bbox":"5.433105,52.133675,5.433105,52.133675",
    "geom:latitude":52.133675,
    "geom:longitude":5.433105,
    "iso:country":"NL",
    "sg:address":"Ardennen 11",
    "sg:city":"Leusden",
    "sg:classifiers":[],
    "sg:orig_category":"Adviesbureaus Bedrijfsorganisatie",
    "sg:owner":"simplegeo",
    "sg:phone":"+31 33 258 9481",
    "sg:postcode":"3831 EW",
    "sg:province":"Utrecht",
    "src:geom":"simplegeo",
    "wof:belongsto":[
        85633337,
        101837659,
        85687039
    ],
    "wof:breaches":[],
    "wof:concordances":{
        "sg:id":"SG_5aaTfbMDV5suIADSId216r_52.133675_5.433105@1306269929"
    },
    "wof:country":"NL",
    "wof:geomhash":"675559b5dc7922a38893cc52a5a8e63f",
    "wof:hierarchy":[
        {
            "continent_id":-1,
            "country_id":85633337,
            "locality_id":101837659,
            "neighbourhood_id":-1,
            "region_id":85687039,
            "venue_id":219765459
        }
    ],
    "wof:id":219765459,
    "wof:lastmodified":1449072420,
    "wof:name":"Covalent Its Bv",
    "wof:parent_id":-1,
    "wof:placetype":"venue",
    "wof:superseded_by":[],
    "wof:supersedes":[],
    "wof:tags":[]
},
  "bbox": [5.433105,52.133675,5.433105,52.133675],
  "geometry": {"coordinates":[5.433105,52.133675],"type":"Point"}
}