{
  "id": 320063857,
  "type": "Feature",
  "properties": {
    "edtf:cessation":"u",
    "edtf:inception":"u",
    "geom:area":0.0,
    "geom:bbox":"6.580934,53.201248,6.580934,53.201248",
    "geom:latitude":53.201248,
    "geom:longitude":6.580934,
    "iso:country":"NL",
    "sg:address":"Helper Oostsngl 42",
    "sg:city":"Groningen",
    "sg:classifiers":[
        {
            "category":"Retail",
            "subcategory":"Auto Repair",
            "type":"Services"
        }
    ],
    "sg:owner":"simplegeo",
    "sg:phone":"+31 50 527 7087",
    "sg:postcode":"9722 AW",
    "sg:province":"Groningen",
    "sg:tags":[
        "garage"
    ],
    "sg:website":"http://www.hansdekker.nl",
    "src:geom":"simplegeo",
    "wof:belongsto":[
        85797263,
        85633337,
        101751909,
        85687059
    ],
    "wof:breaches":[],
    "wof:concordances":{
        "sg:id":"SG_5yvxOAr6scV8gY0O7Ya7es_53.201248_6.580934@1306269994"
    },
    "wof:country":"NL",
    "wof:geomhash":"2b5981a51f851854bf8db2465dca209b",
    "wof:hierarchy":[
        {
            "continent_id":-1,
            "country_id":85633337,
            "locality_id":101751909,
            "neighbourhood_id":85797263,
            "region_id":85687059,
            "venue_id":320063857
        }
    ],
    "wof:id":320063857,
    "wof:lastmodified":1449011568,
    "wof:name":"Dekker, Autobedrijf",
    "wof:parent_id":85797263,
    "wof:placetype":"venue",
    "wof:superseded_by":[],
    "wof:supersedes":[],
    "wof:tags":[
        "garage"
    ]
},
  "bbox": [6.580934,53.201248,6.580934,53.201248],
  "geometry": {"coordinates":[6.580934,53.201248],"type":"Point"}
}