{
  "id": 320778571,
  "type": "Feature",
  "properties": {
    "edtf:cessation":"u",
    "edtf:inception":"u",
    "geom:area":0.0,
    "geom:bbox":"5.223486,51.748871,5.223486,51.748871",
    "geom:latitude":51.748871,
    "geom:longitude":5.223486,
    "iso:country":"NL",
    "sg:address":"Kerkstraat 11",
    "sg:city":"Ammerzoden",
    "sg:classifiers":[],
    "sg:orig_category":"Zuivelproducten",
    "sg:owner":"simplegeo",
    "sg:phone":"+31 73 599 1317",
    "sg:postcode":"5324 AG",
    "sg:province":"Gelderland",
    "src:geom":"simplegeo",
    "wof:belongsto":[
        85633337,
        101808579,
        85687043
    ],
    "wof:breaches":[],
    "wof:concordances":{
        "sg:id":"SG_2QuBLqJ0zwu639u1FHzQGS_51.748871_5.223486@1306270002"
    },
    "wof:country":"NL",
    "wof:geomhash":"dfe81caa12a7402c4ef2973dcda8fb6a",
    "wof:hierarchy":[
        {
            "continent_id":-1,
            "country_id":85633337,
            "locality_id":101808579,
            "neighbourhood_id":-1,
            "region_id":85687043,
            "venue_id":320778571
        }
    ],
    "wof:id":320778571,
    "wof:lastmodified":1449011332,
    "wof:name":"Zuivelhandel Vof H Van Doornmalen",
    "wof:parent_id":-1,
    "wof:placetype":"venue",
    "wof:superseded_by":[],
    "wof:supersedes":[],
    "wof:tags":[]
},
  "bbox": [5.223486,51.748871,5.223486,51.748871],
  "geometry": {"coordinates":[5.223486,51.748871],"type":"Point"}
}