{
  "id": 220038751,
  "type": "Feature",
  "properties": {
    "edtf:cessation":"u",
    "edtf:inception":"u",
    "geom:area":0.0,
    "geom:bbox":"4.458592,51.92067,4.458592,51.92067",
    "geom:latitude":51.92067,
    "geom:longitude":4.458592,
    "iso:country":"NL",
    "sg:address":"Gr Florisstr 31A",
    "sg:city":"Rotterdam",
    "sg:classifiers":[],
    "sg:orig_category":"Adviesbureaus Elektronica",
    "sg:owner":"simplegeo",
    "sg:phone":"+31 10 244 0351",
    "sg:postcode":"3021 CB",
    "sg:province":"Zuid-Holland",
    "src:geom":"simplegeo",
    "wof:belongsto":[
        85859807,
        85633337,
        101751843,
        85687041
    ],
    "wof:breaches":[],
    "wof:concordances":{
        "sg:id":"SG_20nGzSNIum2huLw4H75g1X_51.920670_4.458592@1306269931"
    },
    "wof:country":"NL",
    "wof:geomhash":"23975a926af047a6b0959dac92d3539f",
    "wof:hierarchy":[
        {
            "continent_id":-1,
            "country_id":85633337,
            "locality_id":101751843,
            "neighbourhood_id":85859807,
            "region_id":85687041,
            "venue_id":220038751
        }
    ],
    "wof:id":220038751,
    "wof:lastmodified":1449074568,
    "wof:name":"Nedon",
    "wof:parent_id":85859807,
    "wof:placetype":"venue",
    "wof:superseded_by":[],
    "wof:supersedes":[],
    "wof:tags":[]
},
  "bbox": [4.458592,51.92067,4.458592,51.92067],
  "geometry": {"coordinates":[4.458592,51.92067],"type":"Point"}
}