{
  "id": 286706767,
  "type": "Feature",
  "properties": {
    "edtf:cessation":"u",
    "edtf:inception":"u",
    "geom:area":0.0,
    "geom:bbox":"4.99351,51.853081,4.99351,51.853081",
    "geom:latitude":51.853081,
    "geom:longitude":4.99351,
    "iso:country":"NL",
    "sg:address":"Onderweg 49",
    "sg:city":"Arkel",
    "sg:classifiers":[],
    "sg:orig_category":"Beveiligingsdiensten And Bewakingsbedrijven",
    "sg:owner":"simplegeo",
    "sg:phone":"+31 183 561 148",
    "sg:postcode":"4241 XE",
    "sg:province":"South Holland",
    "src:geom":"simplegeo",
    "wof:belongsto":[
        85633337,
        85687041
    ],
    "wof:breaches":[],
    "wof:concordances":{
        "sg:id":"SG_6MclWIsYySkcKVPwTJ50Ff_51.853081_4.993510@1306269972"
    },
    "wof:country":"NL",
    "wof:geomhash":"9617819848b7c146438a63372088a226",
    "wof:hierarchy":[
        {
            "continent_id":-1,
            "country_id":85633337,
            "locality_id":-1,
            "neighbourhood_id":-1,
            "region_id":85687041,
            "venue_id":286706767
        }
    ],
    "wof:id":286706767,
    "wof:lastmodified":1449015381,
    "wof:name":"Burgman Security Bv",
    "wof:parent_id":-1,
    "wof:placetype":"venue",
    "wof:superseded_by":[],
    "wof:supersedes":[],
    "wof:tags":[]
},
  "bbox": [4.99351,51.853081,4.99351,51.853081],
  "geometry": {"coordinates":[4.99351,51.853081],"type":"Point"}
}