{
  "id": 336749613,
  "type": "Feature",
  "properties": {
    "edtf:cessation":"u",
    "edtf:inception":"u",
    "geom:area":0.0,
    "geom:bbox":"4.872408,52.291412,4.872408,52.291412",
    "geom:latitude":52.291412,
    "geom:longitude":4.872408,
    "iso:country":"NL",
    "sg:address":"Helikon 16",
    "sg:city":"Amstelveen",
    "sg:classifiers":[
        {
            "category":"Professional",
            "subcategory":"Accounting & Tax Preparation",
            "type":"Services"
        }
    ],
    "sg:owner":"simplegeo",
    "sg:phone":"+31 20 645 6662",
    "sg:postcode":"1186 CD",
    "sg:province":"North Holland",
    "sg:tags":[
        "accountant"
    ],
    "src:geom":"simplegeo",
    "wof:belongsto":[
        85798615,
        85633337,
        85687053
    ],
    "wof:breaches":[],
    "wof:concordances":{
        "sg:id":"SG_36nD514AdOpDltGlTPzLrL_52.291412_4.872408@1306270005"
    },
    "wof:country":"NL",
    "wof:geomhash":"c87c99bcb790d925005505f030980f58",
    "wof:hierarchy":[
        {
            "continent_id":-1,
            "country_id":85633337,
            "locality_id":-1,
            "neighbourhood_id":85798615,
            "region_id":85687053,
            "venue_id":336749613
        }
    ],
    "wof:id":336749613,
    "wof:lastmodified":1448997259,
    "wof:name":"Registeraccountant",
    "wof:parent_id":85798615,
    "wof:placetype":"venue",
    "wof:superseded_by":[],
    "wof:supersedes":[],
    "wof:tags":[
        "accountant"
    ]
},
  "bbox": [4.872408,52.291412,4.872408,52.291412],
  "geometry": {"coordinates":[4.872408,52.291412],"type":"Point"}
}