{
  "id": 303526181,
  "type": "Feature",
  "properties": {
    "edtf:cessation":"u",
    "edtf:inception":"u",
    "geom:area":0.0,
    "geom:bbox":"5.37481,52.243549,5.37481,52.243549",
    "geom:latitude":52.243549,
    "geom:longitude":5.37481,
    "iso:country":"NL",
    "sg:address":"G V Prinster Sngl 53",
    "sg:city":"Bunschoten Spakenb",
    "sg:classifiers":[],
    "sg:orig_category":"Stukadoorsbedrijven",
    "sg:owner":"simplegeo",
    "sg:phone":"+31 33 298 6529",
    "sg:postcode":"3752 DD",
    "sg:province":"Utrecht",
    "src:geom":"simplegeo",
    "wof:belongsto":[
        85798421,
        85633337,
        101806987,
        85687039
    ],
    "wof:breaches":[],
    "wof:concordances":{
        "sg:id":"SG_0Cg6HaRjwEol5sVxBGCrYd_52.243549_5.374810@1306269984"
    },
    "wof:country":"NL",
    "wof:geomhash":"b22cc4e2684870faf46589aad105e16a",
    "wof:hierarchy":[
        {
            "continent_id":-1,
            "country_id":85633337,
            "locality_id":101806987,
            "neighbourhood_id":85798421,
            "region_id":85687039,
            "venue_id":303526181
        }
    ],
    "wof:id":303526181,
    "wof:lastmodified":1448998867,
    "wof:name":"Fateba Bv",
    "wof:parent_id":85798421,
    "wof:placetype":"venue",
    "wof:superseded_by":[],
    "wof:supersedes":[],
    "wof:tags":[]
},
  "bbox": [5.37481,52.243549,5.37481,52.243549],
  "geometry": {"coordinates":[5.37481,52.243549],"type":"Point"}
}