{
  "id": 270349277,
  "type": "Feature",
  "properties": {
    "edtf:cessation":"u",
    "edtf:inception":"u",
    "geom:area":0.0,
    "geom:bbox":"6.586056,52.24194,6.586056,52.24194",
    "geom:latitude":52.24194,
    "geom:longitude":6.586056,
    "iso:country":"NL",
    "sg:address":"Spechthorstwg 8",
    "sg:city":"Goor",
    "sg:classifiers":[],
    "sg:orig_category":"Banden",
    "sg:owner":"simplegeo",
    "sg:phone":"+31 547 273 400",
    "sg:postcode":"7471 GH",
    "sg:province":"Overijssel",
    "src:geom":"simplegeo",
    "wof:belongsto":[
        85633337,
        101807197,
        85687045
    ],
    "wof:breaches":[],
    "wof:concordances":{
        "sg:id":"SG_4dFaGPlSP7PiEv9nV6juJk_52.241940_6.586056@1306269964"
    },
    "wof:country":"NL",
    "wof:geomhash":"02c36a5e68a865aa5b379d748b59170b",
    "wof:hierarchy":[
        {
            "continent_id":-1,
            "country_id":85633337,
            "locality_id":101807197,
            "neighbourhood_id":-1,
            "region_id":85687045,
            "venue_id":270349277
        }
    ],
    "wof:id":270349277,
    "wof:lastmodified":1449009564,
    "wof:name":"Kuipers Bv",
    "wof:parent_id":-1,
    "wof:placetype":"venue",
    "wof:superseded_by":[],
    "wof:supersedes":[],
    "wof:tags":[]
},
  "bbox": [6.586056,52.24194,6.586056,52.24194],
  "geometry": {"coordinates":[6.586056,52.24194],"type":"Point"}
}