{
  "id": 253085765,
  "type": "Feature",
  "properties": {
    "edtf:cessation":"u",
    "edtf:inception":"u",
    "geom:area":0.0,
    "geom:bbox":"6.971371,53.174969,6.971371,53.174969",
    "geom:latitude":53.174969,
    "geom:longitude":6.971371,
    "iso:country":"NL",
    "sg:address":"Stationsstr 12",
    "sg:city":"Scheemda",
    "sg:classifiers":[],
    "sg:orig_category":"Metselwerken",
    "sg:owner":"simplegeo",
    "sg:phone":"+31 597 591 842",
    "sg:postcode":"9679 ED",
    "sg:province":"Groningen",
    "src:geom":"simplegeo",
    "wof:belongsto":[
        85633337,
        101807495,
        85687059
    ],
    "wof:breaches":[],
    "wof:concordances":{
        "sg:id":"SG_2GfC5w3WnxIWtifmdvtztA_53.174969_6.971371@1306269946"
    },
    "wof:country":"NL",
    "wof:geomhash":"3b4004903349023605b0473f0a83d502",
    "wof:hierarchy":[
        {
            "continent_id":-1,
            "country_id":85633337,
            "locality_id":101807495,
            "neighbourhood_id":-1,
            "region_id":85687059,
            "venue_id":253085765
        }
    ],
    "wof:id":253085765,
    "wof:lastmodified":1449063559,
    "wof:name":"Boomgaarden, H H",
    "wof:parent_id":-1,
    "wof:placetype":"venue",
    "wof:superseded_by":[],
    "wof:supersedes":[],
    "wof:tags":[]
},
  "bbox": [6.971371,53.174969,6.971371,53.174969],
  "geometry": {"coordinates":[6.971371,53.174969],"type":"Point"}
}