{
  "id": 270341861,
  "type": "Feature",
  "properties": {
    "edtf:cessation":"u",
    "edtf:inception":"u",
    "geom:area":0.0,
    "geom:bbox":"5.256543,51.916908,5.256543,51.916908",
    "geom:latitude":51.916908,
    "geom:longitude":5.256543,
    "iso:country":"NL",
    "sg:address":"Oude Hoevensewg 6",
    "sg:city":"Tricht",
    "sg:classifiers":[],
    "sg:orig_category":"Banden - Fabrieken En Groothandel",
    "sg:owner":"simplegeo",
    "sg:phone":"+31 345 572 481",
    "sg:postcode":"4196 RK",
    "sg:province":"Gelderland",
    "src:geom":"simplegeo",
    "wof:belongsto":[
        85633337,
        85687043
    ],
    "wof:breaches":[],
    "wof:concordances":{
        "sg:id":"SG_5KJcI4vnbuYOaTn9MCEuNF_51.916908_5.256543@1306269964"
    },
    "wof:country":"NL",
    "wof:geomhash":"8ede12a6920b51e400112fc9693481bc",
    "wof:hierarchy":[
        {
            "continent_id":-1,
            "country_id":85633337,
            "locality_id":-1,
            "neighbourhood_id":-1,
            "region_id":85687043,
            "venue_id":270341861
        }
    ],
    "wof:id":270341861,
    "wof:lastmodified":1449011024,
    "wof:name":"Verhoeve Bv, H",
    "wof:parent_id":-1,
    "wof:placetype":"venue",
    "wof:superseded_by":[],
    "wof:supersedes":[],
    "wof:tags":[]
},
  "bbox": [5.256543,51.916908,5.256543,51.916908],
  "geometry": {"coordinates":[5.256543,51.916908],"type":"Point"}
}