{
  "id": 270141767,
  "type": "Feature",
  "properties": {
    "edtf:cessation":"u",
    "edtf:inception":"u",
    "geom:area":0.0,
    "geom:bbox":"6.879025,46.975361,6.879025,46.975361",
    "geom:latitude":46.975361,
    "geom:longitude":6.879025,
    "iso:country":"NL",
    "sg:address":"Kl Houtwg 22",
    "sg:city":"Haarlem",
    "sg:classifiers":[],
    "sg:orig_category":"Fotografie Technische En Industri\u00c3\u00able",
    "sg:owner":"simplegeo",
    "sg:phone":"+31 23 532 0975",
    "sg:postcode":"2012 CH",
    "sg:province":"Neuch\u00e2tel",
    "src:geom":"simplegeo",
    "wof:belongsto":[
        85633051,
        85682359
    ],
    "wof:breaches":[],
    "wof:concordances":{
        "sg:id":"SG_6jVyG9HP52kH1BtCFXrMvl_46.975361_6.879025@1306269962"
    },
    "wof:country":"NL",
    "wof:geomhash":"aab20e9a153b2719b62c169a1f4787f8",
    "wof:hierarchy":[
        {
            "continent_id":-1,
            "country_id":85633051,
            "locality_id":-1,
            "neighbourhood_id":-1,
            "region_id":85682359,
            "venue_id":270141767
        }
    ],
    "wof:id":270141767,
    "wof:lastmodified":1449009495,
    "wof:name":"Roos & Blom Bv",
    "wof:parent_id":-1,
    "wof:placetype":"venue",
    "wof:superseded_by":[],
    "wof:supersedes":[],
    "wof:tags":[]
},
  "bbox": [6.879025,46.975361,6.879025,46.975361],
  "geometry": {"coordinates":[6.879025,46.975361],"type":"Point"}
}