{
  "id": 286871357,
  "type": "Feature",
  "properties": {
    "edtf:cessation":"u",
    "edtf:inception":"u",
    "geom:area":0.0,
    "geom:bbox":"4.463276,51.931557,4.463276,51.931557",
    "geom:latitude":51.931557,
    "geom:longitude":4.463276,
    "iso:country":"NL",
    "sg:address":"Stadhoudersplein 134",
    "sg:city":"Rotterdam",
    "sg:classifiers":[],
    "sg:orig_category":"Bloemen And Planten",
    "sg:owner":"simplegeo",
    "sg:phone":"+31 10 465 3872",
    "sg:postcode":"3038 EA",
    "sg:province":"Zuid-Holland",
    "src:geom":"simplegeo",
    "wof:belongsto":[
        85859789,
        85633337,
        101751843,
        85687041
    ],
    "wof:breaches":[],
    "wof:concordances":{
        "sg:id":"SG_0rpZCGuGrXllmDWM2Q1Ggk_51.931557_4.463276@1306269974"
    },
    "wof:country":"NL",
    "wof:geomhash":"9e35f6cc0f4c9d2905218e3cafff5e52",
    "wof:hierarchy":[
        {
            "continent_id":-1,
            "country_id":85633337,
            "locality_id":101751843,
            "neighbourhood_id":85859789,
            "region_id":85687041,
            "venue_id":286871357
        }
    ],
    "wof:id":286871357,
    "wof:lastmodified":1449016147,
    "wof:name":"Bloemenmagazijn De Fleurige Markt",
    "wof:parent_id":85859789,
    "wof:placetype":"venue",
    "wof:superseded_by":[],
    "wof:supersedes":[],
    "wof:tags":[]
},
  "bbox": [4.463276,51.931557,4.463276,51.931557],
  "geometry": {"coordinates":[4.463276,51.931557],"type":"Point"}
}