{
  "id": 203130079,
  "type": "Feature",
  "properties": {
    "edtf:cessation":"u",
    "edtf:inception":"u",
    "geom:area":0.0,
    "geom:bbox":"6.047802,52.892117,6.047802,52.892117",
    "geom:latitude":52.892117,
    "geom:longitude":6.047802,
    "iso:country":"NL",
    "sg:address":"Wilfred Berrystraat 20",
    "sg:city":"Oldeholtpade",
    "sg:classifiers":[],
    "sg:orig_category":"Verzekeringen",
    "sg:owner":"simplegeo",
    "sg:phone":"+31 561 688 509",
    "sg:postcode":"8474 CT",
    "sg:province":"Friesland",
    "src:geom":"simplegeo",
    "wof:belongsto":[
        85633337,
        101874307,
        85687055
    ],
    "wof:breaches":[],
    "wof:concordances":{
        "sg:id":"SG_5IC3GYuadVY2GOkLNtcmz0_52.892117_6.047802@1306269921"
    },
    "wof:country":"NL",
    "wof:geomhash":"20a6b31458a0a7716d0bf5d0a105a130",
    "wof:hierarchy":[
        {
            "continent_id":-1,
            "country_id":85633337,
            "locality_id":101874307,
            "neighbourhood_id":-1,
            "region_id":85687055,
            "venue_id":203130079
        }
    ],
    "wof:id":203130079,
    "wof:lastmodified":1449025570,
    "wof:name":"E. Delfsma-Assurantien",
    "wof:parent_id":-1,
    "wof:placetype":"venue",
    "wof:superseded_by":[],
    "wof:supersedes":[],
    "wof:tags":[]
},
  "bbox": [6.047802,52.892117,6.047802,52.892117],
  "geometry": {"coordinates":[6.047802,52.892117],"type":"Point"}
}