{
  "id": 286975817,
  "type": "Feature",
  "properties": {
    "edtf:cessation":"u",
    "edtf:inception":"u",
    "geom:area":0.0,
    "geom:bbox":"5.479981,51.477814,5.479981,51.477814",
    "geom:latitude":51.477814,
    "geom:longitude":5.479981,
    "iso:country":"NL",
    "sg:address":"Bruggelaan 12",
    "sg:city":"Eindhoven",
    "sg:classifiers":[],
    "sg:orig_category":"Bloemen And Planten",
    "sg:owner":"simplegeo",
    "sg:phone":"+31 40 242 3635",
    "sg:postcode":"5628 RH",
    "sg:province":"Noord-Brabant",
    "src:geom":"simplegeo",
    "wof:belongsto":[
        85798695,
        85633337,
        101751819,
        85687035
    ],
    "wof:breaches":[],
    "wof:concordances":{
        "sg:id":"SG_6ImmQFm0RptcbunoYOe4J1_51.477814_5.479981@1306269975"
    },
    "wof:country":"NL",
    "wof:geomhash":"03e4b92cfd68349ca2a292038fd39d7c",
    "wof:hierarchy":[
        {
            "continent_id":-1,
            "country_id":85633337,
            "locality_id":101751819,
            "neighbourhood_id":85798695,
            "region_id":85687035,
            "venue_id":286975817
        }
    ],
    "wof:id":286975817,
    "wof:lastmodified":1449017700,
    "wof:name":"Boerenbond",
    "wof:parent_id":85798695,
    "wof:placetype":"venue",
    "wof:superseded_by":[],
    "wof:supersedes":[],
    "wof:tags":[]
},
  "bbox": [5.479981,51.477814,5.479981,51.477814],
  "geometry": {"coordinates":[5.479981,51.477814],"type":"Point"}
}