{
  "id": 336928595,
  "type": "Feature",
  "properties": {
    "edtf:cessation":"u",
    "edtf:inception":"u",
    "geom:area":0.0,
    "geom:bbox":"6.338425,52.252998,6.338425,52.252998",
    "geom:latitude":52.252998,
    "geom:longitude":6.338425,
    "iso:country":"NL",
    "sg:address":"Looermark 51",
    "sg:city":"Bathmen",
    "sg:classifiers":[],
    "sg:orig_category":"Onroerende Goederen",
    "sg:owner":"simplegeo",
    "sg:phone":"+31 570 543 834",
    "sg:postcode":"7437 SK",
    "sg:province":"Overijssel",
    "src:geom":"simplegeo",
    "wof:belongsto":[
        85633337,
        85687045
    ],
    "wof:breaches":[],
    "wof:concordances":{
        "sg:id":"SG_5et5flDaFToqGbLxSvKXBp_52.252998_6.338425@1306270007"
    },
    "wof:country":"NL",
    "wof:geomhash":"87675e1bcd75df97e7ef9d531b122aff",
    "wof:hierarchy":[
        {
            "continent_id":-1,
            "country_id":85633337,
            "locality_id":-1,
            "neighbourhood_id":-1,
            "region_id":85687045,
            "venue_id":336928595
        }
    ],
    "wof:id":336928595,
    "wof:lastmodified":1448997876,
    "wof:name":"Loohuis Bathmen Bv",
    "wof:parent_id":-1,
    "wof:placetype":"venue",
    "wof:superseded_by":[],
    "wof:supersedes":[],
    "wof:tags":[]
},
  "bbox": [6.338425,52.252998,6.338425,52.252998],
  "geometry": {"coordinates":[6.338425,52.252998],"type":"Point"}
}