{
  "id": 236571153,
  "type": "Feature",
  "properties": {
    "edtf:cessation":"u",
    "edtf:inception":"u",
    "geom:area":0.0,
    "geom:bbox":"5.710217,51.379414,5.710217,51.379414",
    "geom:latitude":51.379414,
    "geom:longitude":5.710217,
    "iso:country":"NL",
    "sg:address":"Heuvel 15",
    "sg:city":"Someren",
    "sg:classifiers":[],
    "sg:orig_category":"Autokeuringen",
    "sg:owner":"simplegeo",
    "sg:phone":"+31 493 491 842",
    "sg:postcode":"5712 EH",
    "sg:province":"Noord-Brabant",
    "src:geom":"simplegeo",
    "wof:belongsto":[
        85633337,
        101809767,
        85687035
    ],
    "wof:breaches":[],
    "wof:concordances":{
        "sg:id":"SG_4nK9tg8VcPZ4YMMdFZS1aR_51.379414_5.710217@1306269939"
    },
    "wof:country":"NL",
    "wof:geomhash":"1de9982f8b4ffb8f7727745578495b63",
    "wof:hierarchy":[
        {
            "continent_id":-1,
            "country_id":85633337,
            "locality_id":101809767,
            "neighbourhood_id":-1,
            "region_id":85687035,
            "venue_id":236571153
        }
    ],
    "wof:id":236571153,
    "wof:lastmodified":1449003995,
    "wof:name":"Garage H Verstappen",
    "wof:parent_id":-1,
    "wof:placetype":"venue",
    "wof:superseded_by":[],
    "wof:supersedes":[],
    "wof:tags":[]
},
  "bbox": [5.710217,51.379414,5.710217,51.379414],
  "geometry": {"coordinates":[5.710217,51.379414],"type":"Point"}
}