{
  "id": 320858051,
  "type": "Feature",
  "properties": {
    "edtf:cessation":"u",
    "edtf:inception":"u",
    "geom:area":0.0,
    "geom:bbox":"114.153542,22.411249,114.153542,22.411249",
    "geom:latitude":22.411249,
    "geom:longitude":114.153542,
    "iso:country":"NL",
    "sg:address":"Beijneslaan 169",
    "sg:city":"Beverwijk",
    "sg:classifiers":[],
    "sg:orig_category":"Juridische Dienstverlening",
    "sg:owner":"simplegeo",
    "sg:phone":"+31 251 217 999",
    "sg:postcode":"1947 HK",
    "sg:province":"CN.",
    "src:geom":"simplegeo",
    "wof:belongsto":[
        85632483,
        85671827
    ],
    "wof:breaches":[],
    "wof:concordances":{
        "sg:id":"SG_3yOhqF6IL2BGwq3pRWVTPZ_22.411249_114.153542@1306270003"
    },
    "wof:country":"NL",
    "wof:geomhash":"2a00e416cdde11aade185ba932af8e5f",
    "wof:hierarchy":[
        {
            "continent_id":-1,
            "country_id":85632483,
            "locality_id":-1,
            "neighbourhood_id":-1,
            "region_id":85671827,
            "venue_id":320858051
        }
    ],
    "wof:id":320858051,
    "wof:lastmodified":1449011606,
    "wof:name":"Rechtsbijstand Mr",
    "wof:parent_id":-1,
    "wof:placetype":"venue",
    "wof:superseded_by":[],
    "wof:supersedes":[],
    "wof:tags":[]
},
  "bbox": [114.153542,22.411249,114.153542,22.411249],
  "geometry": {"coordinates":[114.153542,22.411249],"type":"Point"}
}