{
  "id": 186148263,
  "type": "Feature",
  "properties": {
    "edtf:cessation":"u",
    "edtf:inception":"u",
    "geom:area":0.0,
    "geom:bbox":"6.002298,52.867855,6.002298,52.867855",
    "geom:latitude":52.867855,
    "geom:longitude":6.002298,
    "iso:country":"NL",
    "sg:address":"Rossinistr 17",
    "sg:city":"Wolvega",
    "sg:classifiers":[],
    "sg:orig_category":"Kunsthandel",
    "sg:owner":"simplegeo",
    "sg:phone":"+31 561 614 270",
    "sg:postcode":"8471 NV",
    "sg:province":"Provincie Friesland",
    "src:geom":"simplegeo",
    "wof:belongsto":[
        85633337,
        101808823,
        85687055
    ],
    "wof:breaches":[],
    "wof:concordances":{
        "sg:id":"SG_3TmVbikNbtYhvsRiwTT5PT_52.867855_6.002298@1306269910"
    },
    "wof:country":"NL",
    "wof:geomhash":"252598d7bdab6ab853e5f61c79d51a6f",
    "wof:hierarchy":[
        {
            "continent_id":-1,
            "country_id":85633337,
            "locality_id":101808823,
            "neighbourhood_id":-1,
            "region_id":85687055,
            "venue_id":186148263
        }
    ],
    "wof:id":186148263,
    "wof:lastmodified":1449052586,
    "wof:name":"Olifant, De",
    "wof:parent_id":-1,
    "wof:placetype":"venue",
    "wof:superseded_by":[],
    "wof:supersedes":[],
    "wof:tags":[]
},
  "bbox": [6.002298,52.867855,6.002298,52.867855],
  "geometry": {"coordinates":[6.002298,52.867855],"type":"Point"}
}