{
  "id": 320091113,
  "type": "Feature",
  "properties": {
    "edtf:cessation":"u",
    "edtf:inception":"u",
    "geom:area":0.0,
    "geom:bbox":"5.172067,52.221958,5.172067,52.221958",
    "geom:latitude":52.221958,
    "geom:longitude":5.172067,
    "iso:country":"NL",
    "sg:address":"Ruiterswg 34",
    "sg:city":"Hilversum",
    "sg:classifiers":[
        {
            "category":"Retail",
            "subcategory":"Auto Repair",
            "type":"Services"
        }
    ],
    "sg:owner":"simplegeo",
    "sg:phone":"+31 35 621 4335",
    "sg:postcode":"1211 KW",
    "sg:province":"Noord-Holland",
    "sg:tags":[
        "garage"
    ],
    "src:geom":"simplegeo",
    "wof:belongsto":[
        85798083,
        85633337,
        101751905,
        85687053
    ],
    "wof:breaches":[],
    "wof:concordances":{
        "sg:id":"SG_4Pq5unqZoP4AnXX5WPHgio_52.221958_5.172067@1306269994"
    },
    "wof:country":"NL",
    "wof:geomhash":"6952e93466d408af1321f39e9012d4bf",
    "wof:hierarchy":[
        {
            "continent_id":-1,
            "country_id":85633337,
            "locality_id":101751905,
            "neighbourhood_id":85798083,
            "region_id":85687053,
            "venue_id":320091113
        }
    ],
    "wof:id":320091113,
    "wof:lastmodified":1449011614,
    "wof:name":"Meij, Garage V/D",
    "wof:parent_id":85798083,
    "wof:placetype":"venue",
    "wof:superseded_by":[],
    "wof:supersedes":[],
    "wof:tags":[
        "garage"
    ]
},
  "bbox": [5.172067,52.221958,5.172067,52.221958],
  "geometry": {"coordinates":[5.172067,52.221958],"type":"Point"}
}