{
  "id": 202528699,
  "type": "Feature",
  "properties": {
    "edtf:cessation":"u",
    "edtf:inception":"u",
    "geom:area":0.0,
    "geom:bbox":"5.475088,51.444729,5.475088,51.444729",
    "geom:latitude":51.444729,
    "geom:longitude":5.475088,
    "iso:country":"NL",
    "sg:address":"Kruisstraat 163",
    "sg:city":"Eindhoven",
    "sg:classifiers":[
        {
            "category":"Communications",
            "subcategory":"Television Station",
            "type":"Services"
        }
    ],
    "sg:owner":"simplegeo",
    "sg:phone":"+31 40 245 4907",
    "sg:postcode":"5612 CG",
    "sg:province":"Noord-Brabant",
    "sg:tags":[
        "video",
        "audio",
        "verhuur"
    ],
    "src:geom":"simplegeo",
    "wof:belongsto":[
        85798021,
        85633337,
        101751819,
        85687035
    ],
    "wof:breaches":[],
    "wof:concordances":{
        "sg:id":"SG_4hmaQrAqHH2EJUgYqvHqDv_51.444729_5.475088@1306269916"
    },
    "wof:country":"NL",
    "wof:geomhash":"c174b26421029253ec4d5f93ad8e2076",
    "wof:hierarchy":[
        {
            "continent_id":-1,
            "country_id":85633337,
            "locality_id":101751819,
            "neighbourhood_id":85798021,
            "region_id":85687035,
            "venue_id":202528699
        }
    ],
    "wof:id":202528699,
    "wof:lastmodified":1449060801,
    "wof:name":"Videogigant Jumbo",
    "wof:parent_id":85798021,
    "wof:placetype":"venue",
    "wof:superseded_by":[],
    "wof:supersedes":[],
    "wof:tags":[
        "video",
        "audio",
        "verhuur"
    ]
},
  "bbox": [5.475088,51.444729,5.475088,51.444729],
  "geometry": {"coordinates":[5.475088,51.444729],"type":"Point"}
}