{
  "id": 202565841,
  "type": "Feature",
  "properties": {
    "edtf:cessation":"u",
    "edtf:inception":"u",
    "geom:area":0.0,
    "geom:bbox":"4.75183,52.196724,4.75183,52.196724",
    "geom:latitude":52.196724,
    "geom:longitude":4.75183,
    "iso:country":"NL",
    "sg:address":"Oude Nieuwv Wg 4",
    "sg:city":"Nieuwveen",
    "sg:classifiers":[],
    "sg:orig_category":"Verhuur",
    "sg:owner":"simplegeo",
    "sg:phone":"+31 172 538 206",
    "sg:postcode":"2441 CV",
    "sg:province":"Zuid-Holland",
    "sg:website":"http://www.huurcenter.nl",
    "src:geom":"simplegeo",
    "wof:belongsto":[
        85633337,
        101807031,
        85687041
    ],
    "wof:breaches":[],
    "wof:concordances":{
        "sg:id":"SG_7RuXh4PldOX42ohOCW9zmu_52.196724_4.751830@1306269916"
    },
    "wof:country":"NL",
    "wof:geomhash":"fab7835dc6da15bf5bcdcbe762310c4d",
    "wof:hierarchy":[
        {
            "continent_id":-1,
            "country_id":85633337,
            "locality_id":101807031,
            "neighbourhood_id":-1,
            "region_id":85687041,
            "venue_id":202565841
        }
    ],
    "wof:id":202565841,
    "wof:lastmodified":1449062427,
    "wof:name":"Huurcenter Verhuurt Het",
    "wof:parent_id":-1,
    "wof:placetype":"venue",
    "wof:superseded_by":[],
    "wof:supersedes":[],
    "wof:tags":[]
},
  "bbox": [4.75183,52.196724,4.75183,52.196724],
  "geometry": {"coordinates":[4.75183,52.196724],"type":"Point"}
}