{
  "id": 186499399,
  "type": "Feature",
  "properties": {
    "edtf:cessation":"u",
    "edtf:inception":"u",
    "geom:area":0.0,
    "geom:bbox":"-61.766769,1.84229,-61.766769,1.84229",
    "geom:latitude":1.84229,
    "geom:longitude":-61.766769,
    "iso:country":"NL",
    "sg:address":"Heinose Veldwg 1",
    "sg:city":"Heino",
    "sg:classifiers":[],
    "sg:orig_category":"Verenigingen En Stichtingen",
    "sg:owner":"simplegeo",
    "sg:phone":"+31 572 392 421",
    "sg:postcode":"8141 RR",
    "sg:province":"Roraima",
    "src:geom":"simplegeo",
    "wof:belongsto":[
        85633009,
        85682011
    ],
    "wof:breaches":[],
    "wof:concordances":{
        "sg:id":"SG_51HZ3GmYkHQL988EAnWsUb_1.842290_-61.766769@1306269913"
    },
    "wof:country":"NL",
    "wof:geomhash":"fefdb9bc4d7b5197f151d354dbd056d6",
    "wof:hierarchy":[
        {
            "continent_id":-1,
            "country_id":85633009,
            "locality_id":-1,
            "neighbourhood_id":-1,
            "region_id":85682011,
            "venue_id":186499399
        }
    ],
    "wof:id":186499399,
    "wof:lastmodified":1449050915,
    "wof:name":"Scouting Heino",
    "wof:parent_id":-1,
    "wof:placetype":"venue",
    "wof:superseded_by":[],
    "wof:supersedes":[],
    "wof:tags":[]
},
  "bbox": [-61.766769,1.84229,-61.766769,1.84229],
  "geometry": {"coordinates":[-61.766769,1.84229],"type":"Point"}
}