{
  "id": 219393155,
  "type": "Feature",
  "properties": {
    "edtf:cessation":"u",
    "edtf:inception":"u",
    "geom:area":0.0,
    "geom:bbox":"6.097949,52.512424,6.097949,52.512424",
    "geom:latitude":52.512424,
    "geom:longitude":6.097949,
    "iso:country":"NL",
    "sg:address":"Spoelstraat 32",
    "sg:city":"Zwolle",
    "sg:classifiers":[],
    "sg:orig_category":"Loodgieterswerk, Verwarming And Sanitaire Installaties",
    "sg:owner":"simplegeo",
    "sg:phone":"+31 38 331 1250",
    "sg:postcode":"8011 RX",
    "sg:province":"NL.08",
    "src:geom":"simplegeo",
    "wof:belongsto":[
        85798691,
        85633337,
        101751861,
        85687045
    ],
    "wof:breaches":[],
    "wof:concordances":{
        "sg:id":"SG_66c3KoPZBgAtqWwAIyNJBk_52.512424_6.097949@1306269926"
    },
    "wof:country":"NL",
    "wof:geomhash":"eee1cc9c8f3bd198fcfc24bc44ccdf5b",
    "wof:hierarchy":[
        {
            "continent_id":-1,
            "country_id":85633337,
            "locality_id":101751861,
            "neighbourhood_id":85798691,
            "region_id":85687045,
            "venue_id":219393155
        }
    ],
    "wof:id":219393155,
    "wof:lastmodified":1449071504,
    "wof:name":"Flex Service",
    "wof:parent_id":85798691,
    "wof:placetype":"venue",
    "wof:superseded_by":[],
    "wof:supersedes":[],
    "wof:tags":[]
},
  "bbox": [6.097949,52.512424,6.097949,52.512424],
  "geometry": {"coordinates":[6.097949,52.512424],"type":"Point"}
}