{
  "id": 270469417,
  "type": "Feature",
  "properties": {
    "edtf:cessation":"u",
    "edtf:inception":"u",
    "geom:area":0.0,
    "geom:bbox":"5.856767,52.450611,5.856767,52.450611",
    "geom:latitude":52.450611,
    "geom:longitude":5.856767,
    "iso:country":"NL",
    "sg:address":"Hoekwant 45",
    "sg:city":"Elburg",
    "sg:classifiers":[
        {
            "category":"Education",
            "subcategory":"Preschool",
            "type":"Public Place"
        }
    ],
    "sg:owner":"simplegeo",
    "sg:phone":"+31 525 684 400",
    "sg:postcode":"8081 NB",
    "sg:province":"Gelderland",
    "sg:tags":[
        "kleuteronderwijs",
        "basis-"
    ],
    "src:geom":"simplegeo",
    "wof:belongsto":[
        85633337,
        101837809,
        85687043
    ],
    "wof:breaches":[],
    "wof:concordances":{
        "sg:id":"SG_1p0N1NCpCE5t5ZbUqOW10R_52.450611_5.856767@1306269966"
    },
    "wof:country":"NL",
    "wof:geomhash":"2be7433c78d80b1cd8585dfa09a8e00b",
    "wof:hierarchy":[
        {
            "continent_id":-1,
            "country_id":85633337,
            "locality_id":101837809,
            "neighbourhood_id":-1,
            "region_id":85687043,
            "venue_id":270469417
        }
    ],
    "wof:id":270469417,
    "wof:lastmodified":1449011157,
    "wof:name":"Agnietenschool",
    "wof:parent_id":-1,
    "wof:placetype":"venue",
    "wof:superseded_by":[],
    "wof:supersedes":[],
    "wof:tags":[
        "kleuteronderwijs",
        "basis-"
    ]
},
  "bbox": [5.856767,52.450611,5.856767,52.450611],
  "geometry": {"coordinates":[5.856767,52.450611],"type":"Point"}
}