{
  "id": 236460559,
  "type": "Feature",
  "properties": {
    "edtf:cessation":"u",
    "edtf:inception":"u",
    "geom:area":0.0,
    "geom:bbox":"5.755152,53.267258,5.755152,53.267258",
    "geom:latitude":53.267258,
    "geom:longitude":5.755152,
    "iso:country":"NL",
    "sg:address":"Trompethoarn 42",
    "sg:city":"Stiens",
    "sg:classifiers":[],
    "sg:orig_category":"Artsen - Huisartsen",
    "sg:owner":"simplegeo",
    "sg:phone":"+31 58 257 3407",
    "sg:postcode":"9051 MP",
    "sg:province":"Friesland",
    "sg:website":"http://www.noordhoek.praktijkinfo.nl",
    "src:geom":"simplegeo",
    "wof:belongsto":[
        85633337,
        101807465,
        85687055
    ],
    "wof:breaches":[],
    "wof:concordances":{
        "sg:id":"SG_03ZdQ57A3eKhSohXwQ2MDC_53.267258_5.755152@1306269938"
    },
    "wof:country":"NL",
    "wof:geomhash":"20f4ce25b4a1019dca49b9ffb4c50c16",
    "wof:hierarchy":[
        {
            "continent_id":-1,
            "country_id":85633337,
            "locality_id":101807465,
            "neighbourhood_id":-1,
            "region_id":85687055,
            "venue_id":236460559
        }
    ],
    "wof:id":236460559,
    "wof:lastmodified":1449005026,
    "wof:name":"Noordhoek, D J",
    "wof:parent_id":-1,
    "wof:placetype":"venue",
    "wof:superseded_by":[],
    "wof:supersedes":[],
    "wof:tags":[]
},
  "bbox": [5.755152,53.267258,5.755152,53.267258],
  "geometry": {"coordinates":[5.755152,53.267258],"type":"Point"}
}