{
  "id": 319851123,
  "type": "Feature",
  "properties": {
    "edtf:cessation":"u",
    "edtf:inception":"u",
    "geom:area":0.0,
    "geom:bbox":"6.660525,51.940411,6.660525,51.940411",
    "geom:latitude":51.940411,
    "geom:longitude":6.660525,
    "iso:country":"NL",
    "sg:address":"Binnenboomweg 10",
    "sg:city":"Winterswijk Miste",
    "sg:classifiers":[],
    "sg:orig_category":"Hout Gh",
    "sg:owner":"simplegeo",
    "sg:phone":"+31 543 565 261",
    "sg:postcode":"7109 BK",
    "sg:province":"Gelderland",
    "src:geom":"simplegeo",
    "wof:belongsto":[
        85633337,
        85687043
    ],
    "wof:breaches":[],
    "wof:concordances":{
        "sg:id":"SG_7CZMupzg4VpaWD10AIcRBt_51.940411_6.660525@1306269991"
    },
    "wof:country":"NL",
    "wof:geomhash":"df09219f4863e1da7d7039c2bacceeab",
    "wof:hierarchy":[
        {
            "continent_id":-1,
            "country_id":85633337,
            "locality_id":-1,
            "neighbourhood_id":-1,
            "region_id":85687043,
            "venue_id":319851123
        }
    ],
    "wof:id":319851123,
    "wof:lastmodified":1449024592,
    "wof:name":"W. Pampiermole",
    "wof:parent_id":-1,
    "wof:placetype":"venue",
    "wof:superseded_by":[],
    "wof:supersedes":[],
    "wof:tags":[]
},
  "bbox": [6.660525,51.940411,6.660525,51.940411],
  "geometry": {"coordinates":[6.660525,51.940411],"type":"Point"}
}