{
  "id": 320119835,
  "type": "Feature",
  "properties": {
    "edtf:cessation":"u",
    "edtf:inception":"u",
    "geom:area":0.0,
    "geom:bbox":"5.455167,51.437046,5.455167,51.437046",
    "geom:latitude":51.437046,
    "geom:longitude":5.455167,
    "iso:country":"NL",
    "sg:address":"Scherpakkerwg 1",
    "sg:city":"Eindhoven",
    "sg:classifiers":[
        {
            "category":"Retail",
            "subcategory":"Auto Repair",
            "type":"Services"
        }
    ],
    "sg:owner":"simplegeo",
    "sg:phone":"+31 40 252 1283",
    "sg:postcode":"5616 HP",
    "sg:province":"Noord-Brabant",
    "sg:tags":[
        "garage"
    ],
    "sg:website":"http://www.wamssportscars.nl",
    "src:geom":"simplegeo",
    "wof:belongsto":[
        85798481,
        85633337,
        101751819,
        85687035
    ],
    "wof:breaches":[],
    "wof:concordances":{
        "sg:id":"SG_3cPYyRBDmoc1AAfVDgLNhw_51.437046_5.455167@1306269995"
    },
    "wof:country":"NL",
    "wof:geomhash":"05962241259ee576d48b3fffc1c961db",
    "wof:hierarchy":[
        {
            "continent_id":-1,
            "country_id":85633337,
            "locality_id":101751819,
            "neighbourhood_id":85798481,
            "region_id":85687035,
            "venue_id":320119835
        }
    ],
    "wof:id":320119835,
    "wof:lastmodified":1449013933,
    "wof:name":"Wams",
    "wof:parent_id":85798481,
    "wof:placetype":"venue",
    "wof:superseded_by":[],
    "wof:supersedes":[],
    "wof:tags":[
        "garage"
    ]
},
  "bbox": [5.455167,51.437046,5.455167,51.437046],
  "geometry": {"coordinates":[5.455167,51.437046],"type":"Point"}
}