{
  "id": 202691037,
  "type": "Feature",
  "properties": {
    "edtf:cessation":"u",
    "edtf:inception":"u",
    "geom:area":0.0,
    "geom:bbox":"6.959475,52.984375,6.959475,52.984375",
    "geom:latitude":52.984375,
    "geom:longitude":6.959475,
    "iso:country":"NL",
    "sg:address":"Handelskd 27",
    "sg:city":"Stadskanaal",
    "sg:classifiers":[],
    "sg:orig_category":"Verloskundigen",
    "sg:owner":"simplegeo",
    "sg:phone":"+31 599 621 234",
    "sg:postcode":"9503 AB",
    "sg:province":"Groningen",
    "src:geom":"simplegeo",
    "wof:belongsto":[
        85633337,
        101837895,
        85687059
    ],
    "wof:breaches":[],
    "wof:concordances":{
        "sg:id":"SG_5Cv0xNzFrGLRMO0gyElS4U_52.984375_6.959475@1306269917"
    },
    "wof:country":"NL",
    "wof:geomhash":"0114e38369fbacdea09f9d6535d04a2b",
    "wof:hierarchy":[
        {
            "continent_id":-1,
            "country_id":85633337,
            "locality_id":101837895,
            "neighbourhood_id":-1,
            "region_id":85687059,
            "venue_id":202691037
        }
    ],
    "wof:id":202691037,
    "wof:lastmodified":1449060329,
    "wof:name":"Grakist, Verloskundige M E",
    "wof:parent_id":-1,
    "wof:placetype":"venue",
    "wof:superseded_by":[],
    "wof:supersedes":[],
    "wof:tags":[]
},
  "bbox": [6.959475,52.984375,6.959475,52.984375],
  "geometry": {"coordinates":[6.959475,52.984375],"type":"Point"}
}