{
  "id": 219749955,
  "type": "Feature",
  "properties": {
    "edtf:cessation":"u",
    "edtf:inception":"u",
    "geom:area":0.0,
    "geom:bbox":"6.128797,52.520779,6.128797,52.520779",
    "geom:latitude":52.520779,
    "geom:longitude":6.128797,
    "iso:country":"NL",
    "sg:address":"Boerendanserdk 2A",
    "sg:city":"Zwolle",
    "sg:classifiers":[],
    "sg:orig_category":"Adviesbureaus Bedrijfsorganisatie",
    "sg:owner":"simplegeo",
    "sg:phone":"+31 38 453 7885",
    "sg:postcode":"8024 AH",
    "sg:province":"Overijssel",
    "src:geom":"simplegeo",
    "wof:belongsto":[
        85797453,
        85633337,
        85687045
    ],
    "wof:breaches":[],
    "wof:concordances":{
        "sg:id":"SG_0f0VoPoR4ge6L4ZlIM4AqS_52.520779_6.128797@1306269928"
    },
    "wof:country":"NL",
    "wof:geomhash":"abe148927aefcb28043dc54324dcda8f",
    "wof:hierarchy":[
        {
            "continent_id":-1,
            "country_id":85633337,
            "locality_id":-1,
            "neighbourhood_id":85797453,
            "region_id":85687045,
            "venue_id":219749955
        }
    ],
    "wof:id":219749955,
    "wof:lastmodified":1449071412,
    "wof:name":"Buro Bedrijfsbeheer & Org",
    "wof:parent_id":85797453,
    "wof:placetype":"venue",
    "wof:superseded_by":[],
    "wof:supersedes":[],
    "wof:tags":[]
},
  "bbox": [6.128797,52.520779,6.128797,52.520779],
  "geometry": {"coordinates":[6.128797,52.520779],"type":"Point"}
}