{
  "id": 320499159,
  "type": "Feature",
  "properties": {
    "edtf:cessation":"u",
    "edtf:inception":"u",
    "geom:area":0.0,
    "geom:bbox":"6.270688,51.961578,6.270688,51.961578",
    "geom:latitude":51.961578,
    "geom:longitude":6.270688,
    "iso:country":"NL",
    "sg:address":"Wolborgenmate 66",
    "sg:city":"Doetinchem",
    "sg:classifiers":[],
    "sg:orig_category":"Grafisch Ontwerpers",
    "sg:owner":"simplegeo",
    "sg:phone":"+31 314 342 634",
    "sg:postcode":"7006 DJ",
    "sg:province":"Gelderland",
    "src:geom":"simplegeo",
    "wof:belongsto":[
        85797743,
        85633337,
        101808663,
        85687043
    ],
    "wof:breaches":[],
    "wof:concordances":{
        "sg:id":"SG_0jmSR4e4WNNhOAFcfTEwNO_51.961578_6.270688@1306269999"
    },
    "wof:country":"NL",
    "wof:geomhash":"2c1caabceac368504ee95ffa321992e5",
    "wof:hierarchy":[
        {
            "continent_id":-1,
            "country_id":85633337,
            "locality_id":101808663,
            "neighbourhood_id":85797743,
            "region_id":85687043,
            "venue_id":320499159
        }
    ],
    "wof:id":320499159,
    "wof:lastmodified":1449011967,
    "wof:name":"Veldkamp, H Th M",
    "wof:parent_id":85797743,
    "wof:placetype":"venue",
    "wof:superseded_by":[],
    "wof:supersedes":[],
    "wof:tags":[]
},
  "bbox": [6.270688,51.961578,6.270688,51.961578],
  "geometry": {"coordinates":[6.270688,51.961578],"type":"Point"}
}