{
  "id": 320738377,
  "type": "Feature",
  "properties": {
    "edtf:cessation":"u",
    "edtf:inception":"u",
    "geom:area":0.0,
    "geom:bbox":"4.858077,52.083694,4.858077,52.083694",
    "geom:latitude":52.083694,
    "geom:longitude":4.858077,
    "iso:country":"NL",
    "sg:address":"Gildenweg 9",
    "sg:city":"Woerden",
    "sg:classifiers":[],
    "sg:orig_category":"Zuivelproducten And Spijsoli?n Gh",
    "sg:owner":"simplegeo",
    "sg:phone":"+31 348 416 638",
    "sg:postcode":"3449 HT",
    "sg:province":"Utrecht",
    "src:geom":"simplegeo",
    "wof:belongsto":[
        85859935,
        85633337,
        101808435,
        85687039
    ],
    "wof:breaches":[],
    "wof:concordances":{
        "sg:id":"SG_2N0e1rXECHOVRZkpeVx2X5_52.083694_4.858077@1306270002"
    },
    "wof:country":"NL",
    "wof:geomhash":"40f1d78b9eac9d710553360deb22c1ae",
    "wof:hierarchy":[
        {
            "continent_id":-1,
            "country_id":85633337,
            "locality_id":101808435,
            "neighbourhood_id":85859935,
            "region_id":85687039,
            "venue_id":320738377
        }
    ],
    "wof:id":320738377,
    "wof:lastmodified":1449013994,
    "wof:name":"Bv Keurmeester Natuurkaas",
    "wof:parent_id":85859935,
    "wof:placetype":"venue",
    "wof:superseded_by":[],
    "wof:supersedes":[],
    "wof:tags":[]
},
  "bbox": [4.858077,52.083694,4.858077,52.083694],
  "geometry": {"coordinates":[4.858077,52.083694],"type":"Point"}
}