{
  "id": 236124481,
  "type": "Feature",
  "properties": {
    "edtf:cessation":"u",
    "edtf:inception":"u",
    "geom:area":0.0,
    "geom:bbox":"4.526623,52.010899,4.526623,52.010899",
    "geom:latitude":52.010899,
    "geom:longitude":4.526623,
    "iso:country":"NL",
    "sg:address":"Vermeerstr 38",
    "sg:city":"Bleiswyk",
    "sg:classifiers":[],
    "sg:orig_category":"Telecommunicatie - Apparatuur",
    "sg:owner":"simplegeo",
    "sg:phone":"+31 10 521 9378",
    "sg:postcode":"2665 XH",
    "sg:province":"Zuid-Holland",
    "src:geom":"simplegeo",
    "wof:belongsto":[
        85798199,
        85633337,
        101807025,
        85687041
    ],
    "wof:breaches":[],
    "wof:concordances":{
        "sg:id":"SG_0qVfRrjE8JkQAgrd44lLnf_52.010899_4.526623@1306269934"
    },
    "wof:country":"NL",
    "wof:geomhash":"d6474adbb56b6d63fdb2ca38f8297cb6",
    "wof:hierarchy":[
        {
            "continent_id":-1,
            "country_id":85633337,
            "locality_id":101807025,
            "neighbourhood_id":85798199,
            "region_id":85687041,
            "venue_id":236124481
        }
    ],
    "wof:id":236124481,
    "wof:lastmodified":1449004946,
    "wof:name":"Bredeborg",
    "wof:parent_id":85798199,
    "wof:placetype":"venue",
    "wof:superseded_by":[],
    "wof:supersedes":[],
    "wof:tags":[]
},
  "bbox": [4.526623,52.010899,4.526623,52.010899],
  "geometry": {"coordinates":[4.526623,52.010899],"type":"Point"}
}