{
  "id": 303430711,
  "type": "Feature",
  "properties": {
    "edtf:cessation":"u",
    "edtf:inception":"u",
    "geom:area":0.0,
    "geom:bbox":"4.65647,51.822247,4.65647,51.822247",
    "geom:latitude":51.822247,
    "geom:longitude":4.65647,
    "iso:country":"NL",
    "sg:address":"Hoendersekd 1",
    "sg:city":"Zwyndrecht",
    "sg:classifiers":[],
    "sg:orig_category":"Scholen Voor Basisonderwijs",
    "sg:owner":"simplegeo",
    "sg:phone":"+31 78 612 3033",
    "sg:postcode":"3332 KW",
    "sg:province":"Zuid-Holland",
    "src:geom":"simplegeo",
    "wof:belongsto":[
        85797875,
        85633337,
        101751841,
        85687041
    ],
    "wof:breaches":[],
    "wof:concordances":{
        "sg:id":"SG_38dttHJp4mZBD3GNIHVq5x_51.822247_4.656470@1306269983"
    },
    "wof:country":"NL",
    "wof:geomhash":"24051b97f9357cbe4ee7b8cd9b5c7fda",
    "wof:hierarchy":[
        {
            "continent_id":-1,
            "country_id":85633337,
            "locality_id":101751841,
            "neighbourhood_id":85797875,
            "region_id":85687041,
            "venue_id":303430711
        }
    ],
    "wof:id":303430711,
    "wof:lastmodified":1448999677,
    "wof:name":"Tandem Dalton/Openb, De",
    "wof:parent_id":85797875,
    "wof:placetype":"venue",
    "wof:superseded_by":[],
    "wof:supersedes":[],
    "wof:tags":[]
},
  "bbox": [4.65647,51.822247,4.65647,51.822247],
  "geometry": {"coordinates":[4.65647,51.822247],"type":"Point"}
}