{
  "id": 236697611,
  "type": "Feature",
  "properties": {
    "edtf:cessation":"u",
    "edtf:inception":"u",
    "geom:area":0.0,
    "geom:bbox":"4.289677,51.489201,4.289677,51.489201",
    "geom:latitude":51.489201,
    "geom:longitude":4.289677,
    "iso:country":"NL",
    "sg:address":"Antwerpsestr 69-71",
    "sg:city":"Bergen Op Zoom",
    "sg:classifiers":[],
    "sg:orig_category":"Automaterialen En Gereedschappen",
    "sg:owner":"simplegeo",
    "sg:phone":"+31 164 238 655",
    "sg:postcode":"4611 AC",
    "sg:province":"Noord-Brabant",
    "sg:website":"http://www.benlokkers.com",
    "src:geom":"simplegeo",
    "wof:belongsto":[
        85798057,
        85633337,
        101839323,
        85687035
    ],
    "wof:breaches":[],
    "wof:concordances":{
        "sg:id":"SG_6b0WEyRhYL3M3GkLtNWbCR_51.489201_4.289677@1306269940"
    },
    "wof:country":"NL",
    "wof:geomhash":"d5f410757482580c26770a74b6c9608b",
    "wof:hierarchy":[
        {
            "continent_id":-1,
            "country_id":85633337,
            "locality_id":101839323,
            "neighbourhood_id":85798057,
            "region_id":85687035,
            "venue_id":236697611
        }
    ],
    "wof:id":236697611,
    "wof:lastmodified":1449003788,
    "wof:name":"Ben Lokkers Automaterialen",
    "wof:parent_id":85798057,
    "wof:placetype":"venue",
    "wof:superseded_by":[],
    "wof:supersedes":[],
    "wof:tags":[]
},
  "bbox": [4.289677,51.489201,4.289677,51.489201],
  "geometry": {"coordinates":[4.289677,51.489201],"type":"Point"}
}