{
  "id": 219672457,
  "type": "Feature",
  "properties": {
    "edtf:cessation":"u",
    "edtf:inception":"u",
    "geom:area":0.0,
    "geom:bbox":"5.126751,51.827621,5.126751,51.827621",
    "geom:latitude":51.827621,
    "geom:longitude":5.126751,
    "iso:country":"NL",
    "sg:address":"Zworrelstr 44",
    "sg:city":"Herwijnen",
    "sg:classifiers":[],
    "sg:orig_category":"Administratie- En Boekhoudkantoren",
    "sg:owner":"simplegeo",
    "sg:phone":"+31 418 581 693",
    "sg:postcode":"4171 AJ",
    "sg:province":"Gelderland",
    "sg:website":"HTTP://www.kuyntjesjj.nl",
    "src:geom":"simplegeo",
    "wof:belongsto":[
        85633337,
        101808647,
        85687043
    ],
    "wof:breaches":[],
    "wof:concordances":{
        "sg:id":"SG_5PAgCc51qTX7InBBo8LfFF_51.827621_5.126751@1306269928"
    },
    "wof:country":"NL",
    "wof:geomhash":"9f817686bb2fd72b9b8bb5d4820458af",
    "wof:hierarchy":[
        {
            "continent_id":-1,
            "country_id":85633337,
            "locality_id":101808647,
            "neighbourhood_id":-1,
            "region_id":85687043,
            "venue_id":219672457
        }
    ],
    "wof:id":219672457,
    "wof:lastmodified":1449070614,
    "wof:name":"Kuyntjes, J J",
    "wof:parent_id":-1,
    "wof:placetype":"venue",
    "wof:superseded_by":[],
    "wof:supersedes":[],
    "wof:tags":[]
},
  "bbox": [5.126751,51.827621,5.126751,51.827621],
  "geometry": {"coordinates":[5.126751,51.827621],"type":"Point"}
}