{
  "id": 303301327,
  "type": "Feature",
  "properties": {
    "edtf:cessation":"u",
    "edtf:inception":"u",
    "geom:area":0.0,
    "geom:bbox":"5.887029,53.267715,5.887029,53.267715",
    "geom:latitude":53.267715,
    "geom:longitude":5.887029,
    "iso:country":"NL",
    "sg:address":"Van Sminiaweg 111",
    "sg:city":"Aldtsjerk",
    "sg:classifiers":[],
    "sg:orig_category":"Schilderwerk",
    "sg:owner":"simplegeo",
    "sg:phone":"+31 58 256 2971",
    "sg:postcode":"9064 KH",
    "sg:province":"Friesland",
    "src:geom":"simplegeo",
    "wof:belongsto":[
        85633337,
        85687055
    ],
    "wof:breaches":[],
    "wof:concordances":{
        "sg:id":"SG_635dj6Emc8XoQKcS2Sq9Du_53.267715_5.887029@1306269982"
    },
    "wof:country":"NL",
    "wof:geomhash":"1377dbbcd4ab3bddb2fc721ad8b6d287",
    "wof:hierarchy":[
        {
            "continent_id":-1,
            "country_id":85633337,
            "locality_id":-1,
            "neighbourhood_id":-1,
            "region_id":85687055,
            "venue_id":303301327
        }
    ],
    "wof:id":303301327,
    "wof:lastmodified":1448998735,
    "wof:name":"Watse Giesing Schildersbedrijf",
    "wof:parent_id":-1,
    "wof:placetype":"venue",
    "wof:superseded_by":[],
    "wof:supersedes":[],
    "wof:tags":[]
},
  "bbox": [5.887029,53.267715,5.887029,53.267715],
  "geometry": {"coordinates":[5.887029,53.267715],"type":"Point"}
}