{
  "id": 236490755,
  "type": "Feature",
  "properties": {
    "edtf:cessation":"u",
    "edtf:inception":"u",
    "geom:area":0.0,
    "geom:bbox":"6.77394,52.263618,6.77394,52.263618",
    "geom:latitude":52.263618,
    "geom:longitude":6.77394,
    "iso:country":"NL",
    "sg:address":"Geerdinkswg 139",
    "sg:city":"Hengelo Ov",
    "sg:classifiers":[],
    "sg:orig_category":"Artsen - Specialisten Plastische Chirurgie",
    "sg:owner":"simplegeo",
    "sg:phone":"+31 74 247 5041",
    "sg:postcode":"7555 DL",
    "sg:province":"Overijssel",
    "src:geom":"simplegeo",
    "wof:belongsto":[
        85798709,
        85633337,
        85687045
    ],
    "wof:breaches":[],
    "wof:concordances":{
        "sg:id":"SG_7OtMLlMvEzKWIe2KswaLXF_52.263618_6.773940@1306269938"
    },
    "wof:country":"NL",
    "wof:geomhash":"00d11c1148840fdb84edbc10fc7c7b7b",
    "wof:hierarchy":[
        {
            "continent_id":-1,
            "country_id":85633337,
            "locality_id":-1,
            "neighbourhood_id":85798709,
            "region_id":85687045,
            "venue_id":236490755
        }
    ],
    "wof:id":236490755,
    "wof:lastmodified":1449004842,
    "wof:name":"Cosmea",
    "wof:parent_id":85798709,
    "wof:placetype":"venue",
    "wof:superseded_by":[],
    "wof:supersedes":[],
    "wof:tags":[]
},
  "bbox": [6.77394,52.263618,6.77394,52.263618],
  "geometry": {"coordinates":[6.77394,52.263618],"type":"Point"}
}