{
  "id": 320158721,
  "type": "Feature",
  "properties": {
    "edtf:cessation":"u",
    "edtf:inception":"u",
    "geom:area":0.0,
    "geom:bbox":"5.677654,51.477982,5.677654,51.477982",
    "geom:latitude":51.477982,
    "geom:longitude":5.677654,
    "iso:country":"NL",
    "sg:address":"Hyacintstr 1",
    "sg:city":"Helmond",
    "sg:classifiers":[],
    "sg:orig_category":"Geluidsinstallaties - Verhuur",
    "sg:owner":"simplegeo",
    "sg:phone":"+31 492 542 330",
    "sg:postcode":"5701 WJ",
    "sg:province":"Noord-Brabant",
    "src:geom":"simplegeo",
    "wof:belongsto":[
        85798473,
        85633337,
        85687035
    ],
    "wof:breaches":[],
    "wof:concordances":{
        "sg:id":"SG_1FX1AH150qkSy8vekGZOBz_51.477982_5.677654@1306269995"
    },
    "wof:country":"NL",
    "wof:geomhash":"616dabe6738a145349c918b65653042d",
    "wof:hierarchy":[
        {
            "continent_id":-1,
            "country_id":85633337,
            "locality_id":-1,
            "neighbourhood_id":85798473,
            "region_id":85687035,
            "venue_id":320158721
        }
    ],
    "wof:id":320158721,
    "wof:lastmodified":1449013761,
    "wof:name":"Audio Light Service",
    "wof:parent_id":85798473,
    "wof:placetype":"venue",
    "wof:superseded_by":[],
    "wof:supersedes":[],
    "wof:tags":[]
},
  "bbox": [5.677654,51.477982,5.677654,51.477982],
  "geometry": {"coordinates":[5.677654,51.477982],"type":"Point"}
}