{
  "id": 320486849,
  "type": "Feature",
  "properties": {
    "edtf:cessation":"u",
    "edtf:inception":"u",
    "geom:area":0.0,
    "geom:bbox":"6.552216,53.216713,6.552216,53.216713",
    "geom:latitude":53.216713,
    "geom:longitude":6.552216,
    "iso:country":"NL",
    "sg:address":"H W Mesdagstr 39",
    "sg:city":"Groningen",
    "sg:classifiers":[],
    "sg:orig_category":"Grafisch Ontwerpers",
    "sg:owner":"simplegeo",
    "sg:phone":"+31 50 318 0872",
    "sg:postcode":"9718 HC",
    "sg:province":"Groningen",
    "src:geom":"simplegeo",
    "wof:belongsto":[
        85798579,
        85633337,
        101751909,
        85687059
    ],
    "wof:breaches":[],
    "wof:concordances":{
        "sg:id":"SG_4N29URdKSolgM3r4vL65jV_53.216713_6.552216@1306269999"
    },
    "wof:country":"NL",
    "wof:geomhash":"bf09330e72545528bacff939a19e9b46",
    "wof:hierarchy":[
        {
            "continent_id":-1,
            "country_id":85633337,
            "locality_id":101751909,
            "neighbourhood_id":85798579,
            "region_id":85687059,
            "venue_id":320486849
        }
    ],
    "wof:id":320486849,
    "wof:lastmodified":1449013342,
    "wof:name":"Kreulen Grafische Vormgeving, Hein",
    "wof:parent_id":85798579,
    "wof:placetype":"venue",
    "wof:superseded_by":[],
    "wof:supersedes":[],
    "wof:tags":[]
},
  "bbox": [6.552216,53.216713,6.552216,53.216713],
  "geometry": {"coordinates":[6.552216,53.216713],"type":"Point"}
}