{
  "id": 185689001,
  "type": "Feature",
  "properties": {
    "edtf:cessation":"u",
    "edtf:inception":"u",
    "geom:area":0.0,
    "geom:bbox":"4.718247,52.018188,4.718247,52.018188",
    "geom:latitude":52.018188,
    "geom:longitude":4.718247,
    "iso:country":"NL",
    "sg:address":"Warmoezierskade 1",
    "sg:city":"Gouda",
    "sg:classifiers":[],
    "sg:orig_category":"Keramiek - Fabrieken En Groothandel",
    "sg:owner":"simplegeo",
    "sg:phone":"+31 182 512 950",
    "sg:postcode":"2805 PR",
    "sg:province":"South Holland",
    "src:geom":"simplegeo",
    "wof:belongsto":[
        85797133,
        85633337,
        85687041
    ],
    "wof:breaches":[],
    "wof:concordances":{
        "sg:id":"SG_1H0Uy6YKWV1M6GdZfcMWkt_52.018188_4.718247@1306269907"
    },
    "wof:country":"NL",
    "wof:geomhash":"ca28cf1865d5cbaed4db86f509e1aeb4",
    "wof:hierarchy":[
        {
            "continent_id":-1,
            "country_id":85633337,
            "locality_id":-1,
            "neighbourhood_id":85797133,
            "region_id":85687041,
            "venue_id":185689001
        }
    ],
    "wof:id":185689001,
    "wof:lastmodified":1449007963,
    "wof:name":"Bonaparte",
    "wof:parent_id":85797133,
    "wof:placetype":"venue",
    "wof:superseded_by":[],
    "wof:supersedes":[],
    "wof:tags":[]
},
  "bbox": [4.718247,52.018188,4.718247,52.018188],
  "geometry": {"coordinates":[4.718247,52.018188],"type":"Point"}
}