{
  "id": 320456703,
  "type": "Feature",
  "properties": {
    "edtf:cessation":"u",
    "edtf:inception":"u",
    "geom:area":0.0,
    "geom:bbox":"6.076878,51.931618,6.076878,51.931618",
    "geom:latitude":51.931618,
    "geom:longitude":6.076878,
    "iso:country":"NL",
    "sg:address":"V Munsterstr 7",
    "sg:city":"Zevenaar",
    "sg:classifiers":[],
    "sg:orig_category":"Goud En Zilver",
    "sg:owner":"simplegeo",
    "sg:phone":"+31 6 53361335",
    "sg:postcode":"6901 AW",
    "sg:province":"Gelderland",
    "src:geom":"simplegeo",
    "wof:belongsto":[
        85798461,
        85633337,
        101809869,
        85687043
    ],
    "wof:breaches":[],
    "wof:concordances":{
        "sg:id":"SG_76Fni5xNaEC8tWLMHEiGr2_51.931618_6.076878@1306269998"
    },
    "wof:country":"NL",
    "wof:geomhash":"1e64e4486b75355eff5a3a90ca786004",
    "wof:hierarchy":[
        {
            "continent_id":-1,
            "country_id":85633337,
            "locality_id":101809869,
            "neighbourhood_id":85798461,
            "region_id":85687043,
            "venue_id":320456703
        }
    ],
    "wof:id":320456703,
    "wof:lastmodified":1449012373,
    "wof:name":"Peters, A F",
    "wof:parent_id":85798461,
    "wof:placetype":"venue",
    "wof:superseded_by":[],
    "wof:supersedes":[],
    "wof:tags":[]
},
  "bbox": [6.076878,51.931618,6.076878,51.931618],
  "geometry": {"coordinates":[6.076878,51.931618],"type":"Point"}
}