{
  "id": 270317599,
  "type": "Feature",
  "properties": {
    "edtf:cessation":"u",
    "edtf:inception":"u",
    "geom:area":0.0,
    "geom:bbox":"4.891839,52.371593,4.891839,52.371593",
    "geom:latitude":52.371593,
    "geom:longitude":4.891839,
    "iso:country":"NL",
    "sg:address":"Kalverstr 40-42",
    "sg:city":"Amsterdam",
    "sg:classifiers":[],
    "sg:orig_category":"Babyartikelen",
    "sg:owner":"simplegeo",
    "sg:phone":"+31 20 626 6392",
    "sg:postcode":"1012 PE",
    "sg:province":"North Holland",
    "src:geom":"simplegeo",
    "wof:belongsto":[
        85797363,
        85633337,
        101751893,
        85687053
    ],
    "wof:breaches":[],
    "wof:concordances":{
        "sg:id":"SG_6IUXn8yQIkTmKA3GumUViD_52.371593_4.891839@1306269964"
    },
    "wof:country":"NL",
    "wof:geomhash":"abdc019807de8d9d2b6c76b8d7047b39",
    "wof:hierarchy":[
        {
            "continent_id":-1,
            "country_id":85633337,
            "locality_id":101751893,
            "neighbourhood_id":85797363,
            "region_id":85687053,
            "venue_id":270317599
        }
    ],
    "wof:id":270317599,
    "wof:lastmodified":1449009743,
    "wof:name":"Pr?natal",
    "wof:parent_id":85797363,
    "wof:placetype":"venue",
    "wof:superseded_by":[],
    "wof:supersedes":[],
    "wof:tags":[]
},
  "bbox": [4.891839,52.371593,4.891839,52.371593],
  "geometry": {"coordinates":[4.891839,52.371593],"type":"Point"}
}