{
  "id": 236122033,
  "type": "Feature",
  "properties": {
    "edtf:cessation":"u",
    "edtf:inception":"u",
    "geom:area":0.0,
    "geom:bbox":"6.970155,52.215504,6.970155,52.215504",
    "geom:latitude":52.215504,
    "geom:longitude":6.970155,
    "iso:country":"NL",
    "sg:address":"Ledaln 71",
    "sg:city":"Enschede",
    "sg:classifiers":[],
    "sg:orig_category":"Tekstschrijversters",
    "sg:owner":"simplegeo",
    "sg:phone":"+31 53 476 9754",
    "sg:postcode":"7534 HN",
    "sg:province":"Overijssel",
    "src:geom":"simplegeo",
    "wof:belongsto":[
        85797713,
        85633337,
        85687045
    ],
    "wof:breaches":[],
    "wof:concordances":{
        "sg:id":"SG_4VFHl1v1ual34nQOCxqmiX_52.215504_6.970155@1306269934"
    },
    "wof:country":"NL",
    "wof:geomhash":"9e72cf88e8e8c9334c4c8e78a525d2dc",
    "wof:hierarchy":[
        {
            "continent_id":-1,
            "country_id":85633337,
            "locality_id":-1,
            "neighbourhood_id":85797713,
            "region_id":85687045,
            "venue_id":236122033
        }
    ],
    "wof:id":236122033,
    "wof:lastmodified":1449003537,
    "wof:name":"Zwart Op Wit",
    "wof:parent_id":85797713,
    "wof:placetype":"venue",
    "wof:superseded_by":[],
    "wof:supersedes":[],
    "wof:tags":[]
},
  "bbox": [6.970155,52.215504,6.970155,52.215504],
  "geometry": {"coordinates":[6.970155,52.215504],"type":"Point"}
}