{
  "id": 336952127,
  "type": "Feature",
  "properties": {
    "edtf:cessation":"u",
    "edtf:inception":"u",
    "geom:area":0.0,
    "geom:bbox":"4.762094,52.071407,4.762094,52.071407",
    "geom:latitude":52.071407,
    "geom:longitude":4.762094,
    "iso:country":"NL",
    "sg:address":"Griekenlandwg 5",
    "sg:city":"Bodegraven",
    "sg:classifiers":[
        {
            "category":"Retail",
            "subcategory":"Storage",
            "type":"Services"
        }
    ],
    "sg:owner":"simplegeo",
    "sg:phone":"+31 172 614 339",
    "sg:postcode":"2411 PZ",
    "sg:province":"Zuid-Holland",
    "sg:tags":[
        "op-",
        "en",
        "overslagbedrijven"
    ],
    "sg:website":"http://www.dammeslaban.nl",
    "src:geom":"simplegeo",
    "wof:belongsto":[
        85633337,
        101754619,
        85687041
    ],
    "wof:breaches":[],
    "wof:concordances":{
        "sg:id":"SG_7JlVejUe1oqVuuVFB28wj3_52.071407_4.762094@1306270007"
    },
    "wof:country":"NL",
    "wof:geomhash":"c187ff4138da313c3044817dec3d90b5",
    "wof:hierarchy":[
        {
            "continent_id":-1,
            "country_id":85633337,
            "locality_id":101754619,
            "neighbourhood_id":-1,
            "region_id":85687041,
            "venue_id":336952127
        }
    ],
    "wof:id":336952127,
    "wof:lastmodified":1448997709,
    "wof:name":"Dammes Laban",
    "wof:parent_id":-1,
    "wof:placetype":"venue",
    "wof:superseded_by":[],
    "wof:supersedes":[],
    "wof:tags":[
        "op-",
        "en",
        "overslagbedrijven"
    ]
},
  "bbox": [4.762094,52.071407,4.762094,52.071407],
  "geometry": {"coordinates":[4.762094,52.071407],"type":"Point"}
}