{
  "id": 253283809,
  "type": "Feature",
  "properties": {
    "edtf:cessation":"u",
    "edtf:inception":"u",
    "geom:area":0.0,
    "geom:bbox":"5.509948,51.442635,5.509948,51.442635",
    "geom:latitude":51.442635,
    "geom:longitude":5.509948,
    "iso:country":"NL",
    "sg:address":"Tongelresestraat 363",
    "sg:city":"Eindhoven",
    "sg:classifiers":[],
    "sg:orig_category":"Meubelzaken, Woning- And Keukeninrichting",
    "sg:owner":"simplegeo",
    "sg:phone":"+31 40 281 3377",
    "sg:postcode":"5642 NC",
    "sg:province":"North Brabant",
    "src:geom":"simplegeo",
    "wof:belongsto":[
        85797291,
        85633337,
        101751819,
        85687035
    ],
    "wof:breaches":[],
    "wof:concordances":{
        "sg:id":"SG_3oS2jaCFM0zmezxuMGTqgl_51.442635_5.509948@1306269948"
    },
    "wof:country":"NL",
    "wof:geomhash":"422aa08308b5cc0b6e4bc2192617758f",
    "wof:hierarchy":[
        {
            "continent_id":-1,
            "country_id":85633337,
            "locality_id":101751819,
            "neighbourhood_id":85797291,
            "region_id":85687035,
            "venue_id":253283809
        }
    ],
    "wof:id":253283809,
    "wof:lastmodified":1449063689,
    "wof:name":"Het Vlechthuis",
    "wof:parent_id":85797291,
    "wof:placetype":"venue",
    "wof:superseded_by":[],
    "wof:supersedes":[],
    "wof:tags":[]
},
  "bbox": [5.509948,51.442635,5.509948,51.442635],
  "geometry": {"coordinates":[5.509948,51.442635],"type":"Point"}
}