{
  "id": 320262839,
  "type": "Feature",
  "properties": {
    "edtf:cessation":"u",
    "edtf:inception":"u",
    "geom:area":0.0,
    "geom:bbox":"-117.469833,47.229286,-117.469833,47.229286",
    "geom:latitude":47.229286,
    "geom:longitude":-117.469833,
    "iso:country":"NL",
    "sg:address":"De Haspel 9",
    "sg:city":"Malden",
    "sg:classifiers":[],
    "sg:orig_category":"Glaszetten",
    "sg:owner":"simplegeo",
    "sg:phone":"+31 24 358 1229",
    "sg:postcode":"6581 WV",
    "sg:province":"Gelderland",
    "src:geom":"simplegeo",
    "wof:belongsto":[
        85688623,
        85633793,
        102085369,
        85844683
    ],
    "wof:breaches":[],
    "wof:concordances":{
        "sg:id":"SG_0KNdmRUnICrwbrGr98kAay_47.229286_-117.469833@1306269996"
    },
    "wof:country":"NL",
    "wof:geomhash":"cea181befeb482b65438b4897a169994",
    "wof:hierarchy":[
        {
            "continent_id":-1,
            "country_id":85633793,
            "county_id":102085369,
            "locality_id":-1,
            "neighbourhood_id":85844683,
            "region_id":85688623,
            "venue_id":320262839
        }
    ],
    "wof:id":320262839,
    "wof:lastmodified":1449013567,
    "wof:name":"G.W. Van Leth",
    "wof:parent_id":85844683,
    "wof:placetype":"venue",
    "wof:superseded_by":[],
    "wof:supersedes":[],
    "wof:tags":[]
},
  "bbox": [-117.469833,47.229286,-117.469833,47.229286],
  "geometry": {"coordinates":[-117.469833,47.229286],"type":"Point"}
}