{
  "id": 186574855,
  "type": "Feature",
  "properties": {
    "edtf:cessation":"u",
    "edtf:inception":"u",
    "geom:area":0.0,
    "geom:bbox":"3.87846,51.471062,3.87846,51.471062",
    "geom:latitude":51.471062,
    "geom:longitude":3.87846,
    "iso:country":"NL",
    "sg:address":"Vd Plasschestr 33",
    "sg:city":"S Heer Abtskerke",
    "sg:classifiers":[],
    "sg:orig_category":"Verenigingsgebouwen",
    "sg:owner":"simplegeo",
    "sg:phone":"+31 113 312 187",
    "sg:postcode":"4444 AG",
    "sg:province":"Zeeland",
    "src:geom":"simplegeo",
    "wof:belongsto":[
        85633337,
        85687037
    ],
    "wof:breaches":[],
    "wof:concordances":{
        "sg:id":"SG_3tBfA8aaLFrMf9gFz6Rksc_51.471062_3.878460@1306269914"
    },
    "wof:country":"NL",
    "wof:geomhash":"5ae3dd2bcf28b450d9cc9267e21573cd",
    "wof:hierarchy":[
        {
            "continent_id":-1,
            "country_id":85633337,
            "locality_id":-1,
            "neighbourhood_id":-1,
            "region_id":85687037,
            "venue_id":186574855
        }
    ],
    "wof:id":186574855,
    "wof:lastmodified":1449050237,
    "wof:name":"Dorpshuis Versvliet",
    "wof:parent_id":-1,
    "wof:placetype":"venue",
    "wof:superseded_by":[],
    "wof:supersedes":[],
    "wof:tags":[]
},
  "bbox": [3.87846,51.471062,3.87846,51.471062],
  "geometry": {"coordinates":[3.87846,51.471062],"type":"Point"}
}