{
  "id": 202440589,
  "type": "Feature",
  "properties": {
    "edtf:cessation":"u",
    "edtf:inception":"u",
    "geom:area":0.0,
    "geom:bbox":"3.929624,51.651772,3.929624,51.651772",
    "geom:latitude":51.651772,
    "geom:longitude":3.929624,
    "iso:country":"NL",
    "sg:address":"Fokkerstraat 5",
    "sg:city":"Zierikzee",
    "sg:classifiers":[],
    "sg:orig_category":"Verhuur Audiovisuele Apparatuur",
    "sg:owner":"simplegeo",
    "sg:phone":"+31 111 415 050",
    "sg:postcode":"4301 MD",
    "sg:province":"Zeeland",
    "src:geom":"simplegeo",
    "wof:belongsto":[
        85633337,
        101808413,
        85687037
    ],
    "wof:breaches":[],
    "wof:concordances":{
        "sg:id":"SG_0QHBkxuxDptXdsmmdi8yNN_51.651772_3.929624@1306269915"
    },
    "wof:country":"NL",
    "wof:geomhash":"22e7e8a67fbc7ed3a0e5fde33cdd039c",
    "wof:hierarchy":[
        {
            "continent_id":-1,
            "country_id":85633337,
            "locality_id":101808413,
            "neighbourhood_id":-1,
            "region_id":85687037,
            "venue_id":202440589
        }
    ],
    "wof:id":202440589,
    "wof:lastmodified":1449060999,
    "wof:name":"Unlimited Geluid",
    "wof:parent_id":-1,
    "wof:placetype":"venue",
    "wof:superseded_by":[],
    "wof:supersedes":[],
    "wof:tags":[]
},
  "bbox": [3.929624,51.651772,3.929624,51.651772],
  "geometry": {"coordinates":[3.929624,51.651772],"type":"Point"}
}