{
  "id": 202697445,
  "type": "Feature",
  "properties": {
    "edtf:cessation":"u",
    "edtf:inception":"u",
    "geom:area":0.0,
    "geom:bbox":"5.99809,52.87521,5.99809,52.87521",
    "geom:latitude":52.87521,
    "geom:longitude":5.99809,
    "iso:country":"NL",
    "sg:address":"Spoorsngl 1",
    "sg:city":"Wolvega",
    "sg:classifiers":[],
    "sg:orig_category":"Verloskundigen",
    "sg:owner":"simplegeo",
    "sg:phone":"+31 561 613 420",
    "sg:postcode":"8471 AN",
    "sg:province":"Provincie Friesland",
    "src:geom":"simplegeo",
    "wof:belongsto":[
        85633337,
        101808823,
        85687055
    ],
    "wof:breaches":[],
    "wof:concordances":{
        "sg:id":"SG_60dxg0dtvFNgXsMbmaabyU_52.875210_5.998090@1306269917"
    },
    "wof:country":"NL",
    "wof:geomhash":"77dd2a5566b5ba9b23e011488b782b44",
    "wof:hierarchy":[
        {
            "continent_id":-1,
            "country_id":85633337,
            "locality_id":101808823,
            "neighbourhood_id":-1,
            "region_id":85687055,
            "venue_id":202697445
        }
    ],
    "wof:id":202697445,
    "wof:lastmodified":1449061692,
    "wof:name":"Verloskundige Prakt Weststellingwerf",
    "wof:parent_id":-1,
    "wof:placetype":"venue",
    "wof:superseded_by":[],
    "wof:supersedes":[],
    "wof:tags":[]
},
  "bbox": [5.99809,52.87521,5.99809,52.87521],
  "geometry": {"coordinates":[5.99809,52.87521],"type":"Point"}
}