{
  "id": 202725483,
  "type": "Feature",
  "properties": {
    "edtf:cessation":"u",
    "edtf:inception":"u",
    "geom:area":0.0,
    "geom:bbox":"5.127762,52.217834,5.127762,52.217834",
    "geom:latitude":52.217834,
    "geom:longitude":5.127762,
    "iso:country":"NL",
    "sg:address":"Willibrordusln 102",
    "sg:city":"Hilversum",
    "sg:classifiers":[],
    "sg:orig_category":"Verpakkingsbedrijven",
    "sg:owner":"simplegeo",
    "sg:phone":"+31 35 623 8946",
    "sg:postcode":"1216 PD",
    "sg:province":"Noord-Holland",
    "src:geom":"simplegeo",
    "wof:belongsto":[
        85797793,
        85633337,
        85687053
    ],
    "wof:breaches":[],
    "wof:concordances":{
        "sg:id":"SG_1iBbmP21dHXopeUzXqmsMe_52.217834_5.127762@1306269917"
    },
    "wof:country":"NL",
    "wof:geomhash":"6028d98138f0839f45c72f04ad56276d",
    "wof:hierarchy":[
        {
            "continent_id":-1,
            "country_id":85633337,
            "locality_id":-1,
            "neighbourhood_id":85797793,
            "region_id":85687053,
            "venue_id":202725483
        }
    ],
    "wof:id":202725483,
    "wof:lastmodified":1449060733,
    "wof:name":"Erintra",
    "wof:parent_id":85797793,
    "wof:placetype":"venue",
    "wof:superseded_by":[],
    "wof:supersedes":[],
    "wof:tags":[]
},
  "bbox": [5.127762,52.217834,5.127762,52.217834],
  "geometry": {"coordinates":[5.127762,52.217834],"type":"Point"}
}