{
  "id": 253565659,
  "type": "Feature",
  "properties": {
    "edtf:cessation":"u",
    "edtf:inception":"u",
    "geom:area":0.0,
    "geom:bbox":"4.35183,51.984341,4.35183,51.984341",
    "geom:latitude":51.984341,
    "geom:longitude":4.35183,
    "iso:country":"NL",
    "sg:address":"Latyns Amerikaln 30",
    "sg:city":"Delft",
    "sg:classifiers":[
        {
            "category":"Personal",
            "subcategory":"Nail Salon",
            "type":"Services"
        }
    ],
    "sg:owner":"simplegeo",
    "sg:phone":"+31 15 261 5984",
    "sg:postcode":"2622 BC",
    "sg:province":"Zuid-Holland",
    "sg:tags":[
        "pedicure"
    ],
    "src:geom":"simplegeo",
    "wof:belongsto":[
        85797219,
        85633337,
        101752765,
        85687041
    ],
    "wof:breaches":[],
    "wof:concordances":{
        "sg:id":"SG_48JzHi34XLGASOozuZE9l7_51.984341_4.351830@1306269951"
    },
    "wof:country":"NL",
    "wof:geomhash":"3029c32c87db4dfa2256aeff9824cf5f",
    "wof:hierarchy":[
        {
            "continent_id":-1,
            "country_id":85633337,
            "locality_id":101752765,
            "neighbourhood_id":85797219,
            "region_id":85687041,
            "venue_id":253565659
        }
    ],
    "wof:id":253565659,
    "wof:lastmodified":1449065522,
    "wof:name":"Look, Joke Van",
    "wof:parent_id":85797219,
    "wof:placetype":"venue",
    "wof:superseded_by":[],
    "wof:supersedes":[],
    "wof:tags":[
        "pedicure"
    ]
},
  "bbox": [4.35183,51.984341,4.35183,51.984341],
  "geometry": {"coordinates":[4.35183,51.984341],"type":"Point"}
}