{
  "id": 320611873,
  "type": "Feature",
  "properties": {
    "edtf:cessation":"u",
    "edtf:inception":"u",
    "geom:area":0.0,
    "geom:bbox":"5.449769,52.199806,5.449769,52.199806",
    "geom:latitude":52.199806,
    "geom:longitude":5.449769,
    "iso:country":"NL",
    "sg:address":"Domstr 57A",
    "sg:city":"Nykerkerveen",
    "sg:classifiers":[],
    "sg:orig_category":"Grondwerken",
    "sg:owner":"simplegeo",
    "sg:phone":"+31 33 258 0109",
    "sg:postcode":"3864 PN",
    "sg:province":"Gelderland",
    "src:geom":"simplegeo",
    "wof:belongsto":[
        85633337,
        85687043
    ],
    "wof:breaches":[],
    "wof:concordances":{
        "sg:id":"SG_6JFkksjwFxQZe27P0GgbcO_52.199806_5.449769@1306270000"
    },
    "wof:country":"NL",
    "wof:geomhash":"334b0389b58f6fb0d29d7c278074baf2",
    "wof:hierarchy":[
        {
            "continent_id":-1,
            "country_id":85633337,
            "locality_id":-1,
            "neighbourhood_id":-1,
            "region_id":85687043,
            "venue_id":320611873
        }
    ],
    "wof:id":320611873,
    "wof:lastmodified":1449014175,
    "wof:name":"Burg, H Van Den",
    "wof:parent_id":-1,
    "wof:placetype":"venue",
    "wof:superseded_by":[],
    "wof:supersedes":[],
    "wof:tags":[]
},
  "bbox": [5.449769,52.199806,5.449769,52.199806],
  "geometry": {"coordinates":[5.449769,52.199806],"type":"Point"}
}