{
  "id": 236604021,
  "type": "Feature",
  "properties": {
    "edtf:cessation":"u",
    "edtf:inception":"u",
    "geom:area":0.0,
    "geom:bbox":"5.717646,50.817402,5.717646,50.817402",
    "geom:latitude":50.817402,
    "geom:longitude":5.717646,
    "iso:country":"NL",
    "sg:address":"Groenvinkstraat 17",
    "sg:city":"Maastricht",
    "sg:classifiers":[],
    "sg:orig_category":"Autokeuringen",
    "sg:owner":"simplegeo",
    "sg:phone":"+31 43 408 2252",
    "sg:postcode":"6229 VH",
    "sg:province":"Limburg",
    "src:geom":"simplegeo",
    "wof:belongsto":[
        85797317,
        85633337,
        85687033
    ],
    "wof:breaches":[],
    "wof:concordances":{
        "sg:id":"SG_4ZIFO33cKvqbbZjaQzpLJz_50.817402_5.717646@1306269939"
    },
    "wof:country":"NL",
    "wof:geomhash":"99dec77640dec7159451820c5519a39e",
    "wof:hierarchy":[
        {
            "continent_id":-1,
            "country_id":85633337,
            "locality_id":-1,
            "neighbourhood_id":85797317,
            "region_id":85687033,
            "venue_id":236604021
        }
    ],
    "wof:id":236604021,
    "wof:lastmodified":1449004785,
    "wof:name":"J. Snijders",
    "wof:parent_id":85797317,
    "wof:placetype":"venue",
    "wof:superseded_by":[],
    "wof:supersedes":[],
    "wof:tags":[]
},
  "bbox": [5.717646,50.817402,5.717646,50.817402],
  "geometry": {"coordinates":[5.717646,50.817402],"type":"Point"}
}