{
  "id": 202415503,
  "type": "Feature",
  "properties": {
    "edtf:cessation":"u",
    "edtf:inception":"u",
    "geom:area":0.0,
    "geom:bbox":"5.569642,51.929913,5.569642,51.929913",
    "geom:latitude":51.929913,
    "geom:longitude":5.569642,
    "iso:country":"NL",
    "sg:address":"Fruitstr 30",
    "sg:city":"Kesteren",
    "sg:classifiers":[],
    "sg:orig_category":"Verhuizingen",
    "sg:owner":"simplegeo",
    "sg:phone":"+31 6 20231636",
    "sg:postcode":"4041 AJ",
    "sg:province":"Gelderland",
    "sg:website":"http://www.leeuw-verhuiscare.nl",
    "src:geom":"simplegeo",
    "wof:belongsto":[
        85633337,
        101808713,
        85687043
    ],
    "wof:breaches":[],
    "wof:concordances":{
        "sg:id":"SG_3ziMMsOjTlUGxrWIkmVrx5_51.929913_5.569642@1306269915"
    },
    "wof:country":"NL",
    "wof:geomhash":"e65982cdb3d1241d22fe49b22ca153df",
    "wof:hierarchy":[
        {
            "continent_id":-1,
            "country_id":85633337,
            "locality_id":101808713,
            "neighbourhood_id":-1,
            "region_id":85687043,
            "venue_id":202415503
        }
    ],
    "wof:id":202415503,
    "wof:lastmodified":1449061932,
    "wof:name":"Leeuw Transport, G De",
    "wof:parent_id":-1,
    "wof:placetype":"venue",
    "wof:superseded_by":[],
    "wof:supersedes":[],
    "wof:tags":[]
},
  "bbox": [5.569642,51.929913,5.569642,51.929913],
  "geometry": {"coordinates":[5.569642,51.929913],"type":"Point"}
}