{
  "id": 336630757,
  "type": "Feature",
  "properties": {
    "edtf:cessation":"u",
    "edtf:inception":"u",
    "geom:area":0.0,
    "geom:bbox":"5.226807,52.254612,5.226807,52.254612",
    "geom:latitude":52.254612,
    "geom:longitude":5.226807,
    "iso:country":"NL",
    "sg:address":"St Janstr 9",
    "sg:city":"Laren Nh",
    "sg:classifiers":[],
    "sg:orig_category":"Juweliers",
    "sg:owner":"simplegeo",
    "sg:phone":"+31 35 685 1255",
    "sg:postcode":"1251 KX",
    "sg:province":"North Holland",
    "src:geom":"simplegeo",
    "wof:belongsto":[
        85798173,
        85633337,
        101837933,
        85687053
    ],
    "wof:breaches":[],
    "wof:concordances":{
        "sg:id":"SG_4fQL3cqzGLZk97J9iaD4rN_52.254612_5.226807@1306270003"
    },
    "wof:country":"NL",
    "wof:geomhash":"866ba8d82a7fdb33e7d508a3e8f8b47b",
    "wof:hierarchy":[
        {
            "continent_id":-1,
            "country_id":85633337,
            "locality_id":101837933,
            "neighbourhood_id":85798173,
            "region_id":85687053,
            "venue_id":336630757
        }
    ],
    "wof:id":336630757,
    "wof:lastmodified":1448997311,
    "wof:name":"Ren? Kahl?",
    "wof:parent_id":85798173,
    "wof:placetype":"venue",
    "wof:superseded_by":[],
    "wof:supersedes":[],
    "wof:tags":[]
},
  "bbox": [5.226807,52.254612,5.226807,52.254612],
  "geometry": {"coordinates":[5.226807,52.254612],"type":"Point"}
}