{
  "id": 202780177,
  "type": "Feature",
  "properties": {
    "edtf:cessation":"u",
    "edtf:inception":"u",
    "geom:area":0.0,
    "geom:bbox":"4.478114,51.959927,4.478114,51.959927",
    "geom:latitude":51.959927,
    "geom:longitude":4.478114,
    "iso:country":"NL",
    "sg:address":"Adrianalaan 78",
    "sg:city":"Rotterdam",
    "sg:classifiers":[],
    "sg:orig_category":"Vertaal- And Tolkenbureaus",
    "sg:owner":"simplegeo",
    "sg:phone":"+31 10 218 0180",
    "sg:postcode":"3053 WE",
    "sg:province":"Zuid-Holland",
    "src:geom":"simplegeo",
    "wof:belongsto":[
        85797723,
        85633337,
        85687041
    ],
    "wof:breaches":[],
    "wof:concordances":{
        "sg:id":"SG_4jLVNnSRtux6K53OMATlRY_51.959927_4.478114@1306269918"
    },
    "wof:country":"NL",
    "wof:geomhash":"a91e2cecddfa3bc3d1c0402528bd707a",
    "wof:hierarchy":[
        {
            "continent_id":-1,
            "country_id":85633337,
            "locality_id":-1,
            "neighbourhood_id":85797723,
            "region_id":85687041,
            "venue_id":202780177
        }
    ],
    "wof:id":202780177,
    "wof:lastmodified":1449062009,
    "wof:name":"J C C Koning-Corveleijn",
    "wof:parent_id":85797723,
    "wof:placetype":"venue",
    "wof:superseded_by":[],
    "wof:supersedes":[],
    "wof:tags":[]
},
  "bbox": [4.478114,51.959927,4.478114,51.959927],
  "geometry": {"coordinates":[4.478114,51.959927],"type":"Point"}
}