{
  "id": 219374711,
  "type": "Feature",
  "properties": {
    "edtf:cessation":"u",
    "edtf:inception":"u",
    "geom:area":0.0,
    "geom:bbox":"5.21263,51.370548,5.21263,51.370548",
    "geom:latitude":51.370548,
    "geom:longitude":5.21263,
    "iso:country":"NL",
    "sg:address":"Helleneind 7",
    "sg:city":"Bladel",
    "sg:classifiers":[],
    "sg:orig_category":"Loodgieterswerk, Verwarming And Sanitaire Installaties",
    "sg:owner":"simplegeo",
    "sg:phone":"+31 497 382 541",
    "sg:postcode":"5531 BS",
    "sg:province":"North Brabant",
    "src:geom":"simplegeo",
    "wof:belongsto":[
        85633337,
        101810317,
        85687035
    ],
    "wof:breaches":[],
    "wof:concordances":{
        "sg:id":"SG_0N8LogXJvRC0icfuUXzWhP_51.370548_5.212630@1306269925"
    },
    "wof:country":"NL",
    "wof:geomhash":"81a02f4b22c44ca939295e924dd89301",
    "wof:hierarchy":[
        {
            "continent_id":-1,
            "country_id":85633337,
            "locality_id":101810317,
            "neighbourhood_id":-1,
            "region_id":85687035,
            "venue_id":219374711
        }
    ],
    "wof:id":219374711,
    "wof:lastmodified":1449071930,
    "wof:name":"V. Es. J.P.M.",
    "wof:parent_id":-1,
    "wof:placetype":"venue",
    "wof:superseded_by":[],
    "wof:supersedes":[],
    "wof:tags":[]
},
  "bbox": [5.21263,51.370548,5.21263,51.370548],
  "geometry": {"coordinates":[5.21263,51.370548],"type":"Point"}
}