{
  "id": 219543953,
  "type": "Feature",
  "properties": {
    "edtf:cessation":"u",
    "edtf:inception":"u",
    "geom:area":0.0,
    "geom:bbox":"5.139885,51.489845,5.139885,51.489845",
    "geom:latitude":51.489845,
    "geom:longitude":5.139885,
    "iso:country":"NL",
    "sg:address":"Kornet 6",
    "sg:city":"Hilvarenbeek",
    "sg:classifiers":[],
    "sg:orig_category":"Administratie- En Boekhoudkantoren",
    "sg:owner":"simplegeo",
    "sg:phone":"+31 13 505 2623",
    "sg:postcode":"5081 XL",
    "sg:province":"Noord-Brabant",
    "src:geom":"simplegeo",
    "wof:belongsto":[
        85633337,
        101809705,
        85687035
    ],
    "wof:breaches":[],
    "wof:concordances":{
        "sg:id":"SG_7NqBw3rThi5ScFzLjjwVdS_51.489845_5.139885@1306269927"
    },
    "wof:country":"NL",
    "wof:geomhash":"8e085fb8ad37a3670b94621a4168589d",
    "wof:hierarchy":[
        {
            "continent_id":-1,
            "country_id":85633337,
            "locality_id":101809705,
            "neighbourhood_id":-1,
            "region_id":85687035,
            "venue_id":219543953
        }
    ],
    "wof:id":219543953,
    "wof:lastmodified":1449071083,
    "wof:name":"Aab",
    "wof:parent_id":-1,
    "wof:placetype":"venue",
    "wof:superseded_by":[],
    "wof:supersedes":[],
    "wof:tags":[]
},
  "bbox": [5.139885,51.489845,5.139885,51.489845],
  "geometry": {"coordinates":[5.139885,51.489845],"type":"Point"}
}