{
  "id": 269652063,
  "type": "Feature",
  "properties": {
    "edtf:cessation":"u",
    "edtf:inception":"u",
    "geom:area":0.0,
    "geom:bbox":"4.778779,52.787544,4.778779,52.787544",
    "geom:latitude":52.787544,
    "geom:longitude":4.778779,
    "iso:country":"NL",
    "sg:address":"Eksterstr 65",
    "sg:city":"Schagen",
    "sg:classifiers":[],
    "sg:orig_category":"Psychotherapeuten",
    "sg:owner":"simplegeo",
    "sg:phone":"+31 224 298 374",
    "sg:postcode":"1742 EN",
    "sg:province":"Noord-Holland",
    "src:geom":"simplegeo",
    "wof:belongsto":[
        85633337,
        101807377,
        85687053
    ],
    "wof:breaches":[],
    "wof:concordances":{
        "sg:id":"SG_4oeQGnIc0yjderkJQtSLM7_52.787544_4.778779@1306269955"
    },
    "wof:country":"NL",
    "wof:geomhash":"a8095ee69b15d46043bdae3132dace31",
    "wof:hierarchy":[
        {
            "continent_id":-1,
            "country_id":85633337,
            "locality_id":101807377,
            "neighbourhood_id":-1,
            "region_id":85687053,
            "venue_id":269652063
        }
    ],
    "wof:id":269652063,
    "wof:lastmodified":1449037673,
    "wof:name":"Geel, W",
    "wof:parent_id":-1,
    "wof:placetype":"venue",
    "wof:superseded_by":[],
    "wof:supersedes":[],
    "wof:tags":[]
},
  "bbox": [4.778779,52.787544,4.778779,52.787544],
  "geometry": {"coordinates":[4.778779,52.787544],"type":"Point"}
}