{
  "id": 336800139,
  "type": "Feature",
  "properties": {
    "edtf:cessation":"u",
    "edtf:inception":"u",
    "geom:area":0.0,
    "geom:bbox":"6.706958,52.261856,6.706958,52.261856",
    "geom:latitude":52.261856,
    "geom:longitude":6.706958,
    "iso:country":"NL",
    "sg:address":"Langestr 79A",
    "sg:city":"Delden",
    "sg:classifiers":[],
    "sg:orig_category":"Omroep",
    "sg:owner":"simplegeo",
    "sg:phone":"+31 74 376 4949",
    "sg:postcode":"7491 AB",
    "sg:province":"Overijssel",
    "src:geom":"simplegeo",
    "wof:belongsto":[
        85798709,
        85633337,
        85687045
    ],
    "wof:breaches":[],
    "wof:concordances":{
        "sg:id":"SG_6UKmd3K8aebkBtH3JKdQUx_52.261856_6.706958@1306270006"
    },
    "wof:country":"NL",
    "wof:geomhash":"b28af58d2a105e1d3043eb6f2a83105b",
    "wof:hierarchy":[
        {
            "continent_id":-1,
            "country_id":85633337,
            "locality_id":-1,
            "neighbourhood_id":85798709,
            "region_id":85687045,
            "venue_id":336800139
        }
    ],
    "wof:id":336800139,
    "wof:lastmodified":1448997013,
    "wof:name":"Twickelstad",
    "wof:parent_id":85798709,
    "wof:placetype":"venue",
    "wof:superseded_by":[],
    "wof:supersedes":[],
    "wof:tags":[]
},
  "bbox": [6.706958,52.261856,6.706958,52.261856],
  "geometry": {"coordinates":[6.706958,52.261856],"type":"Point"}
}