{
  "id": 270487551,
  "type": "Feature",
  "properties": {
    "edtf:cessation":"u",
    "edtf:inception":"u",
    "geom:area":0.0,
    "geom:bbox":"5.271835,51.720615,5.271835,51.720615",
    "geom:latitude":51.720615,
    "geom:longitude":5.271835,
    "iso:country":"NL",
    "sg:address":"De Beverspijken 2",
    "sg:city":"Den Bosch",
    "sg:classifiers":[
        {
            "category":"Education",
            "subcategory":"Preschool",
            "type":"Public Place"
        }
    ],
    "sg:owner":"simplegeo",
    "sg:phone":"+31 73 631 2805",
    "sg:postcode":"5221 ED",
    "sg:province":"North Brabant",
    "sg:tags":[
        "kleuteronderwijs",
        "basis-"
    ],
    "src:geom":"simplegeo",
    "wof:belongsto":[
        85798205,
        85633337,
        101751809,
        85687035
    ],
    "wof:breaches":[],
    "wof:concordances":{
        "sg:id":"SG_3K6FKIBhjw2OFTcdJMGipC_51.720615_5.271835@1306269966"
    },
    "wof:country":"NL",
    "wof:geomhash":"efe00f2ca4d018301e1d98c37877afe6",
    "wof:hierarchy":[
        {
            "continent_id":-1,
            "country_id":85633337,
            "locality_id":101751809,
            "neighbourhood_id":85798205,
            "region_id":85687035,
            "venue_id":270487551
        }
    ],
    "wof:id":270487551,
    "wof:lastmodified":1449009431,
    "wof:name":"Career Centre Onderwijs",
    "wof:parent_id":85798205,
    "wof:placetype":"venue",
    "wof:superseded_by":[],
    "wof:supersedes":[],
    "wof:tags":[
        "kleuteronderwijs",
        "basis-"
    ]
},
  "bbox": [5.271835,51.720615,5.271835,51.720615],
  "geometry": {"coordinates":[5.271835,51.720615],"type":"Point"}
}