{
  "id": 185972357,
  "type": "Feature",
  "properties": {
    "edtf:cessation":"u",
    "edtf:inception":"u",
    "geom:area":0.0,
    "geom:bbox":"6.105165,52.523289,6.105165,52.523289",
    "geom:latitude":52.523289,
    "geom:longitude":6.105165,
    "iso:country":"NL",
    "sg:address":"G Grootestr 1",
    "sg:city":"Zwolle",
    "sg:classifiers":[],
    "sg:orig_category":"Kinderopvang",
    "sg:owner":"simplegeo",
    "sg:phone":"+31 38 453 9594",
    "sg:postcode":"8022 CG",
    "sg:province":"NL.08",
    "src:geom":"simplegeo",
    "wof:belongsto":[
        85798691,
        85633337,
        101751861,
        85687045
    ],
    "wof:breaches":[],
    "wof:concordances":{
        "sg:id":"SG_6Kf4dJZ5czzByDilc1MqKh_52.523289_6.105165@1306269909"
    },
    "wof:country":"NL",
    "wof:geomhash":"5ff7da4029507efac2e31983cb815024",
    "wof:hierarchy":[
        {
            "continent_id":-1,
            "country_id":85633337,
            "locality_id":101751861,
            "neighbourhood_id":85798691,
            "region_id":85687045,
            "venue_id":185972357
        }
    ],
    "wof:id":185972357,
    "wof:lastmodified":1449007441,
    "wof:name":"Laculla",
    "wof:parent_id":85798691,
    "wof:placetype":"venue",
    "wof:superseded_by":[],
    "wof:supersedes":[],
    "wof:tags":[]
},
  "bbox": [6.105165,52.523289,6.105165,52.523289],
  "geometry": {"coordinates":[6.105165,52.523289],"type":"Point"}
}