{
  "id": 320077909,
  "type": "Feature",
  "properties": {
    "edtf:cessation":"u",
    "edtf:inception":"u",
    "geom:area":0.0,
    "geom:bbox":"4.805705,52.713009,4.805705,52.713009",
    "geom:latitude":52.713009,
    "geom:longitude":4.805705,
    "iso:country":"NL",
    "sg:address":"Dorpsstr 830",
    "sg:city":"Oudkarspel",
    "sg:classifiers":[
        {
            "category":"Retail",
            "subcategory":"Auto Repair",
            "type":"Services"
        }
    ],
    "sg:owner":"simplegeo",
    "sg:phone":"+31 226 312 480",
    "sg:postcode":"1724 NT",
    "sg:province":"Noord-Holland",
    "sg:tags":[
        "garage"
    ],
    "sg:website":"http://www.garagehoogeboom.nl",
    "src:geom":"simplegeo",
    "wof:belongsto":[
        85633337,
        101754817,
        85687053
    ],
    "wof:breaches":[],
    "wof:concordances":{
        "sg:id":"SG_1WioPO79zNcEtfiP5aBUS4_52.713009_4.805705@1306269994"
    },
    "wof:country":"NL",
    "wof:geomhash":"d9d06989a66cf06c262bae16d6f2079f",
    "wof:hierarchy":[
        {
            "continent_id":-1,
            "country_id":85633337,
            "locality_id":101754817,
            "neighbourhood_id":-1,
            "region_id":85687053,
            "venue_id":320077909
        }
    ],
    "wof:id":320077909,
    "wof:lastmodified":1449011850,
    "wof:name":"Hoogeboom",
    "wof:parent_id":-1,
    "wof:placetype":"venue",
    "wof:superseded_by":[],
    "wof:supersedes":[],
    "wof:tags":[
        "garage"
    ]
},
  "bbox": [4.805705,52.713009,4.805705,52.713009],
  "geometry": {"coordinates":[4.805705,52.713009],"type":"Point"}
}