{
  "id": 336734869,
  "type": "Feature",
  "properties": {
    "edtf:cessation":"u",
    "edtf:inception":"u",
    "geom:area":0.0,
    "geom:bbox":"5.882404,51.728645,5.882404,51.728645",
    "geom:latitude":51.728645,
    "geom:longitude":5.882404,
    "iso:country":"NL",
    "sg:address":"Maasstraat 5",
    "sg:city":"Cuijk",
    "sg:classifiers":[
        {
            "category":"Professional",
            "subcategory":"Accounting & Tax Preparation",
            "type":"Services"
        }
    ],
    "sg:owner":"simplegeo",
    "sg:phone":"+31 485 316 844",
    "sg:postcode":"5431 EB",
    "sg:province":"North Brabant",
    "sg:tags":[
        "accountant"
    ],
    "src:geom":"simplegeo",
    "wof:belongsto":[
        85633337,
        101839723,
        85687035
    ],
    "wof:breaches":[],
    "wof:concordances":{
        "sg:id":"SG_378FdqddIvd9xjYU4thI0J_51.728645_5.882404@1306270005"
    },
    "wof:country":"NL",
    "wof:geomhash":"b46a0fdde1e8b2582cfe5d8ff7531d96",
    "wof:hierarchy":[
        {
            "continent_id":-1,
            "country_id":85633337,
            "locality_id":101839723,
            "neighbourhood_id":-1,
            "region_id":85687035,
            "venue_id":336734869
        }
    ],
    "wof:id":336734869,
    "wof:lastmodified":1448997886,
    "wof:name":"Acc En Belastingadviesbureau Oostendorp Otten Van",
    "wof:parent_id":-1,
    "wof:placetype":"venue",
    "wof:superseded_by":[],
    "wof:supersedes":[],
    "wof:tags":[
        "accountant"
    ]
},
  "bbox": [5.882404,51.728645,5.882404,51.728645],
  "geometry": {"coordinates":[5.882404,51.728645],"type":"Point"}
}