{
  "id": 319889491,
  "type": "Feature",
  "properties": {
    "edtf:cessation":"u",
    "edtf:inception":"u",
    "geom:area":0.0,
    "geom:bbox":"5.851963,51.721268,5.851963,51.721268",
    "geom:latitude":51.721268,
    "geom:longitude":5.851963,
    "iso:country":"NL",
    "sg:address":"Koebaksestr 38",
    "sg:city":"Vianen Nb",
    "sg:classifiers":[],
    "sg:orig_category":"Houtvezelperserijen",
    "sg:owner":"simplegeo",
    "sg:phone":"+31 485 313 260",
    "sg:postcode":"5434 LD",
    "sg:province":"Noord-Brabant",
    "src:geom":"simplegeo",
    "wof:belongsto":[
        85633337,
        101855257,
        85687035
    ],
    "wof:breaches":[],
    "wof:concordances":{
        "sg:id":"SG_6FyS5O5mNuLszNZEIniycY_51.721268_5.851963@1306269992"
    },
    "wof:country":"NL",
    "wof:geomhash":"92bc25b6c87b99613f7803c8d1e672cf",
    "wof:hierarchy":[
        {
            "continent_id":-1,
            "country_id":85633337,
            "locality_id":101855257,
            "neighbourhood_id":-1,
            "region_id":85687035,
            "venue_id":319889491
        }
    ],
    "wof:id":319889491,
    "wof:lastmodified":1449024098,
    "wof:name":"Martens Bv",
    "wof:parent_id":-1,
    "wof:placetype":"venue",
    "wof:superseded_by":[],
    "wof:supersedes":[],
    "wof:tags":[]
},
  "bbox": [5.851963,51.721268,5.851963,51.721268],
  "geometry": {"coordinates":[5.851963,51.721268],"type":"Point"}
}