{
  "id": 320150381,
  "type": "Feature",
  "properties": {
    "edtf:cessation":"u",
    "edtf:inception":"u",
    "geom:area":0.0,
    "geom:bbox":"5.296771,51.653152,5.296771,51.653152",
    "geom:latitude":51.653152,
    "geom:longitude":5.296771,
    "iso:country":"NL",
    "sg:address":"Vlasmeersestr 38A",
    "sg:city":"Vught",
    "sg:classifiers":[],
    "sg:orig_category":"Gehandicapteninformatie",
    "sg:owner":"simplegeo",
    "sg:phone":"+31 73 684 3747",
    "sg:postcode":"5261 TD",
    "sg:province":"Noord-Brabant",
    "sg:website":"http://www.start.nl",
    "src:geom":"simplegeo",
    "wof:belongsto":[
        85797605,
        85633337,
        101754581,
        85687035
    ],
    "wof:breaches":[],
    "wof:concordances":{
        "sg:id":"SG_78CU4my7xRYtLwSVCyKvXv_51.653152_5.296771@1306269995"
    },
    "wof:country":"NL",
    "wof:geomhash":"644fc68d9dc70b18d546b365d105836b",
    "wof:hierarchy":[
        {
            "continent_id":-1,
            "country_id":85633337,
            "locality_id":101754581,
            "neighbourhood_id":85797605,
            "region_id":85687035,
            "venue_id":320150381
        }
    ],
    "wof:id":320150381,
    "wof:lastmodified":1449011303,
    "wof:name":"Start Kans",
    "wof:parent_id":85797605,
    "wof:placetype":"venue",
    "wof:superseded_by":[],
    "wof:supersedes":[],
    "wof:tags":[]
},
  "bbox": [5.296771,51.653152,5.296771,51.653152],
  "geometry": {"coordinates":[5.296771,51.653152],"type":"Point"}
}