{
  "id": 336879455,
  "type": "Feature",
  "properties": {
    "edtf:cessation":"u",
    "edtf:inception":"u",
    "geom:area":0.0,
    "geom:bbox":"5.067888,51.518623,5.067888,51.518623",
    "geom:latitude":51.518623,
    "geom:longitude":5.067888,
    "iso:country":"NL",
    "sg:address":"Weth V Besouwstr 13",
    "sg:city":"Goirle",
    "sg:classifiers":[],
    "sg:orig_category":"Onderhoudswerken",
    "sg:owner":"simplegeo",
    "sg:phone":"+31 13 534 5766",
    "sg:postcode":"5051 SC",
    "sg:province":"Noord-Brabant",
    "src:geom":"simplegeo",
    "wof:belongsto":[
        85797199,
        85633337,
        85687035
    ],
    "wof:breaches":[],
    "wof:concordances":{
        "sg:id":"SG_1OT7jINELsfjscXG4QzgAn_51.518623_5.067888@1306270007"
    },
    "wof:country":"NL",
    "wof:geomhash":"8fdbb7ab6fa0d477e9bd7fbb703b00b3",
    "wof:hierarchy":[
        {
            "continent_id":-1,
            "country_id":85633337,
            "locality_id":-1,
            "neighbourhood_id":85797199,
            "region_id":85687035,
            "venue_id":336879455
        }
    ],
    "wof:id":336879455,
    "wof:lastmodified":1448996935,
    "wof:name":"Tbg Totaal Bouw Goirle",
    "wof:parent_id":85797199,
    "wof:placetype":"venue",
    "wof:superseded_by":[],
    "wof:supersedes":[],
    "wof:tags":[]
},
  "bbox": [5.067888,51.518623,5.067888,51.518623],
  "geometry": {"coordinates":[5.067888,51.518623],"type":"Point"}
}