{
  "id": 320222189,
  "type": "Feature",
  "properties": {
    "edtf:cessation":"u",
    "edtf:inception":"u",
    "geom:area":0.0,
    "geom:bbox":"6.667269,52.494541,6.667269,52.494541",
    "geom:latitude":52.494541,
    "geom:longitude":6.667269,
    "iso:country":"NL",
    "sg:address":"Dorpsstraat 10",
    "sg:city":"Kloosterhaar",
    "sg:classifiers":[
        {
            "category":"Shopping",
            "subcategory":"Gifts & Souvenirs",
            "type":"Retail Goods"
        }
    ],
    "sg:owner":"simplegeo",
    "sg:phone":"+31 523 242 106",
    "sg:postcode":"7694 AC",
    "sg:province":"NL.08",
    "sg:tags":[
        "geschenken"
    ],
    "src:geom":"simplegeo",
    "wof:belongsto":[
        85633337,
        101807209,
        85687045
    ],
    "wof:breaches":[],
    "wof:concordances":{
        "sg:id":"SG_6CKyMziNS4kF4pbXTuLeLp_52.494541_6.667269@1306269996"
    },
    "wof:country":"NL",
    "wof:geomhash":"8a2998b7082567b455b33971c80ad192",
    "wof:hierarchy":[
        {
            "continent_id":-1,
            "country_id":85633337,
            "locality_id":101807209,
            "neighbourhood_id":-1,
            "region_id":85687045,
            "venue_id":320222189
        }
    ],
    "wof:id":320222189,
    "wof:lastmodified":1449013772,
    "wof:name":"Tierlantijn",
    "wof:parent_id":-1,
    "wof:placetype":"venue",
    "wof:superseded_by":[],
    "wof:supersedes":[],
    "wof:tags":[
        "geschenken"
    ]
},
  "bbox": [6.667269,52.494541,6.667269,52.494541],
  "geometry": {"coordinates":[6.667269,52.494541],"type":"Point"}
}