{
  "id": 320123553,
  "type": "Feature",
  "properties": {
    "edtf:cessation":"u",
    "edtf:inception":"u",
    "geom:area":0.0,
    "geom:bbox":"4.39757,51.934349,4.39757,51.934349",
    "geom:latitude":51.934349,
    "geom:longitude":4.39757,
    "iso:country":"NL",
    "sg:address":"Spykerstr 13",
    "sg:city":"Schiedam",
    "sg:classifiers":[
        {
            "category":"Retail",
            "subcategory":"Auto Repair",
            "type":"Services"
        }
    ],
    "sg:owner":"simplegeo",
    "sg:phone":"+31 10 415 7715",
    "sg:postcode":"3125 BZ",
    "sg:province":"Zuid-Holland",
    "sg:tags":[
        "garage"
    ],
    "src:geom":"simplegeo",
    "wof:belongsto":[
        85797797,
        85633337,
        85687041
    ],
    "wof:breaches":[],
    "wof:concordances":{
        "sg:id":"SG_1aKZnwHzQca8i2lAndVjLE_51.934349_4.397570@1306269995"
    },
    "wof:country":"NL",
    "wof:geomhash":"d9ffe02b807476472d542b3806b03ce7",
    "wof:hierarchy":[
        {
            "continent_id":-1,
            "country_id":85633337,
            "locality_id":-1,
            "neighbourhood_id":85797797,
            "region_id":85687041,
            "venue_id":320123553
        }
    ],
    "wof:id":320123553,
    "wof:lastmodified":1449012377,
    "wof:name":"Zeeuw, Garage",
    "wof:parent_id":85797797,
    "wof:placetype":"venue",
    "wof:superseded_by":[],
    "wof:supersedes":[],
    "wof:tags":[
        "garage"
    ]
},
  "bbox": [4.39757,51.934349,4.39757,51.934349],
  "geometry": {"coordinates":[4.39757,51.934349],"type":"Point"}
}