{
  "id": 320589147,
  "type": "Feature",
  "properties": {
    "edtf:cessation":"u",
    "edtf:inception":"u",
    "geom:area":0.0,
    "geom:bbox":"5.840323,51.773968,5.840323,51.773968",
    "geom:latitude":51.773968,
    "geom:longitude":5.840323,
    "iso:country":"NL",
    "sg:address":"Looistr 36",
    "sg:city":"Heumen",
    "sg:classifiers":[
        {
            "category":"Food & Beverages",
            "subcategory":"Fruits & Vegetables",
            "type":"Retail Goods"
        }
    ],
    "sg:owner":"simplegeo",
    "sg:phone":"+31 24 358 0739",
    "sg:postcode":"6582 BC",
    "sg:province":"Gelderland",
    "sg:tags":[
        "en",
        "groenten"
    ],
    "src:geom":"simplegeo",
    "wof:belongsto":[
        85633337,
        85687043
    ],
    "wof:breaches":[],
    "wof:concordances":{
        "sg:id":"SG_6NqNoDg02T0u6Ilsm7NSOc_51.773968_5.840323@1306270000"
    },
    "wof:country":"NL",
    "wof:geomhash":"a12829499f7d5359f1b8d877c2186424",
    "wof:hierarchy":[
        {
            "continent_id":-1,
            "country_id":85633337,
            "locality_id":-1,
            "neighbourhood_id":-1,
            "region_id":85687043,
            "venue_id":320589147
        }
    ],
    "wof:id":320589147,
    "wof:lastmodified":1449013258,
    "wof:name":"Dijk Vof, J Van",
    "wof:parent_id":-1,
    "wof:placetype":"venue",
    "wof:superseded_by":[],
    "wof:supersedes":[],
    "wof:tags":[
        "en",
        "groenten"
    ]
},
  "bbox": [5.840323,51.773968,5.840323,51.773968],
  "geometry": {"coordinates":[5.840323,51.773968],"type":"Point"}
}