{
  "id": 320681489,
  "type": "Feature",
  "properties": {
    "edtf:cessation":"u",
    "edtf:inception":"u",
    "geom:area":0.0,
    "geom:bbox":"6.001321,53.323975,6.001321,53.323975",
    "geom:latitude":53.323975,
    "geom:longitude":6.001321,
    "iso:country":"NL",
    "sg:address":"Birdaarderstrwg 70",
    "sg:city":"Dokkum",
    "sg:classifiers":[],
    "sg:orig_category":"Ziekenhuizen, Sanatoria, Verpleeghuizen",
    "sg:owner":"simplegeo",
    "sg:phone":"+31 519 291 234",
    "sg:postcode":"9101 DC",
    "sg:province":"Friesland",
    "src:geom":"simplegeo",
    "wof:belongsto":[
        85633337,
        101806131,
        85687055
    ],
    "wof:breaches":[],
    "wof:concordances":{
        "sg:id":"SG_7OZ3u5sTB4XAHZOUTZwaFT_53.323975_6.001321@1306270001"
    },
    "wof:country":"NL",
    "wof:geomhash":"086dc335e439265b61abfe6de10461d5",
    "wof:hierarchy":[
        {
            "continent_id":-1,
            "country_id":85633337,
            "locality_id":101806131,
            "neighbourhood_id":-1,
            "region_id":85687055,
            "venue_id":320681489
        }
    ],
    "wof:id":320681489,
    "wof:lastmodified":1449013535,
    "wof:name":"Talma Sionsberg",
    "wof:parent_id":-1,
    "wof:placetype":"venue",
    "wof:superseded_by":[],
    "wof:supersedes":[],
    "wof:tags":[]
},
  "bbox": [6.001321,53.323975,6.001321,53.323975],
  "geometry": {"coordinates":[6.001321,53.323975],"type":"Point"}
}