{
  "id": 286295927,
  "type": "Feature",
  "properties": {
    "edtf:cessation":"u",
    "edtf:inception":"u",
    "geom:area":0.0,
    "geom:bbox":"6.530624,52.11277,6.530624,52.11277",
    "geom:latitude":52.11277,
    "geom:longitude":6.530624,
    "iso:country":"NL",
    "sg:address":"T Hambroek 54",
    "sg:city":"Borculo",
    "sg:classifiers":[
        {
            "category":"Education",
            "subcategory":"Preschool",
            "type":"Public Place"
        }
    ],
    "sg:owner":"simplegeo",
    "sg:phone":"+31 545 272 450",
    "sg:postcode":"7271 HB",
    "sg:province":"Gelderland",
    "sg:tags":[
        "kleuteronderwijs",
        "basis-"
    ],
    "src:geom":"simplegeo",
    "wof:belongsto":[
        85633337,
        101807061,
        85687043
    ],
    "wof:breaches":[],
    "wof:concordances":{
        "sg:id":"SG_7gZhfw3uJ64bSqxAtRE7qC_52.112770_6.530624@1306269967"
    },
    "wof:country":"NL",
    "wof:geomhash":"ed235cd8a8c138d505fd02b093276910",
    "wof:hierarchy":[
        {
            "continent_id":-1,
            "country_id":85633337,
            "locality_id":101807061,
            "neighbourhood_id":-1,
            "region_id":85687043,
            "venue_id":286295927
        }
    ],
    "wof:id":286295927,
    "wof:lastmodified":1449016370,
    "wof:name":"Openbare Basisschool Kiezel En Kei",
    "wof:parent_id":-1,
    "wof:placetype":"venue",
    "wof:superseded_by":[],
    "wof:supersedes":[],
    "wof:tags":[
        "kleuteronderwijs",
        "basis-"
    ]
},
  "bbox": [6.530624,52.11277,6.530624,52.11277],
  "geometry": {"coordinates":[6.530624,52.11277],"type":"Point"}
}