{
  "id": 269735415,
  "type": "Feature",
  "properties": {
    "edtf:cessation":"u",
    "edtf:inception":"u",
    "geom:area":0.0,
    "geom:bbox":"6.508905,52.310001,6.508905,52.310001",
    "geom:latitude":52.310001,
    "geom:longitude":6.508905,
    "iso:country":"NL",
    "sg:address":"Nijverdalseweg 12",
    "sg:city":"Rijssen",
    "sg:classifiers":[
        {
            "category":"Fast Food",
            "subcategory":"",
            "type":"Food & Drink"
        }
    ],
    "sg:owner":"simplegeo",
    "sg:phone":"+31 548 522 349",
    "sg:postcode":"7461 TD",
    "sg:province":"NL.08",
    "sg:tags":[
        "afhaal",
        "restaurant"
    ],
    "src:geom":"simplegeo",
    "wof:belongsto":[
        85633337,
        101808761,
        85687045
    ],
    "wof:breaches":[],
    "wof:concordances":{
        "sg:id":"SG_70cs2TBaimWxIOb5brlKCq_52.310001_6.508905@1306269956"
    },
    "wof:country":"NL",
    "wof:geomhash":"ff3a662d6bb6ffbabe32835e95049ca0",
    "wof:hierarchy":[
        {
            "continent_id":-1,
            "country_id":85633337,
            "locality_id":101808761,
            "neighbourhood_id":-1,
            "region_id":85687045,
            "venue_id":269735415
        }
    ],
    "wof:id":269735415,
    "wof:lastmodified":1449038889,
    "wof:name":"Cafe Restaurant Cutricke",
    "wof:parent_id":-1,
    "wof:placetype":"venue",
    "wof:superseded_by":[],
    "wof:supersedes":[],
    "wof:tags":[
        "afhaal",
        "restaurant"
    ]
},
  "bbox": [6.508905,52.310001,6.508905,52.310001],
  "geometry": {"coordinates":[6.508905,52.310001],"type":"Point"}
}