{
  "id": 270138617,
  "type": "Feature",
  "properties": {
    "edtf:cessation":"u",
    "edtf:inception":"u",
    "geom:area":0.0,
    "geom:bbox":"5.908919,51.976608,5.908919,51.976608",
    "geom:latitude":51.976608,
    "geom:longitude":5.908919,
    "iso:country":"NL",
    "sg:address":"Eusebiuspln 3",
    "sg:city":"Arnhem",
    "sg:classifiers":[],
    "sg:orig_category":"Fotografie Technische En Industri\u00c3\u00able",
    "sg:owner":"simplegeo",
    "sg:phone":"+31 26 364 5150",
    "sg:postcode":"6811 HE",
    "sg:province":"Gelderland",
    "src:geom":"simplegeo",
    "wof:belongsto":[
        85797977,
        85633337,
        85687043
    ],
    "wof:breaches":[],
    "wof:concordances":{
        "sg:id":"SG_0lvO2QVb87zKgwtZ3fbDV8_51.976608_5.908919@1306269962"
    },
    "wof:country":"NL",
    "wof:geomhash":"516c4f7cc230617ddfca79f838e62e19",
    "wof:hierarchy":[
        {
            "continent_id":-1,
            "country_id":85633337,
            "locality_id":-1,
            "neighbourhood_id":85797977,
            "region_id":85687043,
            "venue_id":270138617
        }
    ],
    "wof:id":270138617,
    "wof:lastmodified":1449009306,
    "wof:name":"Louk Heimans",
    "wof:parent_id":85797977,
    "wof:placetype":"venue",
    "wof:superseded_by":[],
    "wof:supersedes":[],
    "wof:tags":[]
},
  "bbox": [5.908919,51.976608,5.908919,51.976608],
  "geometry": {"coordinates":[5.908919,51.976608],"type":"Point"}
}