{
  "id": 253605893,
  "type": "Feature",
  "properties": {
    "edtf:cessation":"u",
    "edtf:inception":"u",
    "geom:area":0.0,
    "geom:bbox":"6.79313,52.91935,6.79313,52.91935",
    "geom:latitude":52.91935,
    "geom:longitude":6.79313,
    "iso:country":"NL",
    "sg:address":"Hoofdstr 80",
    "sg:city":"Borger",
    "sg:classifiers":[
        {
            "category":"Banks & Credit Unions",
            "subcategory":"Investment Brokerage",
            "type":"Services"
        }
    ],
    "sg:owner":"simplegeo",
    "sg:phone":"+31 599 234 713",
    "sg:postcode":"9531 AJ",
    "sg:province":"Provincie Drenthe",
    "sg:tags":[
        "pension"
    ],
    "src:geom":"simplegeo",
    "wof:belongsto":[
        85633337,
        101807275,
        85687051
    ],
    "wof:breaches":[],
    "wof:concordances":{
        "sg:id":"SG_5LBdp19OTmlAkiHdl2tzGG_52.919350_6.793130@1306269951"
    },
    "wof:country":"NL",
    "wof:geomhash":"a5142397fe7cae6dc533fea789178a04",
    "wof:hierarchy":[
        {
            "continent_id":-1,
            "country_id":85633337,
            "locality_id":101807275,
            "neighbourhood_id":-1,
            "region_id":85687051,
            "venue_id":253605893
        }
    ],
    "wof:id":253605893,
    "wof:lastmodified":1449064255,
    "wof:name":"Heeze, Huize",
    "wof:parent_id":-1,
    "wof:placetype":"venue",
    "wof:superseded_by":[],
    "wof:supersedes":[],
    "wof:tags":[
        "pension"
    ]
},
  "bbox": [6.79313,52.91935,6.79313,52.91935],
  "geometry": {"coordinates":[6.79313,52.91935],"type":"Point"}
}