{
  "id": 186457139,
  "type": "Feature",
  "properties": {
    "edtf:cessation":"u",
    "edtf:inception":"u",
    "geom:area":0.0,
    "geom:bbox":"4.476239,52.182297,4.476239,52.182297",
    "geom:latitude":52.182297,
    "geom:longitude":4.476239,
    "iso:country":"NL",
    "sg:address":"Pr Ireneln 43",
    "sg:city":"Oegstgeest",
    "sg:classifiers":[],
    "sg:orig_category":"Verenigingen En Stichtingen",
    "sg:owner":"simplegeo",
    "sg:phone":"+31 71 517 1937",
    "sg:postcode":"2341 TR",
    "sg:province":"Zuid-Holland",
    "src:geom":"simplegeo",
    "wof:belongsto":[
        85798025,
        85633337,
        101754717,
        85687041
    ],
    "wof:breaches":[],
    "wof:concordances":{
        "sg:id":"SG_2RTgUkJxLmwkvrMruWm7KW_52.182297_4.476239@1306269913"
    },
    "wof:country":"NL",
    "wof:geomhash":"9ccb0ae904448d17e3c3922ac8d9b092",
    "wof:hierarchy":[
        {
            "continent_id":-1,
            "country_id":85633337,
            "locality_id":101754717,
            "neighbourhood_id":85798025,
            "region_id":85687041,
            "venue_id":186457139
        }
    ],
    "wof:id":186457139,
    "wof:lastmodified":1449052169,
    "wof:name":"Nederlandse Kankerbestrijding",
    "wof:parent_id":85798025,
    "wof:placetype":"venue",
    "wof:superseded_by":[],
    "wof:supersedes":[],
    "wof:tags":[]
},
  "bbox": [4.476239,52.182297,4.476239,52.182297],
  "geometry": {"coordinates":[4.476239,52.182297],"type":"Point"}
}