{
  "id": 203289631,
  "type": "Feature",
  "properties": {
    "edtf:cessation":"u",
    "edtf:inception":"u",
    "geom:area":0.0,
    "geom:bbox":"5.745068,51.50621,5.745068,51.50621",
    "geom:latitude":51.50621,
    "geom:longitude":5.745068,
    "iso:country":"NL",
    "sg:address":"Hendrikstr 33",
    "sg:city":"Bakel",
    "sg:classifiers":[],
    "sg:orig_category":"Voegwerken",
    "sg:owner":"simplegeo",
    "sg:phone":"+31 492 342 010",
    "sg:postcode":"5761 AB",
    "sg:province":"North Brabant",
    "src:geom":"simplegeo",
    "wof:belongsto":[
        85633337,
        101809691,
        85687035
    ],
    "wof:breaches":[],
    "wof:concordances":{
        "sg:id":"SG_0wS9OVlOCUycmeL7vN30ki_51.506210_5.745068@1306269922"
    },
    "wof:country":"NL",
    "wof:geomhash":"779a19d5527e6cc659728007fdac742a",
    "wof:hierarchy":[
        {
            "continent_id":-1,
            "country_id":85633337,
            "locality_id":101809691,
            "neighbourhood_id":-1,
            "region_id":85687035,
            "venue_id":203289631
        }
    ],
    "wof:id":203289631,
    "wof:lastmodified":1449026533,
    "wof:name":"Folkers Bv",
    "wof:parent_id":-1,
    "wof:placetype":"venue",
    "wof:superseded_by":[],
    "wof:supersedes":[],
    "wof:tags":[]
},
  "bbox": [5.745068,51.50621,5.745068,51.50621],
  "geometry": {"coordinates":[5.745068,51.50621],"type":"Point"}
}