{
  "id": 202540809,
  "type": "Feature",
  "properties": {
    "edtf:cessation":"u",
    "edtf:inception":"u",
    "geom:area":0.0,
    "geom:bbox":"4.659071,51.473843,4.659071,51.473843",
    "geom:latitude":51.473843,
    "geom:longitude":4.659071,
    "iso:country":"NL",
    "sg:address":"Elzenstraat 31",
    "sg:city":"Zundert",
    "sg:classifiers":[
        {
            "category":"Communications",
            "subcategory":"Television Station",
            "type":"Services"
        }
    ],
    "sg:owner":"simplegeo",
    "sg:phone":"+31 76 597 3203",
    "sg:postcode":"4881 AT",
    "sg:province":"Noord-Brabant",
    "sg:tags":[
        "video",
        "audio",
        "verhuur"
    ],
    "src:geom":"simplegeo",
    "wof:belongsto":[
        85633337,
        101839389,
        85687035
    ],
    "wof:breaches":[],
    "wof:concordances":{
        "sg:id":"SG_7aaURS4D3A1fgnY3uxLN8Y_51.473843_4.659071@1306269916"
    },
    "wof:country":"NL",
    "wof:geomhash":"40416f6aca3a27c33a2f2a6d2e09bbfe",
    "wof:hierarchy":[
        {
            "continent_id":-1,
            "country_id":85633337,
            "locality_id":101839389,
            "neighbourhood_id":-1,
            "region_id":85687035,
            "venue_id":202540809
        }
    ],
    "wof:id":202540809,
    "wof:lastmodified":1449061122,
    "wof:name":"Videotheek Premiere",
    "wof:parent_id":-1,
    "wof:placetype":"venue",
    "wof:superseded_by":[],
    "wof:supersedes":[],
    "wof:tags":[
        "video",
        "audio",
        "verhuur"
    ]
},
  "bbox": [4.659071,51.473843,4.659071,51.473843],
  "geometry": {"coordinates":[4.659071,51.473843],"type":"Point"}
}