{
  "id": 203371627,
  "type": "Feature",
  "properties": {
    "edtf:cessation":"u",
    "edtf:inception":"u",
    "geom:area":0.0,
    "geom:bbox":"4.647994,51.567551,4.647994,51.567551",
    "geom:latitude":51.567551,
    "geom:longitude":4.647994,
    "iso:country":"NL",
    "sg:address":"Stijn Streuvelslaan 42",
    "sg:city":"Etten-Leur",
    "sg:classifiers":[],
    "sg:orig_category":"Volwassenenonderwijs",
    "sg:owner":"simplegeo",
    "sg:phone":"+31 76 501 5905",
    "sg:postcode":"4873 EB",
    "sg:province":"Noord-Brabant",
    "src:geom":"simplegeo",
    "wof:belongsto":[
        85633337,
        101839355,
        85687035
    ],
    "wof:breaches":[],
    "wof:concordances":{
        "sg:id":"SG_6CaWlQgML2tJKHomtL3CV8_51.567551_4.647994@1306269923"
    },
    "wof:country":"NL",
    "wof:geomhash":"c0337be4fd3679ac498502b5913c7b02",
    "wof:hierarchy":[
        {
            "continent_id":-1,
            "country_id":85633337,
            "locality_id":101839355,
            "neighbourhood_id":-1,
            "region_id":85687035,
            "venue_id":203371627
        }
    ],
    "wof:id":203371627,
    "wof:lastmodified":1449026409,
    "wof:name":"Katholieke Scholengemeenschap Etten Leur Eo",
    "wof:parent_id":-1,
    "wof:placetype":"venue",
    "wof:superseded_by":[],
    "wof:supersedes":[],
    "wof:tags":[]
},
  "bbox": [4.647994,51.567551,4.647994,51.567551],
  "geometry": {"coordinates":[4.647994,51.567551],"type":"Point"}
}