{
  "id": 252777355,
  "type": "Feature",
  "properties": {
    "edtf:cessation":"u",
    "edtf:inception":"u",
    "geom:area":0.0,
    "geom:bbox":"5.82314,51.99057,5.82314,51.99057",
    "geom:latitude":51.99057,
    "geom:longitude":5.82314,
    "iso:country":"NL",
    "sg:address":"Valkenburgln 1",
    "sg:city":"Oosterbeek",
    "sg:classifiers":[
        {
            "category":"Sports & Exercise",
            "subcategory":"Stables",
            "type":"Entertainment"
        }
    ],
    "sg:owner":"simplegeo",
    "sg:phone":"+31 26 333 4097",
    "sg:postcode":"6861 AH",
    "sg:province":"Gelderland",
    "sg:tags":[
        "maneges"
    ],
    "src:geom":"simplegeo",
    "wof:belongsto":[
        85797665,
        85633337,
        85687043
    ],
    "wof:breaches":[],
    "wof:concordances":{
        "sg:id":"SG_4SdL5gCuCglm5p9WveR5Z0_51.990570_5.823140@1306269943"
    },
    "wof:country":"NL",
    "wof:geomhash":"b965e52fb96a9541c5c19eb0c4379834",
    "wof:hierarchy":[
        {
            "continent_id":-1,
            "country_id":85633337,
            "locality_id":-1,
            "neighbourhood_id":85797665,
            "region_id":85687043,
            "venue_id":252777355
        }
    ],
    "wof:id":252777355,
    "wof:lastmodified":1449005992,
    "wof:name":"Sonnenberg, De",
    "wof:parent_id":85797665,
    "wof:placetype":"venue",
    "wof:superseded_by":[],
    "wof:supersedes":[],
    "wof:tags":[
        "maneges"
    ]
},
  "bbox": [5.82314,51.99057,5.82314,51.99057],
  "geometry": {"coordinates":[5.82314,51.99057],"type":"Point"}
}