{
  "id": 236573321,
  "type": "Feature",
  "properties": {
    "edtf:cessation":"u",
    "edtf:inception":"u",
    "geom:area":0.0,
    "geom:bbox":"6.25236,53.115959,6.25236,53.115959",
    "geom:latitude":53.115959,
    "geom:longitude":6.25236,
    "iso:country":"NL",
    "sg:address":"Plantsoen 41",
    "sg:city":"De Wilp Gn",
    "sg:classifiers":[],
    "sg:orig_category":"Autokeuringen",
    "sg:owner":"simplegeo",
    "sg:phone":"+31 594 643 529",
    "sg:postcode":"9367 PH",
    "sg:province":"Groningen",
    "src:geom":"simplegeo",
    "wof:belongsto":[
        85633337,
        101806211,
        85687059
    ],
    "wof:breaches":[],
    "wof:concordances":{
        "sg:id":"SG_3z9Pd4y00KoPFGIsszTV2x_53.115959_6.252360@1306269939"
    },
    "wof:country":"NL",
    "wof:geomhash":"43e2a3dac3f37720be7263547479efe8",
    "wof:hierarchy":[
        {
            "continent_id":-1,
            "country_id":85633337,
            "locality_id":101806211,
            "neighbourhood_id":-1,
            "region_id":85687059,
            "venue_id":236573321
        }
    ],
    "wof:id":236573321,
    "wof:lastmodified":1449004202,
    "wof:name":"Garage Kloosterman",
    "wof:parent_id":-1,
    "wof:placetype":"venue",
    "wof:superseded_by":[],
    "wof:supersedes":[],
    "wof:tags":[]
},
  "bbox": [6.25236,53.115959,6.25236,53.115959],
  "geometry": {"coordinates":[6.25236,53.115959],"type":"Point"}
}