{
  "id": 219826333,
  "type": "Feature",
  "properties": {
    "edtf:cessation":"u",
    "edtf:inception":"u",
    "geom:area":0.0,
    "geom:bbox":"5.112664,52.096676,5.112664,52.096676",
    "geom:latitude":52.096676,
    "geom:longitude":5.112664,
    "iso:country":"NL",
    "sg:address":"Weerdsngl Wz 39",
    "sg:city":"Utrecht",
    "sg:classifiers":[],
    "sg:orig_category":"Adviesbureaus Bedrijfsorganisatie",
    "sg:owner":"simplegeo",
    "sg:phone":"+31 30 670 4060",
    "sg:postcode":"3513 BD",
    "sg:province":"Utrecht",
    "src:geom":"simplegeo",
    "wof:belongsto":[
        85797951,
        85633337,
        101751827,
        85687039
    ],
    "wof:breaches":[],
    "wof:concordances":{
        "sg:id":"SG_5YxVqwQR9W0ALgdIDBbU0V_52.096676_5.112664@1306269929"
    },
    "wof:country":"NL",
    "wof:geomhash":"2223057831719fb4bcc380e7ec5b8cdd",
    "wof:hierarchy":[
        {
            "continent_id":-1,
            "country_id":85633337,
            "locality_id":101751827,
            "neighbourhood_id":85797951,
            "region_id":85687039,
            "venue_id":219826333
        }
    ],
    "wof:id":219826333,
    "wof:lastmodified":1449072968,
    "wof:name":"Inconcreto",
    "wof:parent_id":85797951,
    "wof:placetype":"venue",
    "wof:superseded_by":[],
    "wof:supersedes":[],
    "wof:tags":[]
},
  "bbox": [5.112664,52.096676,5.112664,52.096676],
  "geometry": {"coordinates":[5.112664,52.096676],"type":"Point"}
}