{
  "id": 303314473,
  "type": "Feature",
  "properties": {
    "edtf:cessation":"u",
    "edtf:inception":"u",
    "geom:area":0.0,
    "geom:bbox":"4.496106,52.120518,4.496106,52.120518",
    "geom:latitude":52.120518,
    "geom:longitude":4.496106,
    "iso:country":"NL",
    "sg:address":"Dorpsstraat 29",
    "sg:city":"Zoeterwoude",
    "sg:classifiers":[],
    "sg:orig_category":"Schoenen",
    "sg:owner":"simplegeo",
    "sg:phone":"+31 71 580 1942",
    "sg:postcode":"2381 EK",
    "sg:province":"Zuid-Holland",
    "src:geom":"simplegeo",
    "wof:belongsto":[
        85798589,
        85633337,
        85687041
    ],
    "wof:breaches":[],
    "wof:concordances":{
        "sg:id":"SG_6ghek2t19yAGf1AYoJKLwZ_52.120518_4.496106@1306269982"
    },
    "wof:country":"NL",
    "wof:geomhash":"b780ec4464226fb00b8b701f1fca5d5f",
    "wof:hierarchy":[
        {
            "continent_id":-1,
            "country_id":85633337,
            "locality_id":-1,
            "neighbourhood_id":85798589,
            "region_id":85687041,
            "venue_id":303314473
        }
    ],
    "wof:id":303314473,
    "wof:lastmodified":1449000461,
    "wof:name":"2-14 Zoeterwoude",
    "wof:parent_id":85798589,
    "wof:placetype":"venue",
    "wof:superseded_by":[],
    "wof:supersedes":[],
    "wof:tags":[]
},
  "bbox": [4.496106,52.120518,4.496106,52.120518],
  "geometry": {"coordinates":[4.496106,52.120518],"type":"Point"}
}