{
  "id": 185685001,
  "type": "Feature",
  "properties": {
    "edtf:cessation":"u",
    "edtf:inception":"u",
    "geom:area":0.0,
    "geom:bbox":"4.29725,51.1446,4.29725,51.1446",
    "geom:latitude":51.1446,
    "geom:longitude":4.29725,
    "iso:country":"NL",
    "sg:address":"Portugezenstr 28",
    "sg:city":"Bazel",
    "sg:classifiers":[
        {
            "category":"Animal Shelter",
            "subcategory":"",
            "type":"Public Place"
        }
    ],
    "sg:owner":"simplegeo",
    "sg:phone":"+31 37743534",
    "sg:postcode":"B-91 50",
    "sg:tags":[
        "kennel"
    ],
    "src:geom":"simplegeo",
    "wof:belongsto":[
        85681733,
        85632997,
        102049997,
        85801281
    ],
    "wof:breaches":[],
    "wof:concordances":{
        "sg:id":"SG_1FFSoWkNuzRs3Pzz4BY9DU_51.144600_4.297250@1306269907"
    },
    "wof:country":"NL",
    "wof:geomhash":"a9920e05a3d8a257b8033bbcc3db9b28",
    "wof:hierarchy":[
        {
            "continent_id":-1,
            "country_id":85632997,
            "county_id":102049997,
            "locality_id":-1,
            "neighbourhood_id":85801281,
            "region_id":85681733,
            "venue_id":185685001
        }
    ],
    "wof:id":185685001,
    "wof:lastmodified":1449008142,
    "wof:name":"Erik Roelands Rashonden",
    "wof:parent_id":85801281,
    "wof:placetype":"venue",
    "wof:superseded_by":[],
    "wof:supersedes":[],
    "wof:tags":[
        "kennel"
    ]
},
  "bbox": [4.29725,51.1446,4.29725,51.1446],
  "geometry": {"coordinates":[4.29725,51.1446],"type":"Point"}
}