{
  "id": 219261407,
  "type": "Feature",
  "properties": {
    "edtf:cessation":"u",
    "edtf:inception":"u",
    "geom:area":0.0,
    "geom:bbox":"4.777045,51.821796,4.777045,51.821796",
    "geom:latitude":51.821796,
    "geom:longitude":4.777045,
    "iso:country":"NL",
    "sg:address":"Rembrandtln 63",
    "sg:city":"Sliedrecht",
    "sg:classifiers":[
        {
            "category":"Shopping",
            "subcategory":"Adult",
            "type":"Retail Goods"
        }
    ],
    "sg:owner":"simplegeo",
    "sg:phone":"+31 184 416 315",
    "sg:postcode":"3362 AD",
    "sg:province":"Zuid-Holland",
    "sg:tags":[
        "lingerie",
        "en",
        "tricotage"
    ],
    "src:geom":"simplegeo",
    "wof:belongsto":[
        85633337,
        101754745,
        85687041
    ],
    "wof:breaches":[],
    "wof:concordances":{
        "sg:id":"SG_0qmiCYu9PTGyR7uhhzjXT3_51.821796_4.777045@1306269924"
    },
    "wof:country":"NL",
    "wof:geomhash":"6bf5b710d5a4a5af16860bcbfb47e2d8",
    "wof:hierarchy":[
        {
            "continent_id":-1,
            "country_id":85633337,
            "locality_id":101754745,
            "neighbourhood_id":-1,
            "region_id":85687041,
            "venue_id":219261407
        }
    ],
    "wof:id":219261407,
    "wof:lastmodified":1449070428,
    "wof:name":"Wieringa, Linch\u00e9rie",
    "wof:parent_id":-1,
    "wof:placetype":"venue",
    "wof:superseded_by":[],
    "wof:supersedes":[],
    "wof:tags":[
        "lingerie",
        "en",
        "tricotage"
    ]
},
  "bbox": [4.777045,51.821796,4.777045,51.821796],
  "geometry": {"coordinates":[4.777045,51.821796],"type":"Point"}
}