{
  "id": 336951061,
  "type": "Feature",
  "properties": {
    "edtf:cessation":"u",
    "edtf:inception":"u",
    "geom:area":0.0,
    "geom:bbox":"6.005624,51.573833,6.005624,51.573833",
    "geom:latitude":51.573833,
    "geom:longitude":6.005624,
    "iso:country":"NL",
    "sg:address":"Gildestr 36B",
    "sg:city":"Holthees",
    "sg:classifiers":[
        {
            "category":"Retail",
            "subcategory":"Storage",
            "type":"Services"
        }
    ],
    "sg:owner":"simplegeo",
    "sg:phone":"+31 478 639 069",
    "sg:postcode":"5824 AB",
    "sg:province":"Noord-Brabant",
    "sg:tags":[
        "op-",
        "en",
        "overslagbedrijven"
    ],
    "src:geom":"simplegeo",
    "wof:belongsto":[
        85633337,
        85687035
    ],
    "wof:breaches":[],
    "wof:concordances":{
        "sg:id":"SG_3dOiYXawJr8Mu5mrrUnTm4_51.573833_6.005624@1306270007"
    },
    "wof:country":"NL",
    "wof:geomhash":"2011ae3e17ffd7c06c420ec3f7bd3b62",
    "wof:hierarchy":[
        {
            "continent_id":-1,
            "country_id":85633337,
            "locality_id":-1,
            "neighbourhood_id":-1,
            "region_id":85687035,
            "venue_id":336951061
        }
    ],
    "wof:id":336951061,
    "wof:lastmodified":1448996955,
    "wof:name":"Catch Services Bv",
    "wof:parent_id":-1,
    "wof:placetype":"venue",
    "wof:superseded_by":[],
    "wof:supersedes":[],
    "wof:tags":[
        "op-",
        "en",
        "overslagbedrijven"
    ]
},
  "bbox": [6.005624,51.573833,6.005624,51.573833],
  "geometry": {"coordinates":[6.005624,51.573833],"type":"Point"}
}