{
  "id": 219740611,
  "type": "Feature",
  "properties": {
    "edtf:cessation":"u",
    "edtf:inception":"u",
    "geom:area":0.0,
    "geom:bbox":"5.252198,52.087494,5.252198,52.087494",
    "geom:latitude":52.087494,
    "geom:longitude":5.252198,
    "iso:country":"NL",
    "sg:address":"Pr Hendrikln 24",
    "sg:city":"Zeist",
    "sg:classifiers":[],
    "sg:orig_category":"Adviesbureaus Bedrijfsorganisatie",
    "sg:owner":"simplegeo",
    "sg:phone":"+31 30 691 4342",
    "sg:postcode":"3701 CP",
    "sg:province":"Utrecht",
    "src:geom":"simplegeo",
    "wof:belongsto":[
        85797785,
        85633337,
        101751823,
        85687039
    ],
    "wof:breaches":[],
    "wof:concordances":{
        "sg:id":"SG_21SE7qJxT1uF3xKMKRJ4ZN_52.087494_5.252198@1306269928"
    },
    "wof:country":"NL",
    "wof:geomhash":"00be95dd8ef0ea15d9002606a8087d78",
    "wof:hierarchy":[
        {
            "continent_id":-1,
            "country_id":85633337,
            "locality_id":101751823,
            "neighbourhood_id":85797785,
            "region_id":85687039,
            "venue_id":219740611
        }
    ],
    "wof:id":219740611,
    "wof:lastmodified":1449072000,
    "wof:name":"Boot Bv",
    "wof:parent_id":85797785,
    "wof:placetype":"venue",
    "wof:superseded_by":[],
    "wof:supersedes":[],
    "wof:tags":[]
},
  "bbox": [5.252198,52.087494,5.252198,52.087494],
  "geometry": {"coordinates":[5.252198,52.087494],"type":"Point"}
}