{
  "id": 220030629,
  "type": "Feature",
  "properties": {
    "edtf:cessation":"u",
    "edtf:inception":"u",
    "geom:area":0.0,
    "geom:bbox":"4.33507,52.081421,4.33507,52.081421",
    "geom:latitude":52.081421,
    "geom:longitude":4.33507,
    "iso:country":"NL",
    "sg:address":"Kon Julianapln 30-05B",
    "sg:city":"S Gravenhage",
    "sg:classifiers":[],
    "sg:orig_category":"Adviesbureaus Economie",
    "sg:owner":"simplegeo",
    "sg:phone":"+31 70 335 2227",
    "sg:postcode":"2595 AA",
    "sg:province":"Zuid-Holland",
    "sg:website":"http://www.bciglobal.com",
    "src:geom":"simplegeo",
    "wof:belongsto":[
        85797093,
        85633337,
        101752763,
        85687041
    ],
    "wof:breaches":[],
    "wof:concordances":{
        "sg:id":"SG_1EKXGqY1QAtw5IKuC0VhsO_52.081421_4.335070@1306269931"
    },
    "wof:country":"NL",
    "wof:geomhash":"3e2ca52756b3ef6bbefe3e6594b73084",
    "wof:hierarchy":[
        {
            "continent_id":-1,
            "country_id":85633337,
            "locality_id":101752763,
            "neighbourhood_id":85797093,
            "region_id":85687041,
            "venue_id":220030629
        }
    ],
    "wof:id":220030629,
    "wof:lastmodified":1449074326,
    "wof:name":"Buck",
    "wof:parent_id":85797093,
    "wof:placetype":"venue",
    "wof:superseded_by":[],
    "wof:supersedes":[],
    "wof:tags":[]
},
  "bbox": [4.33507,52.081421,4.33507,52.081421],
  "geometry": {"coordinates":[4.33507,52.081421],"type":"Point"}
}