{
  "id": 219950989,
  "type": "Feature",
  "properties": {
    "edtf:cessation":"u",
    "edtf:inception":"u",
    "geom:area":0.0,
    "geom:bbox":"6.282411,52.246952,6.282411,52.246952",
    "geom:latitude":52.246952,
    "geom:longitude":6.282411,
    "iso:country":"NL",
    "sg:address":"Woertmanswg 4",
    "sg:city":"Bathmen",
    "sg:classifiers":[],
    "sg:orig_category":"Adviesbureaus Bedrijfsorganisatie",
    "sg:owner":"simplegeo",
    "sg:phone":"+31 570 542 596",
    "sg:postcode":"7437 PK",
    "sg:province":"NL.08",
    "src:geom":"simplegeo",
    "wof:belongsto":[
        85633337,
        101807137,
        85687045
    ],
    "wof:breaches":[],
    "wof:concordances":{
        "sg:id":"SG_1l8Jmb4FI3XjwhMAl7mGFp_52.246952_6.282411@1306269930"
    },
    "wof:country":"NL",
    "wof:geomhash":"4eb4565cedb5122cd1dc241631942ab7",
    "wof:hierarchy":[
        {
            "continent_id":-1,
            "country_id":85633337,
            "locality_id":101807137,
            "neighbourhood_id":-1,
            "region_id":85687045,
            "venue_id":219950989
        }
    ],
    "wof:id":219950989,
    "wof:lastmodified":1449071763,
    "wof:name":"Zijlstra",
    "wof:parent_id":-1,
    "wof:placetype":"venue",
    "wof:superseded_by":[],
    "wof:supersedes":[],
    "wof:tags":[]
},
  "bbox": [6.282411,52.246952,6.282411,52.246952],
  "geometry": {"coordinates":[6.282411,52.246952],"type":"Point"}
}