{
  "id": 270180299,
  "type": "Feature",
  "properties": {
    "edtf:cessation":"u",
    "edtf:inception":"u",
    "geom:area":0.0,
    "geom:bbox":"7.0638,52.873978,7.0638,52.873978",
    "geom:latitude":52.873978,
    "geom:longitude":7.0638,
    "iso:country":"NL",
    "sg:address":"Hoofdstr 31",
    "sg:city":"Ter Apel",
    "sg:classifiers":[],
    "sg:orig_category":"Fotoreportages",
    "sg:owner":"simplegeo",
    "sg:phone":"+31 599 587 568",
    "sg:postcode":"9561 JB",
    "sg:province":"Groningen",
    "src:geom":"simplegeo",
    "wof:belongsto":[
        85633337,
        101838031,
        85687059
    ],
    "wof:breaches":[],
    "wof:concordances":{
        "sg:id":"SG_5SoJk73FkMYoASY134ezyi_52.873978_7.063800@1306269962"
    },
    "wof:country":"NL",
    "wof:geomhash":"9db0e755c73ecb50daf54215726cc60c",
    "wof:hierarchy":[
        {
            "continent_id":-1,
            "country_id":85633337,
            "locality_id":101838031,
            "neighbourhood_id":-1,
            "region_id":85687059,
            "venue_id":270180299
        }
    ],
    "wof:id":270180299,
    "wof:lastmodified":1449008770,
    "wof:name":"Combi Foto Veerkamp",
    "wof:parent_id":-1,
    "wof:placetype":"venue",
    "wof:superseded_by":[],
    "wof:supersedes":[],
    "wof:tags":[]
},
  "bbox": [7.0638,52.873978,7.0638,52.873978],
  "geometry": {"coordinates":[7.0638,52.873978],"type":"Point"}
}