{
  "id": 336856191,
  "type": "Feature",
  "properties": {
    "edtf:cessation":"u",
    "edtf:inception":"u",
    "geom:area":0.0,
    "geom:bbox":"-91.330193,33.535301,-91.330193,33.535301",
    "geom:latitude":33.535301,
    "geom:longitude":-91.330193,
    "iso:country":"NL",
    "sg:address":"Haverstr 23",
    "sg:city":"Halle",
    "sg:classifiers":[],
    "sg:orig_category":"Onderhoudswerken",
    "sg:owner":"simplegeo",
    "sg:phone":"+31 314 631 604",
    "sg:postcode":"7025 AK",
    "sg:province":"Gelderland",
    "src:geom":"simplegeo",
    "wof:belongsto":[
        85633793,
        85688549
    ],
    "wof:breaches":[],
    "wof:concordances":{
        "sg:id":"SG_3si9fvEK5yvwTduBeRzBWn_33.535301_-91.330193@1306270006"
    },
    "wof:country":"NL",
    "wof:geomhash":"6e298e330345b6ec1254c5749ec2ad4f",
    "wof:hierarchy":[
        {
            "continent_id":-1,
            "country_id":85633793,
            "locality_id":-1,
            "neighbourhood_id":-1,
            "region_id":85688549,
            "venue_id":336856191
        }
    ],
    "wof:id":336856191,
    "wof:lastmodified":1448997256,
    "wof:name":"Lassen",
    "wof:parent_id":-1,
    "wof:placetype":"venue",
    "wof:superseded_by":[],
    "wof:supersedes":[],
    "wof:tags":[]
},
  "bbox": [-91.330193,33.535301,-91.330193,33.535301],
  "geometry": {"coordinates":[-91.330193,33.535301],"type":"Point"}
}