{
  "id": 253589191,
  "type": "Feature",
  "properties": {
    "edtf:cessation":"u",
    "edtf:inception":"u",
    "geom:area":0.0,
    "geom:bbox":"6.011471,53.329643,6.011471,53.329643",
    "geom:latitude":53.329643,
    "geom:longitude":6.011471,
    "iso:country":"NL",
    "sg:address":"Reigerstr 7",
    "sg:city":"Dokkum",
    "sg:classifiers":[
        {
            "category":"Personal",
            "subcategory":"Nail Salon",
            "type":"Services"
        }
    ],
    "sg:owner":"simplegeo",
    "sg:phone":"+31 519 296 704",
    "sg:postcode":"9101 HN",
    "sg:province":"Friesland",
    "sg:tags":[
        "pedicure"
    ],
    "src:geom":"simplegeo",
    "wof:belongsto":[
        85633337,
        101806131,
        85687055
    ],
    "wof:breaches":[],
    "wof:concordances":{
        "sg:id":"SG_6vHi0X794J9uE1GFLGdiiB_53.329643_6.011471@1306269951"
    },
    "wof:country":"NL",
    "wof:geomhash":"97bb2bda540b5e8e3f60f5e618babb3e",
    "wof:hierarchy":[
        {
            "continent_id":-1,
            "country_id":85633337,
            "locality_id":101806131,
            "neighbourhood_id":-1,
            "region_id":85687055,
            "venue_id":253589191
        }
    ],
    "wof:id":253589191,
    "wof:lastmodified":1449064405,
    "wof:name":"Wiegersma-Vd Heide, M T A",
    "wof:parent_id":-1,
    "wof:placetype":"venue",
    "wof:superseded_by":[],
    "wof:supersedes":[],
    "wof:tags":[
        "pedicure"
    ]
},
  "bbox": [6.011471,53.329643,6.011471,53.329643],
  "geometry": {"coordinates":[6.011471,53.329643],"type":"Point"}
}