{
  "id": 186219239,
  "type": "Feature",
  "properties": {
    "edtf:cessation":"u",
    "edtf:inception":"u",
    "geom:area":0.0,
    "geom:bbox":"5.38548,51.32719,5.38548,51.32719",
    "geom:latitude":51.32719,
    "geom:longitude":5.38548,
    "iso:country":"NL",
    "sg:address":"Heijerstraat 35",
    "sg:city":"Westerhoven",
    "sg:classifiers":[],
    "sg:orig_category":"Vakantiehuizen",
    "sg:owner":"simplegeo",
    "sg:phone":"+31 40 204 5847",
    "sg:postcode":"5563 BM",
    "sg:province":"Noord-Brabant",
    "src:geom":"simplegeo",
    "wof:belongsto":[
        85633337,
        101809757,
        85687035
    ],
    "wof:breaches":[],
    "wof:concordances":{
        "sg:id":"SG_6QBeVJ2ua4MFqzPDlh6jrA_51.327190_5.385480@1306269911"
    },
    "wof:country":"NL",
    "wof:geomhash":"b4bb8236edb2faef5567b1cffc14c28c",
    "wof:hierarchy":[
        {
            "continent_id":-1,
            "country_id":85633337,
            "locality_id":101809757,
            "neighbourhood_id":-1,
            "region_id":85687035,
            "venue_id":186219239
        }
    ],
    "wof:id":186219239,
    "wof:lastmodified":1449052926,
    "wof:name":"De Heikant / Heyerkant, Den",
    "wof:parent_id":-1,
    "wof:placetype":"venue",
    "wof:superseded_by":[],
    "wof:supersedes":[],
    "wof:tags":[]
},
  "bbox": [5.38548,51.32719,5.38548,51.32719],
  "geometry": {"coordinates":[5.38548,51.32719],"type":"Point"}
}