{
  "id": 253332623,
  "type": "Feature",
  "properties": {
    "edtf:cessation":"u",
    "edtf:inception":"u",
    "geom:area":0.0,
    "geom:bbox":"6.190244,51.476887,6.190244,51.476887",
    "geom:latitude":51.476887,
    "geom:longitude":6.190244,
    "iso:country":"NL",
    "sg:address":"Leermarkt 17",
    "sg:city":"Arcen",
    "sg:classifiers":[],
    "sg:orig_category":"Midgetgolf",
    "sg:owner":"simplegeo",
    "sg:phone":"+31 77 473 1235",
    "sg:postcode":"5944 BM",
    "sg:province":"Limburg",
    "src:geom":"simplegeo",
    "wof:belongsto":[
        85633337,
        85687033
    ],
    "wof:breaches":[],
    "wof:concordances":{
        "sg:id":"SG_2Sbj2tloyZHuHCbrOaAIQQ_51.476887_6.190244@1306269948"
    },
    "wof:country":"NL",
    "wof:geomhash":"0163cc28089dd409bfb4fbe7352d44b2",
    "wof:hierarchy":[
        {
            "continent_id":-1,
            "country_id":85633337,
            "locality_id":-1,
            "neighbourhood_id":-1,
            "region_id":85687033,
            "venue_id":253332623
        }
    ],
    "wof:id":253332623,
    "wof:lastmodified":1449064473,
    "wof:name":"Bosrand, De",
    "wof:parent_id":-1,
    "wof:placetype":"venue",
    "wof:superseded_by":[],
    "wof:supersedes":[],
    "wof:tags":[]
},
  "bbox": [6.190244,51.476887,6.190244,51.476887],
  "geometry": {"coordinates":[6.190244,51.476887],"type":"Point"}
}