{
  "id": 253618639,
  "type": "Feature",
  "properties": {
    "edtf:cessation":"u",
    "edtf:inception":"u",
    "geom:area":0.0,
    "geom:bbox":"6.571336,53.232563,6.571336,53.232563",
    "geom:latitude":53.232563,
    "geom:longitude":6.571336,
    "iso:country":"NL",
    "sg:address":"Celebesstr 35",
    "sg:city":"Groningen",
    "sg:classifiers":[],
    "sg:orig_category":"Peuterspeelzalen",
    "sg:owner":"simplegeo",
    "sg:phone":"+31 50 577 0409",
    "sg:postcode":"9715 JB",
    "sg:province":"Groningen",
    "src:geom":"simplegeo",
    "wof:belongsto":[
        85797835,
        85633337,
        85687059
    ],
    "wof:breaches":[],
    "wof:concordances":{
        "sg:id":"SG_1JdEshVbWXntbIszSXroJh_53.232563_6.571336@1306269952"
    },
    "wof:country":"NL",
    "wof:geomhash":"b04acb3d1674f495a381d6ee5c1c5136",
    "wof:hierarchy":[
        {
            "continent_id":-1,
            "country_id":85633337,
            "locality_id":-1,
            "neighbourhood_id":85797835,
            "region_id":85687059,
            "venue_id":253618639
        }
    ],
    "wof:id":253618639,
    "wof:lastmodified":1449064655,
    "wof:name":"Benjamin",
    "wof:parent_id":85797835,
    "wof:placetype":"venue",
    "wof:superseded_by":[],
    "wof:supersedes":[],
    "wof:tags":[]
},
  "bbox": [6.571336,53.232563,6.571336,53.232563],
  "geometry": {"coordinates":[6.571336,53.232563],"type":"Point"}
}