{
  "id": 253256665,
  "type": "Feature",
  "properties": {
    "edtf:cessation":"u",
    "edtf:inception":"u",
    "geom:area":0.0,
    "geom:bbox":"6.361656,51.90546,6.361656,51.90546",
    "geom:latitude":51.90546,
    "geom:longitude":6.361656,
    "iso:country":"NL",
    "sg:address":"Ettenseweg 7",
    "sg:city":"Ulft",
    "sg:classifiers":[],
    "sg:orig_category":"Meubelzaken, Woning- And Keukeninrichting",
    "sg:owner":"simplegeo",
    "sg:phone":"+31 315 632 222",
    "sg:postcode":"7071 AA",
    "sg:province":"Gelderland",
    "src:geom":"simplegeo",
    "wof:belongsto":[
        85633337,
        85687043
    ],
    "wof:breaches":[],
    "wof:concordances":{
        "sg:id":"SG_36AIDn3OAORa8aI7xVRp2N_51.905460_6.361656@1306269947"
    },
    "wof:country":"NL",
    "wof:geomhash":"c441c35c2f8f8c25ad2b8163c5e69791",
    "wof:hierarchy":[
        {
            "continent_id":-1,
            "country_id":85633337,
            "locality_id":-1,
            "neighbourhood_id":-1,
            "region_id":85687043,
            "venue_id":253256665
        }
    ],
    "wof:id":253256665,
    "wof:lastmodified":1449065058,
    "wof:name":"Basil Bv",
    "wof:parent_id":-1,
    "wof:placetype":"venue",
    "wof:superseded_by":[],
    "wof:supersedes":[],
    "wof:tags":[]
},
  "bbox": [6.361656,51.90546,6.361656,51.90546],
  "geometry": {"coordinates":[6.361656,51.90546],"type":"Point"}
}