{
  "id": 269681651,
  "type": "Feature",
  "properties": {
    "edtf:cessation":"u",
    "edtf:inception":"u",
    "geom:area":0.0,
    "geom:bbox":"4.698441,52.309128,4.698441,52.309128",
    "geom:latitude":52.309128,
    "geom:longitude":4.698441,
    "iso:country":"NL",
    "sg:address":"Hoofdweg 622",
    "sg:city":"Hoofddorp",
    "sg:classifiers":[],
    "sg:orig_category":"Public Relationbureaus",
    "sg:owner":"simplegeo",
    "sg:phone":"+31 23 562 6112",
    "sg:postcode":"2132 MJ",
    "sg:province":"North Holland",
    "src:geom":"simplegeo",
    "wof:belongsto":[
        85633337,
        101751899,
        85687053
    ],
    "wof:breaches":[],
    "wof:concordances":{
        "sg:id":"SG_79tcliVUdABqgjq9QMUUDB_52.309128_4.698441@1306269956"
    },
    "wof:country":"NL",
    "wof:geomhash":"127415028bda8fc797fb67adb6dd00f6",
    "wof:hierarchy":[
        {
            "continent_id":-1,
            "country_id":85633337,
            "locality_id":101751899,
            "neighbourhood_id":-1,
            "region_id":85687053,
            "venue_id":269681651
        }
    ],
    "wof:id":269681651,
    "wof:lastmodified":1449037626,
    "wof:name":"Igaf Europe Ltd.",
    "wof:parent_id":-1,
    "wof:placetype":"venue",
    "wof:superseded_by":[],
    "wof:supersedes":[],
    "wof:tags":[]
},
  "bbox": [4.698441,52.309128,4.698441,52.309128],
  "geometry": {"coordinates":[4.698441,52.309128],"type":"Point"}
}