{
  "id": 303947907,
  "type": "Feature",
  "properties": {
    "edtf:cessation":"u",
    "edtf:inception":"u",
    "geom:area":0.0,
    "geom:bbox":"-94.58503,38.350479,-94.58503,38.350479",
    "geom:latitude":38.350479,
    "geom:longitude":-94.58503,
    "iso:country":"NL",
    "sg:address":"Dommerskan Zz 113",
    "sg:city":"Nieuw Amsterdam",
    "sg:classifiers":[],
    "sg:orig_category":"Hoefsmederijen",
    "sg:owner":"simplegeo",
    "sg:phone":"+31 591 303 125",
    "sg:postcode":"7833 KD",
    "sg:province":"Drenthe",
    "src:geom":"simplegeo",
    "wof:belongsto":[
        85688661,
        85633793,
        85971891,
        102085289
    ],
    "wof:breaches":[],
    "wof:concordances":{
        "sg:id":"SG_4RuUxPTqs48bm1xv7oyGgy_38.350479_-94.585030@1306269989"
    },
    "wof:country":"NL",
    "wof:geomhash":"632c2bf876812f2333cbaf52ca201b9b",
    "wof:hierarchy":[
        {
            "continent_id":-1,
            "country_id":85633793,
            "county_id":102085289,
            "locality_id":85971891,
            "neighbourhood_id":-1,
            "region_id":85688661,
            "venue_id":303947907
        }
    ],
    "wof:id":303947907,
    "wof:lastmodified":1448999890,
    "wof:name":"Oudenbroek, J C",
    "wof:parent_id":-1,
    "wof:placetype":"venue",
    "wof:superseded_by":[],
    "wof:supersedes":[],
    "wof:tags":[]
},
  "bbox": [-94.58503,38.350479,-94.58503,38.350479],
  "geometry": {"coordinates":[-94.58503,38.350479],"type":"Point"}
}