{
  "id": 236203607,
  "type": "Feature",
  "properties": {
    "edtf:cessation":"u",
    "edtf:inception":"u",
    "geom:area":0.0,
    "geom:bbox":"5.981871,53.328102,5.981871,53.328102",
    "geom:latitude":53.328102,
    "geom:longitude":5.981871,
    "iso:country":"NL",
    "sg:address":"Betterwird 32A",
    "sg:city":"Dokkum",
    "sg:classifiers":[],
    "sg:orig_category":"Elektrotechnische Installatiebureaus",
    "sg:owner":"simplegeo",
    "sg:phone":"+31 519 221 790",
    "sg:postcode":"9101 PB",
    "sg:province":"Friesland",
    "src:geom":"simplegeo",
    "wof:belongsto":[
        85633337,
        101806131,
        85687055
    ],
    "wof:breaches":[],
    "wof:concordances":{
        "sg:id":"SG_3nETQD9Mdqbs2teYOx8HqT_53.328102_5.981871@1306269935"
    },
    "wof:country":"NL",
    "wof:geomhash":"7a0cf968cce70b6de631737e80a8768e",
    "wof:hierarchy":[
        {
            "continent_id":-1,
            "country_id":85633337,
            "locality_id":101806131,
            "neighbourhood_id":-1,
            "region_id":85687055,
            "venue_id":236203607
        }
    ],
    "wof:id":236203607,
    "wof:lastmodified":1449003054,
    "wof:name":"Bijlstra, J",
    "wof:parent_id":-1,
    "wof:placetype":"venue",
    "wof:superseded_by":[],
    "wof:supersedes":[],
    "wof:tags":[]
},
  "bbox": [5.981871,53.328102,5.981871,53.328102],
  "geometry": {"coordinates":[5.981871,53.328102],"type":"Point"}
}