{
  "id": 252762365,
  "type": "Feature",
  "properties": {
    "edtf:cessation":"u",
    "edtf:inception":"u",
    "geom:area":0.0,
    "geom:bbox":"4.60712,51.827839,4.60712,51.827839",
    "geom:latitude":51.827839,
    "geom:longitude":4.60712,
    "iso:country":"NL",
    "sg:address":"Munnikenstg 15",
    "sg:city":"Zwyndrecht",
    "sg:classifiers":[
        {
            "category":"Sports & Exercise",
            "subcategory":"Stables",
            "type":"Entertainment"
        }
    ],
    "sg:owner":"simplegeo",
    "sg:phone":"+31 78 610 0813",
    "sg:postcode":"3335 LJ",
    "sg:province":"Zuid-Holland",
    "sg:tags":[
        "maneges"
    ],
    "src:geom":"simplegeo",
    "wof:belongsto":[
        85798169,
        85633337,
        101754633,
        85687041
    ],
    "wof:breaches":[],
    "wof:concordances":{
        "sg:id":"SG_4sfMRoOTUb9N86pCBDUjWZ_51.827839_4.607120@1306269943"
    },
    "wof:country":"NL",
    "wof:geomhash":"ace912dd61fc5b83342b02ef49f2737e",
    "wof:hierarchy":[
        {
            "continent_id":-1,
            "country_id":85633337,
            "locality_id":101754633,
            "neighbourhood_id":85798169,
            "region_id":85687041,
            "venue_id":252762365
        }
    ],
    "wof:id":252762365,
    "wof:lastmodified":1449006167,
    "wof:name":"Hoge Devel Rijvereniging, De",
    "wof:parent_id":85798169,
    "wof:placetype":"venue",
    "wof:superseded_by":[],
    "wof:supersedes":[],
    "wof:tags":[
        "maneges"
    ]
},
  "bbox": [4.60712,51.827839,4.60712,51.827839],
  "geometry": {"coordinates":[4.60712,51.827839],"type":"Point"}
}