{
  "id": 186547943,
  "type": "Feature",
  "properties": {
    "edtf:cessation":"u",
    "edtf:inception":"u",
    "geom:area":0.0,
    "geom:bbox":"6.849204,53.319393,6.849204,53.319393",
    "geom:latitude":53.319393,
    "geom:longitude":6.849204,
    "iso:country":"NL",
    "sg:address":"Lisstraat 16",
    "sg:city":"Appingedam",
    "sg:classifiers":[],
    "sg:orig_category":"Verenigingen En Stichtingen",
    "sg:owner":"simplegeo",
    "sg:phone":"+31 596 626 261",
    "sg:postcode":"9903 BD",
    "sg:province":"Groningen",
    "src:geom":"simplegeo",
    "wof:belongsto":[
        85633337,
        101837975,
        85687059
    ],
    "wof:breaches":[],
    "wof:concordances":{
        "sg:id":"SG_5sQagr2jSBj8zvIPUMFriR_53.319393_6.849204@1306269913"
    },
    "wof:country":"NL",
    "wof:geomhash":"5358e371902f4c74708481710dea01ee",
    "wof:hierarchy":[
        {
            "continent_id":-1,
            "country_id":85633337,
            "locality_id":101837975,
            "neighbourhood_id":-1,
            "region_id":85687059,
            "venue_id":186547943
        }
    ],
    "wof:id":186547943,
    "wof:lastmodified":1449050515,
    "wof:name":"Westerdraai",
    "wof:parent_id":-1,
    "wof:placetype":"venue",
    "wof:superseded_by":[],
    "wof:supersedes":[],
    "wof:tags":[]
},
  "bbox": [6.849204,53.319393,6.849204,53.319393],
  "geometry": {"coordinates":[6.849204,53.319393],"type":"Point"}
}