{
  "id": 252933607,
  "type": "Feature",
  "properties": {
    "edtf:cessation":"u",
    "edtf:inception":"u",
    "geom:area":0.0,
    "geom:bbox":"4.609259,52.278202,4.609259,52.278202",
    "geom:latitude":52.278202,
    "geom:longitude":4.609259,
    "iso:country":"NL",
    "sg:address":"Venneperweg 899",
    "sg:city":"Nieuw Vennep",
    "sg:classifiers":[],
    "sg:orig_category":"Metaalbekleding And -Behandeling",
    "sg:owner":"simplegeo",
    "sg:phone":"+31 252 675 982",
    "sg:postcode":"2152 MC",
    "sg:province":"North Holland",
    "src:geom":"simplegeo",
    "wof:belongsto":[
        85797085,
        85633337,
        85687053
    ],
    "wof:breaches":[],
    "wof:concordances":{
        "sg:id":"SG_3lfWS5fm8hgzTYd5DKbtY5_52.278202_4.609259@1306269945"
    },
    "wof:country":"NL",
    "wof:geomhash":"80d0418bc4b400371df4e11e59caeb9a",
    "wof:hierarchy":[
        {
            "continent_id":-1,
            "country_id":85633337,
            "locality_id":-1,
            "neighbourhood_id":85797085,
            "region_id":85687053,
            "venue_id":252933607
        }
    ],
    "wof:id":252933607,
    "wof:lastmodified":1449005638,
    "wof:name":"Gebr. Griekspoor Vlamspuittechniek Bv",
    "wof:parent_id":85797085,
    "wof:placetype":"venue",
    "wof:superseded_by":[],
    "wof:supersedes":[],
    "wof:tags":[]
},
  "bbox": [4.609259,52.278202,4.609259,52.278202],
  "geometry": {"coordinates":[4.609259,52.278202],"type":"Point"}
}