{
  "id": 270214075,
  "type": "Feature",
  "properties": {
    "edtf:cessation":"u",
    "edtf:inception":"u",
    "geom:area":0.0,
    "geom:bbox":"5.232995,52.050365,5.232995,52.050365",
    "geom:latitude":52.050365,
    "geom:longitude":5.232995,
    "iso:country":"NL",
    "sg:address":"De Meent 32",
    "sg:city":"Odijk",
    "sg:classifiers":[],
    "sg:orig_category":"Fotostudio'S And Fotografen",
    "sg:owner":"simplegeo",
    "sg:phone":"+31 30 656 2122",
    "sg:postcode":"3984 JK",
    "sg:province":"Utrecht",
    "src:geom":"simplegeo",
    "wof:belongsto":[
        85797785,
        85633337,
        101751823,
        85687039
    ],
    "wof:breaches":[],
    "wof:concordances":{
        "sg:id":"SG_19BJFXVX5xVIuZv0LCzucS_52.050365_5.232995@1306269963"
    },
    "wof:country":"NL",
    "wof:geomhash":"39dcd583949f66f7ed89e79b06db97ed",
    "wof:hierarchy":[
        {
            "continent_id":-1,
            "country_id":85633337,
            "locality_id":101751823,
            "neighbourhood_id":85797785,
            "region_id":85687039,
            "venue_id":270214075
        }
    ],
    "wof:id":270214075,
    "wof:lastmodified":1449011055,
    "wof:name":"Combi Foto Blom",
    "wof:parent_id":85797785,
    "wof:placetype":"venue",
    "wof:superseded_by":[],
    "wof:supersedes":[],
    "wof:tags":[]
},
  "bbox": [5.232995,52.050365,5.232995,52.050365],
  "geometry": {"coordinates":[5.232995,52.050365],"type":"Point"}
}