{
  "id": 236122175,
  "type": "Feature",
  "properties": {
    "edtf:cessation":"u",
    "edtf:inception":"u",
    "geom:area":0.0,
    "geom:bbox":"4.955859,52.150204,4.955859,52.150204",
    "geom:latitude":52.150204,
    "geom:longitude":4.955859,
    "iso:country":"NL",
    "sg:address":"Fonteinkruid 17",
    "sg:city":"Kockengen",
    "sg:classifiers":[],
    "sg:orig_category":"Tekstschrijversters",
    "sg:owner":"simplegeo",
    "sg:phone":"+31 346 241 755",
    "sg:postcode":"3628 NE",
    "sg:province":"Utrecht",
    "src:geom":"simplegeo",
    "wof:belongsto":[
        85633337,
        101807007,
        85687039
    ],
    "wof:breaches":[],
    "wof:concordances":{
        "sg:id":"SG_4OQywRc3hhSEsx9PWIhHfN_52.150204_4.955859@1306269934"
    },
    "wof:country":"NL",
    "wof:geomhash":"79c57cc5ed12937ee93d09212567778a",
    "wof:hierarchy":[
        {
            "continent_id":-1,
            "country_id":85633337,
            "locality_id":101807007,
            "neighbourhood_id":-1,
            "region_id":85687039,
            "venue_id":236122175
        }
    ],
    "wof:id":236122175,
    "wof:lastmodified":1449003537,
    "wof:name":"Terzijde",
    "wof:parent_id":-1,
    "wof:placetype":"venue",
    "wof:superseded_by":[],
    "wof:supersedes":[],
    "wof:tags":[]
},
  "bbox": [4.955859,52.150204,4.955859,52.150204],
  "geometry": {"coordinates":[4.955859,52.150204],"type":"Point"}
}