{
  "id": 320175831,
  "type": "Feature",
  "properties": {
    "edtf:cessation":"u",
    "edtf:inception":"u",
    "geom:area":0.0,
    "geom:bbox":"5.10151,51.56422,5.10151,51.56422",
    "geom:latitude":51.56422,
    "geom:longitude":5.10151,
    "iso:country":"NL",
    "sg:address":"Ringbaan O 132A",
    "sg:city":"Tilburg",
    "sg:classifiers":[],
    "sg:orig_category":"Geluidsinstallaties - Verhuur",
    "sg:owner":"simplegeo",
    "sg:phone":"+31 13 535 9381",
    "sg:postcode":"5013 CE",
    "sg:province":"Noord-Brabant",
    "src:geom":"simplegeo",
    "wof:belongsto":[
        85798343,
        85633337,
        85687035
    ],
    "wof:breaches":[],
    "wof:concordances":{
        "sg:id":"SG_6mE6pzTjXEm2C9JHoizIMX_51.564220_5.101510@1306269995"
    },
    "wof:country":"NL",
    "wof:geomhash":"8f91d6723e7ff1bb794b678a720aa030",
    "wof:hierarchy":[
        {
            "continent_id":-1,
            "country_id":85633337,
            "locality_id":-1,
            "neighbourhood_id":85798343,
            "region_id":85687035,
            "venue_id":320175831
        }
    ],
    "wof:id":320175831,
    "wof:lastmodified":1449013860,
    "wof:name":"Tutti Frutti Light & Sound",
    "wof:parent_id":85798343,
    "wof:placetype":"venue",
    "wof:superseded_by":[],
    "wof:supersedes":[],
    "wof:tags":[]
},
  "bbox": [5.10151,51.56422,5.10151,51.56422],
  "geometry": {"coordinates":[5.10151,51.56422],"type":"Point"}
}