{
  "id": 270105907,
  "type": "Feature",
  "properties": {
    "edtf:cessation":"u",
    "edtf:inception":"u",
    "geom:area":0.0,
    "geom:bbox":"5.999762,53.325611,5.999762,53.325611",
    "geom:latitude":53.325611,
    "geom:longitude":5.999762,
    "iso:country":"NL",
    "sg:address":"Kleine Breedstraat 6",
    "sg:city":"Dokkum",
    "sg:classifiers":[
        {
            "category":"Retail",
            "subcategory":"Photofinishing",
            "type":"Services"
        }
    ],
    "sg:owner":"simplegeo",
    "sg:phone":"+31 519 221 944",
    "sg:postcode":"9101 LB",
    "sg:province":"Provincie Friesland",
    "sg:tags":[
        "foto",
        "film"
    ],
    "src:geom":"simplegeo",
    "wof:belongsto":[
        85633337,
        101806131,
        85687055
    ],
    "wof:breaches":[],
    "wof:concordances":{
        "sg:id":"SG_3pOtiN5E7iaZAEwTK4JAFr_53.325611_5.999762@1306269961"
    },
    "wof:country":"NL",
    "wof:geomhash":"001d0ae2da4e66d0ce379fe58eb5226d",
    "wof:hierarchy":[
        {
            "continent_id":-1,
            "country_id":85633337,
            "locality_id":101806131,
            "neighbourhood_id":-1,
            "region_id":85687055,
            "venue_id":270105907
        }
    ],
    "wof:id":270105907,
    "wof:lastmodified":1449009575,
    "wof:name":"Van 'T Veer Vof",
    "wof:parent_id":-1,
    "wof:placetype":"venue",
    "wof:superseded_by":[],
    "wof:supersedes":[],
    "wof:tags":[
        "foto",
        "film"
    ]
},
  "bbox": [5.999762,53.325611,5.999762,53.325611],
  "geometry": {"coordinates":[5.999762,53.325611],"type":"Point"}
}