{
  "id": 236269101,
  "type": "Feature",
  "properties": {
    "edtf:cessation":"u",
    "edtf:inception":"u",
    "geom:area":0.0,
    "geom:bbox":"4.9411,52.376968,4.9411,52.376968",
    "geom:latitude":52.376968,
    "geom:longitude":4.9411,
    "iso:country":"NL",
    "sg:address":"Knsm Ln 408",
    "sg:city":"Amsterdam",
    "sg:classifiers":[],
    "sg:orig_category":"Antiquiteiten - Restauratie",
    "sg:owner":"simplegeo",
    "sg:phone":"+31 20 694 0101",
    "sg:postcode":"1019 LN",
    "sg:province":"Noord-Holland",
    "src:geom":"simplegeo",
    "wof:belongsto":[
        85798067,
        85633337,
        101751893,
        85687053
    ],
    "wof:breaches":[],
    "wof:concordances":{
        "sg:id":"SG_5lKogXcVFjqCSi23u5QFPn_52.376968_4.941100@1306269936"
    },
    "wof:country":"NL",
    "wof:geomhash":"12505b76a552eb5a95f0ba5aff3c7fcf",
    "wof:hierarchy":[
        {
            "continent_id":-1,
            "country_id":85633337,
            "locality_id":101751893,
            "neighbourhood_id":85798067,
            "region_id":85687053,
            "venue_id":236269101
        }
    ],
    "wof:id":236269101,
    "wof:lastmodified":1449003777,
    "wof:name":"Mackinnon",
    "wof:parent_id":85798067,
    "wof:placetype":"venue",
    "wof:superseded_by":[],
    "wof:supersedes":[],
    "wof:tags":[]
},
  "bbox": [4.9411,52.376968,4.9411,52.376968],
  "geometry": {"coordinates":[4.9411,52.376968],"type":"Point"}
}