{
  "id": 236398035,
  "type": "Feature",
  "properties": {
    "edtf:cessation":"u",
    "edtf:inception":"u",
    "geom:area":0.0,
    "geom:bbox":"4.50983,51.8871,4.50983,51.8871",
    "geom:latitude":51.8871,
    "geom:longitude":4.50983,
    "iso:country":"NL",
    "sg:address":"Lede 93",
    "sg:city":"Rotterdam",
    "sg:classifiers":[],
    "sg:orig_category":"Artiesten/Gezelschappen",
    "sg:owner":"simplegeo",
    "sg:phone":"+31 10 419 7018",
    "sg:postcode":"3075 HH",
    "sg:province":"Zuid-Holland",
    "sg:website":"http://www.kijkhaarnou.nl",
    "src:geom":"simplegeo",
    "wof:belongsto":[
        85859885,
        85633337,
        101751843,
        85687041
    ],
    "wof:breaches":[],
    "wof:concordances":{
        "sg:id":"SG_0ZOseAJWy9yl04IFh3zSdD_51.887100_4.509830@1306269937"
    },
    "wof:country":"NL",
    "wof:geomhash":"ded3cbea41108879ea3eeaba3520f120",
    "wof:hierarchy":[
        {
            "continent_id":-1,
            "country_id":85633337,
            "locality_id":101751843,
            "neighbourhood_id":85859885,
            "region_id":85687041,
            "venue_id":236398035
        }
    ],
    "wof:id":236398035,
    "wof:lastmodified":1449001874,
    "wof:name":"Kijk Haar Nou",
    "wof:parent_id":85859885,
    "wof:placetype":"venue",
    "wof:superseded_by":[],
    "wof:supersedes":[],
    "wof:tags":[]
},
  "bbox": [4.50983,51.8871,4.50983,51.8871],
  "geometry": {"coordinates":[4.50983,51.8871],"type":"Point"}
}