{
  "id": 202519101,
  "type": "Feature",
  "properties": {
    "edtf:cessation":"u",
    "edtf:inception":"u",
    "geom:area":0.0,
    "geom:bbox":"5.762592,52.703751,5.762592,52.703751",
    "geom:latitude":52.703751,
    "geom:longitude":5.762592,
    "iso:country":"NL",
    "sg:address":"Sondelstraat 23",
    "sg:city":"Emmeloord",
    "sg:classifiers":[
        {
            "category":"Communications",
            "subcategory":"Television Station",
            "type":"Services"
        }
    ],
    "sg:owner":"simplegeo",
    "sg:phone":"+31 527 620 725",
    "sg:postcode":"8304 GB",
    "sg:province":"Flevoland",
    "sg:tags":[
        "video",
        "audio",
        "verhuur"
    ],
    "src:geom":"simplegeo",
    "wof:belongsto":[
        85633337,
        101807245,
        85687049
    ],
    "wof:breaches":[],
    "wof:concordances":{
        "sg:id":"SG_4vwXSvKHJ3kdivzIkwCVHC_52.703751_5.762592@1306269915"
    },
    "wof:country":"NL",
    "wof:geomhash":"17a9327e392fd0df5c000ca44be56696",
    "wof:hierarchy":[
        {
            "continent_id":-1,
            "country_id":85633337,
            "locality_id":101807245,
            "neighbourhood_id":-1,
            "region_id":85687049,
            "venue_id":202519101
        }
    ],
    "wof:id":202519101,
    "wof:lastmodified":1449062475,
    "wof:name":"Filmclub Emmeloord",
    "wof:parent_id":-1,
    "wof:placetype":"venue",
    "wof:superseded_by":[],
    "wof:supersedes":[],
    "wof:tags":[
        "video",
        "audio",
        "verhuur"
    ]
},
  "bbox": [5.762592,52.703751,5.762592,52.703751],
  "geometry": {"coordinates":[5.762592,52.703751],"type":"Point"}
}