{
  "id": 320845299,
  "type": "Feature",
  "properties": {
    "edtf:cessation":"u",
    "edtf:inception":"u",
    "geom:area":0.0,
    "geom:bbox":"5.38318,52.1549,5.38318,52.1549",
    "geom:latitude":52.1549,
    "geom:longitude":5.38318,
    "iso:country":"NL",
    "sg:address":"Stadsring 57",
    "sg:city":"Amersfoort",
    "sg:classifiers":[],
    "sg:orig_category":"Juridische Dienstverlening",
    "sg:owner":"simplegeo",
    "sg:phone":"+31 33 463 5324",
    "sg:postcode":"3811 HN",
    "sg:province":"Utrecht",
    "src:geom":"simplegeo",
    "wof:belongsto":[
        85797913,
        85633337,
        101751821,
        85687039
    ],
    "wof:breaches":[],
    "wof:concordances":{
        "sg:id":"SG_4JrNGzEjvWnGPnCKzI2af8_52.154900_5.383180@1306270003"
    },
    "wof:country":"NL",
    "wof:geomhash":"3b814d9874aec94b670362a9ef412852",
    "wof:hierarchy":[
        {
            "continent_id":-1,
            "country_id":85633337,
            "locality_id":101751821,
            "neighbourhood_id":85797913,
            "region_id":85687039,
            "venue_id":320845299
        }
    ],
    "wof:id":320845299,
    "wof:lastmodified":1449011865,
    "wof:name":"Buro Voor Rechtshulp",
    "wof:parent_id":85797913,
    "wof:placetype":"venue",
    "wof:superseded_by":[],
    "wof:supersedes":[],
    "wof:tags":[]
},
  "bbox": [5.38318,52.1549,5.38318,52.1549],
  "geometry": {"coordinates":[5.38318,52.1549],"type":"Point"}
}