{
  "id": 286452951,
  "type": "Feature",
  "properties": {
    "edtf:cessation":"u",
    "edtf:inception":"u",
    "geom:area":0.0,
    "geom:bbox":"6.877448,53.109035,6.877448,53.109035",
    "geom:latitude":53.109035,
    "geom:longitude":6.877448,
    "iso:country":"NL",
    "sg:address":"Hertenkampstr 11",
    "sg:city":"Veendam",
    "sg:classifiers":[],
    "sg:orig_category":"Bedrijfsopleidingen",
    "sg:owner":"simplegeo",
    "sg:phone":"+31 598 631 858",
    "sg:postcode":"9641 GA",
    "sg:province":"Groningen",
    "sg:website":"http://www.spirrid.nl",
    "src:geom":"simplegeo",
    "wof:belongsto":[
        85633337,
        101838023,
        85687059
    ],
    "wof:breaches":[],
    "wof:concordances":{
        "sg:id":"SG_7m30jCO4A0eeZZEm10O0IO_53.109035_6.877448@1306269969"
    },
    "wof:country":"NL",
    "wof:geomhash":"1578a043fb2bac15e90bbcab08870afd",
    "wof:hierarchy":[
        {
            "continent_id":-1,
            "country_id":85633337,
            "locality_id":101838023,
            "neighbourhood_id":-1,
            "region_id":85687059,
            "venue_id":286452951
        }
    ],
    "wof:id":286452951,
    "wof:lastmodified":1449015854,
    "wof:name":"Spirrid",
    "wof:parent_id":-1,
    "wof:placetype":"venue",
    "wof:superseded_by":[],
    "wof:supersedes":[],
    "wof:tags":[]
},
  "bbox": [6.877448,53.109035,6.877448,53.109035],
  "geometry": {"coordinates":[6.877448,53.109035],"type":"Point"}
}