{
  "id": 303724273,
  "type": "Feature",
  "properties": {
    "edtf:cessation":"u",
    "edtf:inception":"u",
    "geom:area":0.0,
    "geom:bbox":"5.133843,52.10321,5.133843,52.10321",
    "geom:latitude":52.10321,
    "geom:longitude":5.133843,
    "iso:country":"NL",
    "sg:address":"Vogelsanglaan 5",
    "sg:city":"Utrecht",
    "sg:classifiers":[],
    "sg:orig_category":"Diverse Opleidingen And Onderwijs",
    "sg:owner":"simplegeo",
    "sg:phone":"+31 30 271 2053",
    "sg:postcode":"3571 ZM",
    "sg:province":"Utrecht",
    "src:geom":"simplegeo",
    "wof:belongsto":[
        85798515,
        85633337,
        101751827,
        85687039
    ],
    "wof:breaches":[],
    "wof:concordances":{
        "sg:id":"SG_7JILTohdVajt7zdtaqqDoH_52.103210_5.133843@1306269987"
    },
    "wof:country":"NL",
    "wof:geomhash":"561593363d4e02365d6e0f059eb4241c",
    "wof:hierarchy":[
        {
            "continent_id":-1,
            "country_id":85633337,
            "locality_id":101751827,
            "neighbourhood_id":85798515,
            "region_id":85687039,
            "venue_id":303724273
        }
    ],
    "wof:id":303724273,
    "wof:lastmodified":1449000516,
    "wof:name":"H.J.M. Le Nobel",
    "wof:parent_id":85798515,
    "wof:placetype":"venue",
    "wof:superseded_by":[],
    "wof:supersedes":[],
    "wof:tags":[]
},
  "bbox": [5.133843,52.10321,5.133843,52.10321],
  "geometry": {"coordinates":[5.133843,52.10321],"type":"Point"}
}