{
  "id": 236914239,
  "type": "Feature",
  "properties": {
    "edtf:cessation":"u",
    "edtf:inception":"u",
    "geom:area":0.0,
    "geom:bbox":"5.764853,51.866829,5.764853,51.866829",
    "geom:latitude":51.866829,
    "geom:longitude":5.764853,
    "iso:country":"NL",
    "sg:address":"De Balmerd 86",
    "sg:city":"Beuningen Gld",
    "sg:classifiers":[],
    "sg:orig_category":"Machinehandel",
    "sg:owner":"simplegeo",
    "sg:phone":"+31 24 675 0530",
    "sg:postcode":"6641 LE",
    "sg:province":"Gelderland",
    "src:geom":"simplegeo",
    "wof:belongsto":[
        85797941,
        85633337,
        101751859,
        85687043
    ],
    "wof:breaches":[],
    "wof:concordances":{
        "sg:id":"SG_1lPJZNUoWhvpxqT2YXnmH8_51.866829_5.764853@1306269942"
    },
    "wof:country":"NL",
    "wof:geomhash":"f683974b43d6856cf5663d4d3f7911d2",
    "wof:hierarchy":[
        {
            "continent_id":-1,
            "country_id":85633337,
            "locality_id":101751859,
            "neighbourhood_id":85797941,
            "region_id":85687043,
            "venue_id":236914239
        }
    ],
    "wof:id":236914239,
    "wof:lastmodified":1449002807,
    "wof:name":"Mekelenkamp",
    "wof:parent_id":85797941,
    "wof:placetype":"venue",
    "wof:superseded_by":[],
    "wof:supersedes":[],
    "wof:tags":[]
},
  "bbox": [5.764853,51.866829,5.764853,51.866829],
  "geometry": {"coordinates":[5.764853,51.866829],"type":"Point"}
}