{
  "id": 319991845,
  "type": "Feature",
  "properties": {
    "edtf:cessation":"u",
    "edtf:inception":"u",
    "geom:area":0.0,
    "geom:bbox":"6.527414,53.325024,6.527414,53.325024",
    "geom:latitude":53.325024,
    "geom:longitude":6.527414,
    "iso:country":"NL",
    "sg:address":"Meander 47",
    "sg:city":"Winsum Gn",
    "sg:classifiers":[],
    "sg:orig_category":"Huizensloop And Bouwrijp Maken",
    "sg:owner":"simplegeo",
    "sg:phone":"+31 595 444 153",
    "sg:postcode":"9951 VD",
    "sg:province":"Groningen",
    "src:geom":"simplegeo",
    "wof:belongsto":[
        85633337,
        101807535,
        85687059
    ],
    "wof:breaches":[],
    "wof:concordances":{
        "sg:id":"SG_21cSTNFQKUsixzidEX7ZuG_53.325024_6.527414@1306269993"
    },
    "wof:country":"NL",
    "wof:geomhash":"f6602b478bc9fd26ce1088233ef4791a",
    "wof:hierarchy":[
        {
            "continent_id":-1,
            "country_id":85633337,
            "locality_id":101807535,
            "neighbourhood_id":-1,
            "region_id":85687059,
            "venue_id":319991845
        }
    ],
    "wof:id":319991845,
    "wof:lastmodified":1449024315,
    "wof:name":"Vts",
    "wof:parent_id":-1,
    "wof:placetype":"venue",
    "wof:superseded_by":[],
    "wof:supersedes":[],
    "wof:tags":[]
},
  "bbox": [6.527414,53.325024,6.527414,53.325024],
  "geometry": {"coordinates":[6.527414,53.325024],"type":"Point"}
}