{
  "id": 319939705,
  "type": "Feature",
  "properties": {
    "edtf:cessation":"u",
    "edtf:inception":"u",
    "geom:area":0.0,
    "geom:bbox":"6.477869,52.723289,6.477869,52.723289",
    "geom:latitude":52.723289,
    "geom:longitude":6.477869,
    "iso:country":"NL",
    "sg:address":"Hoofdstraat 155",
    "sg:city":"Hoogeveen",
    "sg:classifiers":[],
    "sg:orig_category":"Huishoudapparatuur, Televisies And Radio'S",
    "sg:owner":"simplegeo",
    "sg:phone":"+31 528 268 385",
    "sg:postcode":"7902 EG",
    "sg:province":"Drenthe",
    "src:geom":"simplegeo",
    "wof:belongsto":[
        85798565,
        85633337,
        101837877,
        85687051
    ],
    "wof:breaches":[],
    "wof:concordances":{
        "sg:id":"SG_28v4bIEuHMygPdxhwrfDgr_52.723289_6.477869@1306269992"
    },
    "wof:country":"NL",
    "wof:geomhash":"21448f767828f5967c3a7de604cb0670",
    "wof:hierarchy":[
        {
            "continent_id":-1,
            "country_id":85633337,
            "locality_id":101837877,
            "neighbourhood_id":85798565,
            "region_id":85687051,
            "venue_id":319939705
        }
    ],
    "wof:id":319939705,
    "wof:lastmodified":1449024313,
    "wof:name":"Homeparts Onderdelenshop",
    "wof:parent_id":85798565,
    "wof:placetype":"venue",
    "wof:superseded_by":[],
    "wof:supersedes":[],
    "wof:tags":[]
},
  "bbox": [6.477869,52.723289,6.477869,52.723289],
  "geometry": {"coordinates":[6.477869,52.723289],"type":"Point"}
}