{
  "id": 320152459,
  "type": "Feature",
  "properties": {
    "edtf:cessation":"u",
    "edtf:inception":"u",
    "geom:area":0.0,
    "geom:bbox":"4.97467,52.32378,4.97467,52.32378",
    "geom:latitude":52.32378,
    "geom:longitude":4.97467,
    "iso:country":"NL",
    "sg:address":"Echtenstein 100-U",
    "sg:city":"Amsterdam Zuidoost",
    "sg:classifiers":[
        {
            "category":"Food & Beverages",
            "subcategory":"Candy",
            "type":"Retail Goods"
        }
    ],
    "sg:owner":"simplegeo",
    "sg:phone":"+31 20 600 9551",
    "sg:postcode":"1103 AB",
    "sg:province":"North Holland",
    "sg:tags":[
        "geld-",
        "en",
        "waardetransporten"
    ],
    "sg:website":"http://www.afristar.nl",
    "src:geom":"simplegeo",
    "wof:belongsto":[
        85797111,
        85633337,
        101751895,
        85687053
    ],
    "wof:breaches":[],
    "wof:concordances":{
        "sg:id":"SG_1zzgmBOXBkX6Depaawe5eK_52.323780_4.974670@1306269995"
    },
    "wof:country":"NL",
    "wof:geomhash":"baf6257119fcc0280136f959277bb876",
    "wof:hierarchy":[
        {
            "continent_id":-1,
            "country_id":85633337,
            "locality_id":101751895,
            "neighbourhood_id":85797111,
            "region_id":85687053,
            "venue_id":320152459
        }
    ],
    "wof:id":320152459,
    "wof:lastmodified":1449014108,
    "wof:name":"Afristar",
    "wof:parent_id":85797111,
    "wof:placetype":"venue",
    "wof:superseded_by":[],
    "wof:supersedes":[],
    "wof:tags":[
        "geld-",
        "en",
        "waardetransporten"
    ]
},
  "bbox": [4.97467,52.32378,4.97467,52.32378],
  "geometry": {"coordinates":[4.97467,52.32378],"type":"Point"}
}