{
  "id": 236240745,
  "type": "Feature",
  "properties": {
    "edtf:cessation":"u",
    "edtf:inception":"u",
    "geom:area":0.0,
    "geom:bbox":"4.78255,52.341194,4.78255,52.341194",
    "geom:latitude":52.341194,
    "geom:longitude":4.78255,
    "iso:country":"NL",
    "sg:address":"Swammerdamstr 8",
    "sg:city":"Badhoevedorp",
    "sg:classifiers":[
        {
            "category":"Education",
            "subcategory":"Special Training",
            "type":"Public Place"
        }
    ],
    "sg:owner":"simplegeo",
    "sg:phone":"+31 20 358 0844",
    "sg:postcode":"1171 XJ",
    "sg:province":"North Holland",
    "sg:tags":[
        "expertise"
    ],
    "src:geom":"simplegeo",
    "wof:belongsto":[
        85798207,
        85633337,
        101754789,
        85687053
    ],
    "wof:breaches":[],
    "wof:concordances":{
        "sg:id":"SG_5gn4Riv0SNAYKVLMzVtQHg_52.341194_4.782550@1306269936"
    },
    "wof:country":"NL",
    "wof:geomhash":"41fb22287d31e8c9abdfc58b8a6d5db6",
    "wof:hierarchy":[
        {
            "continent_id":-1,
            "country_id":85633337,
            "locality_id":101754789,
            "neighbourhood_id":85798207,
            "region_id":85687053,
            "venue_id":236240745
        }
    ],
    "wof:id":236240745,
    "wof:lastmodified":1449001934,
    "wof:name":"Tcms Bv",
    "wof:parent_id":85798207,
    "wof:placetype":"venue",
    "wof:superseded_by":[],
    "wof:supersedes":[],
    "wof:tags":[
        "expertise"
    ]
},
  "bbox": [4.78255,52.341194,4.78255,52.341194],
  "geometry": {"coordinates":[4.78255,52.341194],"type":"Point"}
}