{
  "id": 286447745,
  "type": "Feature",
  "properties": {
    "edtf:cessation":"u",
    "edtf:inception":"u",
    "geom:area":0.0,
    "geom:bbox":"4.933171,52.355373,4.933171,52.355373",
    "geom:latitude":52.355373,
    "geom:longitude":4.933171,
    "iso:country":"NL",
    "sg:address":"Hogewg 41",
    "sg:city":"Amsterdam",
    "sg:classifiers":[],
    "sg:orig_category":"Bedrijfsopleidingen",
    "sg:owner":"simplegeo",
    "sg:phone":"+31 20 659 9559",
    "sg:postcode":"1098 BX",
    "sg:province":"North Holland",
    "src:geom":"simplegeo",
    "wof:belongsto":[
        85798627,
        85633337,
        101751893,
        85687053
    ],
    "wof:breaches":[],
    "wof:concordances":{
        "sg:id":"SG_4pAFCJOyaM2CHGvfieYDi6_52.355373_4.933171@1306269969"
    },
    "wof:country":"NL",
    "wof:geomhash":"0aabbc231d22449e4c5c997c6096266f",
    "wof:hierarchy":[
        {
            "continent_id":-1,
            "country_id":85633337,
            "locality_id":101751893,
            "neighbourhood_id":85798627,
            "region_id":85687053,
            "venue_id":286447745
        }
    ],
    "wof:id":286447745,
    "wof:lastmodified":1449017259,
    "wof:name":"Portico Advies",
    "wof:parent_id":85798627,
    "wof:placetype":"venue",
    "wof:superseded_by":[],
    "wof:supersedes":[],
    "wof:tags":[]
},
  "bbox": [4.933171,52.355373,4.933171,52.355373],
  "geometry": {"coordinates":[4.933171,52.355373],"type":"Point"}
}