{
  "id": 202881023,
  "type": "Feature",
  "properties": {
    "edtf:cessation":"u",
    "edtf:inception":"u",
    "geom:area":0.0,
    "geom:bbox":"6.815554,52.268963,6.815554,52.268963",
    "geom:latitude":52.268963,
    "geom:longitude":6.815554,
    "iso:country":"NL",
    "sg:address":"Griegstr 41",
    "sg:city":"Hengelo Ov",
    "sg:classifiers":[],
    "sg:orig_category":"Vertalers",
    "sg:owner":"simplegeo",
    "sg:phone":"+31 74 243 7902",
    "sg:postcode":"7557 RB",
    "sg:province":"NL.08",
    "src:geom":"simplegeo",
    "wof:belongsto":[
        85797817,
        85633337,
        101751869,
        85687045
    ],
    "wof:breaches":[],
    "wof:concordances":{
        "sg:id":"SG_1GeQhA6VJJvu6JvXPasyhH_52.268963_6.815554@1306269919"
    },
    "wof:country":"NL",
    "wof:geomhash":"45abd1bb7c9e502c36c6e79f36eec714",
    "wof:hierarchy":[
        {
            "continent_id":-1,
            "country_id":85633337,
            "locality_id":101751869,
            "neighbourhood_id":85797817,
            "region_id":85687045,
            "venue_id":202881023
        }
    ],
    "wof:id":202881023,
    "wof:lastmodified":1449061590,
    "wof:name":"R\u00f6zycka, A J",
    "wof:parent_id":85797817,
    "wof:placetype":"venue",
    "wof:superseded_by":[],
    "wof:supersedes":[],
    "wof:tags":[]
},
  "bbox": [6.815554,52.268963,6.815554,52.268963],
  "geometry": {"coordinates":[6.815554,52.268963],"type":"Point"}
}