{
  "id": 287000879,
  "type": "Feature",
  "properties": {
    "edtf:cessation":"u",
    "edtf:inception":"u",
    "geom:area":0.0,
    "geom:bbox":"5.897689,51.70929,5.897689,51.70929",
    "geom:latitude":51.70929,
    "geom:longitude":5.897689,
    "iso:country":"NL",
    "sg:address":"Drogesestr 5",
    "sg:city":"St Agatha",
    "sg:classifiers":[],
    "sg:orig_category":"Bloemen En Planten - Groothandel",
    "sg:owner":"simplegeo",
    "sg:phone":"+31 485 313 363",
    "sg:postcode":"5435 XT",
    "sg:province":"Noord-Brabant",
    "src:geom":"simplegeo",
    "wof:belongsto":[
        85633337,
        85687035
    ],
    "wof:breaches":[],
    "wof:concordances":{
        "sg:id":"SG_58OauX86lssEgzyZN4FicP_51.709290_5.897689@1306269975"
    },
    "wof:country":"NL",
    "wof:geomhash":"3c5621c782a80a932873231cb7b0d22f",
    "wof:hierarchy":[
        {
            "continent_id":-1,
            "country_id":85633337,
            "locality_id":-1,
            "neighbourhood_id":-1,
            "region_id":85687035,
            "venue_id":287000879
        }
    ],
    "wof:id":287000879,
    "wof:lastmodified":1449000801,
    "wof:name":"Hendriks Vof, G A H",
    "wof:parent_id":-1,
    "wof:placetype":"venue",
    "wof:superseded_by":[],
    "wof:supersedes":[],
    "wof:tags":[]
},
  "bbox": [5.897689,51.70929,5.897689,51.70929],
  "geometry": {"coordinates":[5.897689,51.70929],"type":"Point"}
}