{
  "id": 253240143,
  "type": "Feature",
  "properties": {
    "edtf:cessation":"u",
    "edtf:inception":"u",
    "geom:area":0.0,
    "geom:bbox":"6.088738,52.512566,6.088738,52.512566",
    "geom:latitude":52.512566,
    "geom:longitude":6.088738,
    "iso:country":"NL",
    "sg:address":"V Karnebeekstr 86",
    "sg:city":"Zwolle",
    "sg:classifiers":[],
    "sg:orig_category":"Meubelstoffering",
    "sg:owner":"simplegeo",
    "sg:phone":"+31 38 422 3334",
    "sg:postcode":"8011 JL",
    "sg:province":"NL.08",
    "src:geom":"simplegeo",
    "wof:belongsto":[
        85797067,
        85633337,
        85687045
    ],
    "wof:breaches":[],
    "wof:concordances":{
        "sg:id":"SG_4D8FOwvbfz5OwlicEXFEra_52.512566_6.088738@1306269947"
    },
    "wof:country":"NL",
    "wof:geomhash":"740e9a505a5f12cb303d6b8f53c461cc",
    "wof:hierarchy":[
        {
            "continent_id":-1,
            "country_id":85633337,
            "locality_id":-1,
            "neighbourhood_id":85797067,
            "region_id":85687045,
            "venue_id":253240143
        }
    ],
    "wof:id":253240143,
    "wof:lastmodified":1449063119,
    "wof:name":"Makaske Zwolle",
    "wof:parent_id":85797067,
    "wof:placetype":"venue",
    "wof:superseded_by":[],
    "wof:supersedes":[],
    "wof:tags":[]
},
  "bbox": [6.088738,52.512566,6.088738,52.512566],
  "geometry": {"coordinates":[6.088738,52.512566],"type":"Point"}
}