{
  "id": 220130625,
  "type": "Feature",
  "properties": {
    "edtf:cessation":"u",
    "edtf:inception":"u",
    "geom:area":0.0,
    "geom:bbox":"5.172589,52.283581,5.172589,52.283581",
    "geom:latitude":52.283581,
    "geom:longitude":5.172589,
    "iso:country":"NL",
    "sg:address":"Rembrandtln 42",
    "sg:city":"Naarden",
    "sg:classifiers":[],
    "sg:orig_category":"Adviesbureaus",
    "sg:owner":"simplegeo",
    "sg:phone":"+31 6 53743783",
    "sg:postcode":"1412 JR",
    "sg:province":"Noord-Holland",
    "sg:website":"http://www.vissercopini.nl",
    "src:geom":"simplegeo",
    "wof:belongsto":[
        85797181,
        85633337,
        85687053
    ],
    "wof:breaches":[],
    "wof:concordances":{
        "sg:id":"SG_6y5vhAmWHOJVJ8IdQczkyW_52.283581_5.172589@1306269932"
    },
    "wof:country":"NL",
    "wof:geomhash":"9dd5f813bcdaa818dce091083050db68",
    "wof:hierarchy":[
        {
            "continent_id":-1,
            "country_id":85633337,
            "locality_id":-1,
            "neighbourhood_id":85797181,
            "region_id":85687053,
            "venue_id":220130625
        }
    ],
    "wof:id":220130625,
    "wof:lastmodified":1449074293,
    "wof:name":"Maters Management Bv",
    "wof:parent_id":85797181,
    "wof:placetype":"venue",
    "wof:superseded_by":[],
    "wof:supersedes":[],
    "wof:tags":[]
},
  "bbox": [5.172589,52.283581,5.172589,52.283581],
  "geometry": {"coordinates":[5.172589,52.283581],"type":"Point"}
}