{
  "id": 219364671,
  "type": "Feature",
  "properties": {
    "edtf:cessation":"u",
    "edtf:inception":"u",
    "geom:area":0.0,
    "geom:bbox":"5.143992,51.680962,5.143992,51.680962",
    "geom:latitude":51.680962,
    "geom:longitude":5.143992,
    "iso:country":"NL",
    "sg:address":"Govert Flinckstraat 2",
    "sg:city":"Drunen",
    "sg:classifiers":[],
    "sg:orig_category":"Loodgieterswerk, Verwarming And Sanitaire Installaties",
    "sg:owner":"simplegeo",
    "sg:phone":"+31 416 375 026",
    "sg:postcode":"5151 WK",
    "sg:province":"North Brabant",
    "src:geom":"simplegeo",
    "wof:belongsto":[
        85633337,
        101839349,
        85687035
    ],
    "wof:breaches":[],
    "wof:concordances":{
        "sg:id":"SG_3Brm1J0ianaDaNCCE7awiD_51.680962_5.143992@1306269925"
    },
    "wof:country":"NL",
    "wof:geomhash":"8dc7351c15f30a8f2236c364fa3a907f",
    "wof:hierarchy":[
        {
            "continent_id":-1,
            "country_id":85633337,
            "locality_id":101839349,
            "neighbourhood_id":-1,
            "region_id":85687035,
            "venue_id":219364671
        }
    ],
    "wof:id":219364671,
    "wof:lastmodified":1449072356,
    "wof:name":"Installatiebedrijf H. Keetels",
    "wof:parent_id":-1,
    "wof:placetype":"venue",
    "wof:superseded_by":[],
    "wof:supersedes":[],
    "wof:tags":[]
},
  "bbox": [5.143992,51.680962,5.143992,51.680962],
  "geometry": {"coordinates":[5.143992,51.680962],"type":"Point"}
}