{
  "id": 320719667,
  "type": "Feature",
  "properties": {
    "edtf:cessation":"u",
    "edtf:inception":"u",
    "geom:area":0.0,
    "geom:bbox":"5.780268,52.282551,5.780268,52.282551",
    "geom:latitude":52.282551,
    "geom:longitude":5.780268,
    "iso:country":"NL",
    "sg:address":"Kl Koloniewg 51",
    "sg:city":"Elspeet",
    "sg:classifiers":[],
    "sg:orig_category":"Zonweringen",
    "sg:owner":"simplegeo",
    "sg:phone":"+31 577 491 104",
    "sg:postcode":"8075 PB",
    "sg:province":"Gelderland",
    "src:geom":"simplegeo",
    "wof:belongsto":[
        85633337,
        85687043
    ],
    "wof:breaches":[],
    "wof:concordances":{
        "sg:id":"SG_01860xsuVEXo98kWXQdWgk_52.282551_5.780268@1306270001"
    },
    "wof:country":"NL",
    "wof:geomhash":"8e5818d54dfec50486c23cc878bf9ba5",
    "wof:hierarchy":[
        {
            "continent_id":-1,
            "country_id":85633337,
            "locality_id":-1,
            "neighbourhood_id":-1,
            "region_id":85687043,
            "venue_id":320719667
        }
    ],
    "wof:id":320719667,
    "wof:lastmodified":1449011731,
    "wof:name":"Heijer Mzn, M Den",
    "wof:parent_id":-1,
    "wof:placetype":"venue",
    "wof:superseded_by":[],
    "wof:supersedes":[],
    "wof:tags":[]
},
  "bbox": [5.780268,52.282551,5.780268,52.282551],
  "geometry": {"coordinates":[5.780268,52.282551],"type":"Point"}
}