{
  "id": 202522285,
  "type": "Feature",
  "properties": {
    "edtf:cessation":"u",
    "edtf:inception":"u",
    "geom:area":0.0,
    "geom:bbox":"4.890378,52.356537,4.890378,52.356537",
    "geom:latitude":52.356537,
    "geom:longitude":4.890378,
    "iso:country":"NL",
    "sg:address":"Ferdinand Bolstraat 32",
    "sg:city":"Amsterdam",
    "sg:classifiers":[
        {
            "category":"Communications",
            "subcategory":"Television Station",
            "type":"Services"
        }
    ],
    "sg:owner":"simplegeo",
    "sg:phone":"+31 20 679 0576",
    "sg:postcode":"1072 LK",
    "sg:province":"Noord-Holland",
    "sg:tags":[
        "video",
        "audio",
        "verhuur"
    ],
    "src:geom":"simplegeo",
    "wof:belongsto":[
        85797363,
        85633337,
        101751893,
        85687053
    ],
    "wof:breaches":[],
    "wof:concordances":{
        "sg:id":"SG_7AejvccfqsOYvXKIz3x6zL_52.356537_4.890378@1306269915"
    },
    "wof:country":"NL",
    "wof:geomhash":"19c5c1d736b43ee07abc320a0e8b820d",
    "wof:hierarchy":[
        {
            "continent_id":-1,
            "country_id":85633337,
            "locality_id":101751893,
            "neighbourhood_id":85797363,
            "region_id":85687053,
            "venue_id":202522285
        }
    ],
    "wof:id":202522285,
    "wof:lastmodified":1449061331,
    "wof:name":"Movie Center Ferdinand Bol",
    "wof:parent_id":85797363,
    "wof:placetype":"venue",
    "wof:superseded_by":[],
    "wof:supersedes":[],
    "wof:tags":[
        "video",
        "audio",
        "verhuur"
    ]
},
  "bbox": [4.890378,52.356537,4.890378,52.356537],
  "geometry": {"coordinates":[4.890378,52.356537],"type":"Point"}
}