{
  "id": 186428831,
  "type": "Feature",
  "properties": {
    "edtf:cessation":"u",
    "edtf:inception":"u",
    "geom:area":0.0,
    "geom:bbox":"4.78972,52.732449,4.78972,52.732449",
    "geom:latitude":52.732449,
    "geom:longitude":4.78972,
    "iso:country":"NL",
    "sg:address":"Woudmeerwg 19",
    "sg:city":"Dirkshorn",
    "sg:classifiers":[],
    "sg:orig_category":"Verenigingen En Stichtingen",
    "sg:owner":"simplegeo",
    "sg:phone":"+31 224 551 615",
    "sg:postcode":"1746 CD",
    "sg:province":"North Holland",
    "src:geom":"simplegeo",
    "wof:belongsto":[
        85633337,
        85687053
    ],
    "wof:breaches":[],
    "wof:concordances":{
        "sg:id":"SG_2OBfppr4GBjgs296WhG5mb_52.732449_4.789720@1306269912"
    },
    "wof:country":"NL",
    "wof:geomhash":"702e5faca8a221f592f1bb1a82d425d4",
    "wof:hierarchy":[
        {
            "continent_id":-1,
            "country_id":85633337,
            "locality_id":-1,
            "neighbourhood_id":-1,
            "region_id":85687053,
            "venue_id":186428831
        }
    ],
    "wof:id":186428831,
    "wof:lastmodified":1449052852,
    "wof:name":"Kley-Drivers, De",
    "wof:parent_id":-1,
    "wof:placetype":"venue",
    "wof:superseded_by":[],
    "wof:supersedes":[],
    "wof:tags":[]
},
  "bbox": [4.78972,52.732449,4.78972,52.732449],
  "geometry": {"coordinates":[4.78972,52.732449],"type":"Point"}
}