{
  "id": 286680839,
  "type": "Feature",
  "properties": {
    "edtf:cessation":"u",
    "edtf:inception":"u",
    "geom:area":0.0,
    "geom:bbox":"6.282514,52.377678,6.282514,52.377678",
    "geom:latitude":52.377678,
    "geom:longitude":6.282514,
    "iso:country":"NL",
    "sg:address":"Praamstraat 26",
    "sg:city":"Raalte",
    "sg:classifiers":[],
    "sg:orig_category":"Beursorganisaties And Standbouw",
    "sg:owner":"simplegeo",
    "sg:phone":"+31 572 362 185",
    "sg:postcode":"8102 HM",
    "sg:province":"NL.08",
    "src:geom":"simplegeo",
    "wof:belongsto":[
        85633337,
        101808759,
        85687045
    ],
    "wof:breaches":[],
    "wof:concordances":{
        "sg:id":"SG_5gAmsZSfYh5dxNbZsVyIrh_52.377678_6.282514@1306269972"
    },
    "wof:country":"NL",
    "wof:geomhash":"cc6d8913af7b25b12227befaaa51448e",
    "wof:hierarchy":[
        {
            "continent_id":-1,
            "country_id":85633337,
            "locality_id":101808759,
            "neighbourhood_id":-1,
            "region_id":85687045,
            "venue_id":286680839
        }
    ],
    "wof:id":286680839,
    "wof:lastmodified":1449017245,
    "wof:name":"Folie Decors",
    "wof:parent_id":-1,
    "wof:placetype":"venue",
    "wof:superseded_by":[],
    "wof:supersedes":[],
    "wof:tags":[]
},
  "bbox": [6.282514,52.377678,6.282514,52.377678],
  "geometry": {"coordinates":[6.282514,52.377678],"type":"Point"}
}