{
  "id": 286422461,
  "type": "Feature",
  "properties": {
    "edtf:cessation":"u",
    "edtf:inception":"u",
    "geom:area":0.0,
    "geom:bbox":"3.615588,51.50164,3.615588,51.50164",
    "geom:latitude":51.50164,
    "geom:longitude":3.615588,
    "iso:country":"NL",
    "sg:address":"Spanjaardstr 25",
    "sg:city":"Middelburg",
    "sg:classifiers":[],
    "sg:orig_category":"Bedrijfsopleidingen",
    "sg:owner":"simplegeo",
    "sg:phone":"+31 118 625 073",
    "sg:postcode":"4331 EN",
    "sg:province":"Zeeland",
    "src:geom":"simplegeo",
    "wof:belongsto":[
        85797815,
        85633337,
        85687037
    ],
    "wof:breaches":[],
    "wof:concordances":{
        "sg:id":"SG_2D57VFNk5SZMpwUfGWQFvW_51.501640_3.615588@1306269969"
    },
    "wof:country":"NL",
    "wof:geomhash":"a5ae9e2aeaed0e77cc24504deab04c01",
    "wof:hierarchy":[
        {
            "continent_id":-1,
            "country_id":85633337,
            "locality_id":-1,
            "neighbourhood_id":85797815,
            "region_id":85687037,
            "venue_id":286422461
        }
    ],
    "wof:id":286422461,
    "wof:lastmodified":1449015377,
    "wof:name":"Ambition",
    "wof:parent_id":85797815,
    "wof:placetype":"venue",
    "wof:superseded_by":[],
    "wof:supersedes":[],
    "wof:tags":[]
},
  "bbox": [3.615588,51.50164,3.615588,51.50164],
  "geometry": {"coordinates":[3.615588,51.50164],"type":"Point"}
}