{
  "id": 203342795,
  "type": "Feature",
  "properties": {
    "edtf:cessation":"u",
    "edtf:inception":"u",
    "geom:area":0.0,
    "geom:bbox":"4.667469,51.982471,4.667469,51.982471",
    "geom:latitude":51.982471,
    "geom:longitude":4.667469,
    "iso:country":"NL",
    "sg:address":"Pr Bernhardstr 53",
    "sg:city":"Moordrecht",
    "sg:classifiers":[],
    "sg:orig_category":"Voetbalverenigingen",
    "sg:owner":"simplegeo",
    "sg:phone":"+31 182 374 803",
    "sg:postcode":"2841 TG",
    "sg:province":"South Holland",
    "src:geom":"simplegeo",
    "wof:belongsto":[
        85797883,
        85633337,
        85687041
    ],
    "wof:breaches":[],
    "wof:concordances":{
        "sg:id":"SG_6u2PTY69x91mAnWE1S3Za4_51.982471_4.667469@1306269923"
    },
    "wof:country":"NL",
    "wof:geomhash":"92aafcbd839785411a6ec05bbbb1d83d",
    "wof:hierarchy":[
        {
            "continent_id":-1,
            "country_id":85633337,
            "locality_id":-1,
            "neighbourhood_id":85797883,
            "region_id":85687041,
            "venue_id":203342795
        }
    ],
    "wof:id":203342795,
    "wof:lastmodified":1449026741,
    "wof:name":"Gouderak Vv",
    "wof:parent_id":85797883,
    "wof:placetype":"venue",
    "wof:superseded_by":[],
    "wof:supersedes":[],
    "wof:tags":[]
},
  "bbox": [4.667469,51.982471,4.667469,51.982471],
  "geometry": {"coordinates":[4.667469,51.982471],"type":"Point"}
}