{
  "id": 253579963,
  "type": "Feature",
  "properties": {
    "edtf:cessation":"u",
    "edtf:inception":"u",
    "geom:area":0.0,
    "geom:bbox":"6.209521,52.252628,6.209521,52.252628",
    "geom:latitude":52.252628,
    "geom:longitude":6.209521,
    "iso:country":"NL",
    "sg:address":"Gildenburg 808",
    "sg:city":"Deventer",
    "sg:classifiers":[
        {
            "category":"Personal",
            "subcategory":"Nail Salon",
            "type":"Services"
        }
    ],
    "sg:owner":"simplegeo",
    "sg:phone":"+31 570 652 566",
    "sg:postcode":"7423 ZL",
    "sg:province":"NL.08",
    "sg:tags":[
        "pedicure"
    ],
    "src:geom":"simplegeo",
    "wof:belongsto":[
        85797823,
        85633337,
        101751865,
        85687045
    ],
    "wof:breaches":[],
    "wof:concordances":{
        "sg:id":"SG_5xNV7ESjeCOQvikq5IuLmR_52.252628_6.209521@1306269951"
    },
    "wof:country":"NL",
    "wof:geomhash":"3c0027c03d49f38c1592550add1fc2b9",
    "wof:hierarchy":[
        {
            "continent_id":-1,
            "country_id":85633337,
            "locality_id":101751865,
            "neighbourhood_id":85797823,
            "region_id":85687045,
            "venue_id":253579963
        }
    ],
    "wof:id":253579963,
    "wof:lastmodified":1449063764,
    "wof:name":"Valk, A W",
    "wof:parent_id":85797823,
    "wof:placetype":"venue",
    "wof:superseded_by":[],
    "wof:supersedes":[],
    "wof:tags":[
        "pedicure"
    ]
},
  "bbox": [6.209521,52.252628,6.209521,52.252628],
  "geometry": {"coordinates":[6.209521,52.252628],"type":"Point"}
}