{
  "id": 252711831,
  "type": "Feature",
  "properties": {
    "edtf:cessation":"u",
    "edtf:inception":"u",
    "geom:area":0.0,
    "geom:bbox":"6.957223,52.973984,6.957223,52.973984",
    "geom:latitude":52.973984,
    "geom:longitude":6.957223,
    "iso:country":"NL",
    "sg:address":"Dwarsdiep 53",
    "sg:city":"Nieuw Buinen",
    "sg:classifiers":[],
    "sg:orig_category":"Makelaars En Adviseurs Schepen En Jachten",
    "sg:owner":"simplegeo",
    "sg:phone":"+31 599 613 293",
    "sg:postcode":"9521 CK",
    "sg:province":"Groningen",
    "src:geom":"simplegeo",
    "wof:belongsto":[
        85633337,
        101837895,
        85687059
    ],
    "wof:breaches":[],
    "wof:concordances":{
        "sg:id":"SG_6Wdl9t2aqipDcBZYBmpuFM_52.973984_6.957223@1306269942"
    },
    "wof:country":"NL",
    "wof:geomhash":"e39a495b583f564a992a0a4c22929620",
    "wof:hierarchy":[
        {
            "continent_id":-1,
            "country_id":85633337,
            "locality_id":101837895,
            "neighbourhood_id":-1,
            "region_id":85687059,
            "venue_id":252711831
        }
    ],
    "wof:id":252711831,
    "wof:lastmodified":1449006310,
    "wof:name":"Peters",
    "wof:parent_id":-1,
    "wof:placetype":"venue",
    "wof:superseded_by":[],
    "wof:supersedes":[],
    "wof:tags":[]
},
  "bbox": [6.957223,52.973984,6.957223,52.973984],
  "geometry": {"coordinates":[6.957223,52.973984],"type":"Point"}
}