{
  "id": 219742249,
  "type": "Feature",
  "properties": {
    "edtf:cessation":"u",
    "edtf:inception":"u",
    "geom:area":0.0,
    "geom:bbox":"4.957471,51.958416,4.957471,51.958416",
    "geom:latitude":51.958416,
    "geom:longitude":4.957471,
    "iso:country":"NL",
    "sg:address":"Amelia Sln 26",
    "sg:city":"Tienhoven Zh",
    "sg:classifiers":[],
    "sg:orig_category":"Adviesbureaus Bedrijfsorganisatie",
    "sg:owner":"simplegeo",
    "sg:phone":"+31 183 600 579",
    "sg:postcode":"4235 AK",
    "sg:province":"Zuid-Holland",
    "src:geom":"simplegeo",
    "wof:belongsto":[
        85633337,
        101808483,
        85687041
    ],
    "wof:breaches":[],
    "wof:concordances":{
        "sg:id":"SG_2mPMVQVMPXdogmBzK6fDWm_51.958416_4.957471@1306269928"
    },
    "wof:country":"NL",
    "wof:geomhash":"0c1d288740b92e69ab0219f7f3b6d49d",
    "wof:hierarchy":[
        {
            "continent_id":-1,
            "country_id":85633337,
            "locality_id":101808483,
            "neighbourhood_id":-1,
            "region_id":85687041,
            "venue_id":219742249
        }
    ],
    "wof:id":219742249,
    "wof:lastmodified":1449070614,
    "wof:name":"Bosch, M Van Den",
    "wof:parent_id":-1,
    "wof:placetype":"venue",
    "wof:superseded_by":[],
    "wof:supersedes":[],
    "wof:tags":[]
},
  "bbox": [4.957471,51.958416,4.957471,51.958416],
  "geometry": {"coordinates":[4.957471,51.958416],"type":"Point"}
}