{
  "id": 203033541,
  "type": "Feature",
  "properties": {
    "edtf:cessation":"u",
    "edtf:inception":"u",
    "geom:area":0.0,
    "geom:bbox":"4.496433,52.121338,4.496433,52.121338",
    "geom:latitude":52.121338,
    "geom:longitude":4.496433,
    "iso:country":"NL",
    "sg:address":"Dorpsstr 16",
    "sg:city":"Zoeterwoude",
    "sg:classifiers":[],
    "sg:orig_category":"Verzekeringen - Verzekeringskantoren",
    "sg:owner":"simplegeo",
    "sg:phone":"+31 71 580 3200",
    "sg:postcode":"2381 EL",
    "sg:province":"Zuid-Holland",
    "sg:website":"http://www.accesnet.nl/univehgv",
    "src:geom":"simplegeo",
    "wof:belongsto":[
        85798589,
        85633337,
        85687041
    ],
    "wof:breaches":[],
    "wof:concordances":{
        "sg:id":"SG_331M9IY7sivKmA6iNs9QAg_52.121338_4.496433@1306269920"
    },
    "wof:country":"NL",
    "wof:geomhash":"a54fd5402fc0e2e5e124c26dc7c48147",
    "wof:hierarchy":[
        {
            "continent_id":-1,
            "country_id":85633337,
            "locality_id":-1,
            "neighbourhood_id":85798589,
            "region_id":85687041,
            "venue_id":203033541
        }
    ],
    "wof:id":203033541,
    "wof:lastmodified":1449025324,
    "wof:name":"Univ\u00e9",
    "wof:parent_id":85798589,
    "wof:placetype":"venue",
    "wof:superseded_by":[],
    "wof:supersedes":[],
    "wof:tags":[]
},
  "bbox": [4.496433,52.121338,4.496433,52.121338],
  "geometry": {"coordinates":[4.496433,52.121338],"type":"Point"}
}