{
  "id": 269677279,
  "type": "Feature",
  "properties": {
    "edtf:cessation":"u",
    "edtf:inception":"u",
    "geom:area":0.0,
    "geom:bbox":"3.561837,51.463585,3.561837,51.463585",
    "geom:latitude":51.463585,
    "geom:longitude":3.561837,
    "iso:country":"NL",
    "sg:address":"Suze Groeneweglaan 32",
    "sg:city":"Vlissingen",
    "sg:classifiers":[],
    "sg:orig_category":"Public Relationbureaus",
    "sg:owner":"simplegeo",
    "sg:phone":"+31 118 479 101",
    "sg:postcode":"4385 KC",
    "sg:province":"Zeeland",
    "src:geom":"simplegeo",
    "wof:belongsto":[
        85797165,
        85633337,
        101839445,
        85687037
    ],
    "wof:breaches":[],
    "wof:concordances":{
        "sg:id":"SG_0kYVXP1aH78FNyMhJONLXc_51.463585_3.561837@1306269955"
    },
    "wof:country":"NL",
    "wof:geomhash":"a2aa498285187096285460fd7dd6b470",
    "wof:hierarchy":[
        {
            "continent_id":-1,
            "country_id":85633337,
            "locality_id":101839445,
            "neighbourhood_id":85797165,
            "region_id":85687037,
            "venue_id":269677279
        }
    ],
    "wof:id":269677279,
    "wof:lastmodified":1449036999,
    "wof:name":"De Witte Communicatie",
    "wof:parent_id":85797165,
    "wof:placetype":"venue",
    "wof:superseded_by":[],
    "wof:supersedes":[],
    "wof:tags":[]
},
  "bbox": [3.561837,51.463585,3.561837,51.463585],
  "geometry": {"coordinates":[3.561837,51.463585],"type":"Point"}
}