{
  "id": 236519787,
  "type": "Feature",
  "properties": {
    "edtf:cessation":"u",
    "edtf:inception":"u",
    "geom:area":0.0,
    "geom:bbox":"6.796601,52.26984,6.796601,52.26984",
    "geom:latitude":52.26984,
    "geom:longitude":6.796601,
    "iso:country":"NL",
    "sg:address":"Ir M Schefferlaan 37",
    "sg:city":"Hengelo Ov",
    "sg:classifiers":[],
    "sg:orig_category":"Artsen And Specialisten",
    "sg:owner":"simplegeo",
    "sg:phone":"+31 74 291 4800",
    "sg:postcode":"7556 CP",
    "sg:province":"Overijssel",
    "src:geom":"simplegeo",
    "wof:belongsto":[
        85797817,
        85633337,
        101751869,
        85687045
    ],
    "wof:breaches":[],
    "wof:concordances":{
        "sg:id":"SG_5p7jd778hSNJNzb5VtrM6Y_52.269840_6.796601@1306269938"
    },
    "wof:country":"NL",
    "wof:geomhash":"20f3b9130aea765cdb198b4ba625227b",
    "wof:hierarchy":[
        {
            "continent_id":-1,
            "country_id":85633337,
            "locality_id":101751869,
            "neighbourhood_id":85797817,
            "region_id":85687045,
            "venue_id":236519787
        }
    ],
    "wof:id":236519787,
    "wof:lastmodified":1449004987,
    "wof:name":"J. Hoeben",
    "wof:parent_id":85797817,
    "wof:placetype":"venue",
    "wof:superseded_by":[],
    "wof:supersedes":[],
    "wof:tags":[]
},
  "bbox": [6.796601,52.26984,6.796601,52.26984],
  "geometry": {"coordinates":[6.796601,52.26984],"type":"Point"}
}