{
  "id": 270064235,
  "type": "Feature",
  "properties": {
    "edtf:cessation":"u",
    "edtf:inception":"u",
    "geom:area":0.0,
    "geom:bbox":"5.08359,52.101311,5.08359,52.101311",
    "geom:latitude":52.101311,
    "geom:longitude":5.08359,
    "iso:country":"NL",
    "sg:address":"Nyverheidswg 12",
    "sg:city":"Utrecht",
    "sg:classifiers":[],
    "sg:orig_category":"Fitnesscentra",
    "sg:owner":"simplegeo",
    "sg:phone":"+31 346 556 801",
    "sg:postcode":"3534 AM",
    "sg:province":"Utrecht",
    "src:geom":"simplegeo",
    "wof:belongsto":[
        85797951,
        85633337,
        101751827,
        85687039
    ],
    "wof:breaches":[],
    "wof:concordances":{
        "sg:id":"SG_4P1BPjPKhLZzlTPMNWf1oM_52.101311_5.083590@1306269961"
    },
    "wof:country":"NL",
    "wof:geomhash":"ef5e084190af45dd6c2aceac6f33f195",
    "wof:hierarchy":[
        {
            "continent_id":-1,
            "country_id":85633337,
            "locality_id":101751827,
            "neighbourhood_id":85797951,
            "region_id":85687039,
            "venue_id":270064235
        }
    ],
    "wof:id":270064235,
    "wof:lastmodified":1449009500,
    "wof:name":"Scorpio",
    "wof:parent_id":85797951,
    "wof:placetype":"venue",
    "wof:superseded_by":[],
    "wof:supersedes":[],
    "wof:tags":[]
},
  "bbox": [5.08359,52.101311,5.08359,52.101311],
  "geometry": {"coordinates":[5.08359,52.101311],"type":"Point"}
}