{
  "id": 185639741,
  "type": "Feature",
  "properties": {
    "edtf:cessation":"u",
    "edtf:inception":"u",
    "geom:area":0.0,
    "geom:bbox":"6.171581,52.25816,6.171581,52.25816",
    "geom:latitude":52.25816,
    "geom:longitude":6.171581,
    "iso:country":"NL",
    "sg:address":"Rielerweg 99",
    "sg:city":"Deventer",
    "sg:classifiers":[],
    "sg:orig_category":"Kappers",
    "sg:owner":"simplegeo",
    "sg:phone":"+31 570 626 808",
    "sg:postcode":"7416 ZL",
    "sg:province":"Overijssel",
    "src:geom":"simplegeo",
    "wof:belongsto":[
        85798309,
        85633337,
        85687045
    ],
    "wof:breaches":[],
    "wof:concordances":{
        "sg:id":"SG_3EwpzVv4KWzxbrpXsTv0PF_52.258160_6.171581@1306269906"
    },
    "wof:country":"NL",
    "wof:geomhash":"b97cd332e3e52710bd09e8e174a33b0f",
    "wof:hierarchy":[
        {
            "continent_id":-1,
            "country_id":85633337,
            "locality_id":-1,
            "neighbourhood_id":85798309,
            "region_id":85687045,
            "venue_id":185639741
        }
    ],
    "wof:id":185639741,
    "wof:lastmodified":1449008194,
    "wof:name":"W Kruit",
    "wof:parent_id":85798309,
    "wof:placetype":"venue",
    "wof:superseded_by":[],
    "wof:supersedes":[],
    "wof:tags":[]
},
  "bbox": [6.171581,52.25816,6.171581,52.25816],
  "geometry": {"coordinates":[6.171581,52.25816],"type":"Point"}
}