{
  "id": 186321795,
  "type": "Feature",
  "properties": {
    "edtf:cessation":"u",
    "edtf:inception":"u",
    "geom:area":0.0,
    "geom:bbox":"15.40843,44.736759,15.40843,44.736759",
    "geom:latitude":44.736759,
    "geom:longitude":15.40843,
    "iso:country":"NL",
    "sg:address":"Burg Verbrughwg 40",
    "sg:city":"Eck En Wiel",
    "sg:classifiers":[],
    "sg:orig_category":"Verenigingen En Stichtingen",
    "sg:owner":"simplegeo",
    "sg:phone":"+31 344 691 914",
    "sg:postcode":"4024 HR",
    "sg:province":"HR.",
    "src:geom":"simplegeo",
    "wof:belongsto":[
        85633229,
        85684737
    ],
    "wof:breaches":[],
    "wof:concordances":{
        "sg:id":"SG_6MaaAxM25O3JUGYhAQqtUR_44.736759_15.408430@1306269911"
    },
    "wof:country":"NL",
    "wof:geomhash":"56785df31eac3043013a5d10565c1422",
    "wof:hierarchy":[
        {
            "continent_id":-1,
            "country_id":85633229,
            "locality_id":-1,
            "neighbourhood_id":-1,
            "region_id":85684737,
            "venue_id":186321795
        }
    ],
    "wof:id":186321795,
    "wof:lastmodified":1449050329,
    "wof:name":"Abri, L'",
    "wof:parent_id":-1,
    "wof:placetype":"venue",
    "wof:superseded_by":[],
    "wof:supersedes":[],
    "wof:tags":[]
},
  "bbox": [15.40843,44.736759,15.40843,44.736759],
  "geometry": {"coordinates":[15.40843,44.736759],"type":"Point"}
}