{
  "id": 320605593,
  "type": "Feature",
  "properties": {
    "edtf:cessation":"u",
    "edtf:inception":"u",
    "geom:area":0.0,
    "geom:bbox":"4.395777,52.090694,4.395777,52.090694",
    "geom:latitude":52.090694,
    "geom:longitude":4.395777,
    "iso:country":"NL",
    "sg:address":"Pr Hendrikln 116",
    "sg:city":"Leidschendam",
    "sg:classifiers":[],
    "sg:orig_category":"Grondboringen En Bronbemalingen",
    "sg:owner":"simplegeo",
    "sg:phone":"+31 6 54616892",
    "sg:postcode":"2264 SX",
    "sg:province":"Zuid-Holland",
    "src:geom":"simplegeo",
    "wof:belongsto":[
        85859725,
        85633337,
        85687041
    ],
    "wof:breaches":[],
    "wof:concordances":{
        "sg:id":"SG_4bwAPEEHFDAInOe5w1MuU0_52.090694_4.395777@1306270000"
    },
    "wof:country":"NL",
    "wof:geomhash":"b0fd21841d2c4756f61a45d523bf07c0",
    "wof:hierarchy":[
        {
            "continent_id":-1,
            "country_id":85633337,
            "locality_id":-1,
            "neighbourhood_id":85859725,
            "region_id":85687041,
            "venue_id":320605593
        }
    ],
    "wof:id":320605593,
    "wof:lastmodified":1449013081,
    "wof:name":"Steef Grobo",
    "wof:parent_id":85859725,
    "wof:placetype":"venue",
    "wof:superseded_by":[],
    "wof:supersedes":[],
    "wof:tags":[]
},
  "bbox": [4.395777,52.090694,4.395777,52.090694],
  "geometry": {"coordinates":[4.395777,52.090694],"type":"Point"}
}