{
  "id": 287065543,
  "type": "Feature",
  "properties": {
    "edtf:cessation":"u",
    "edtf:inception":"u",
    "geom:area":0.0,
    "geom:bbox":"5.732227,50.862972,5.732227,50.862972",
    "geom:latitude":50.862972,
    "geom:longitude":5.732227,
    "iso:country":"NL",
    "sg:address":"Ambyerstr N 21",
    "sg:city":"Maastricht",
    "sg:classifiers":[],
    "sg:orig_category":"Bloemen En Planten",
    "sg:owner":"simplegeo",
    "sg:phone":"+31 43 362 3701",
    "sg:postcode":"6225 EA",
    "sg:province":"Limburg",
    "src:geom":"simplegeo",
    "wof:belongsto":[
        85797933,
        85633337,
        101751803,
        85687033
    ],
    "wof:breaches":[],
    "wof:concordances":{
        "sg:id":"SG_45yWUn23z3yYa5UeMh6tIO_50.862972_5.732227@1306269976"
    },
    "wof:country":"NL",
    "wof:geomhash":"abd389125ee961b4fe73b080811f82c6",
    "wof:hierarchy":[
        {
            "continent_id":-1,
            "country_id":85633337,
            "locality_id":101751803,
            "neighbourhood_id":85797933,
            "region_id":85687033,
            "venue_id":287065543
        }
    ],
    "wof:id":287065543,
    "wof:lastmodified":1449001586,
    "wof:name":"Jacaranda",
    "wof:parent_id":85797933,
    "wof:placetype":"venue",
    "wof:superseded_by":[],
    "wof:supersedes":[],
    "wof:tags":[]
},
  "bbox": [5.732227,50.862972,5.732227,50.862972],
  "geometry": {"coordinates":[5.732227,50.862972],"type":"Point"}
}