{
  "id": 253088723,
  "type": "Feature",
  "properties": {
    "edtf:cessation":"u",
    "edtf:inception":"u",
    "geom:area":0.0,
    "geom:bbox":"4.57074,51.899685,4.57074,51.899685",
    "geom:latitude":51.899685,
    "geom:longitude":4.57074,
    "iso:country":"NL",
    "sg:address":"Benedenrywg 159",
    "sg:city":"Rotterdam",
    "sg:classifiers":[],
    "sg:orig_category":"Metselwerken",
    "sg:owner":"simplegeo",
    "sg:phone":"+31 10 482 5597",
    "sg:postcode":"3077 CC",
    "sg:province":"South Holland",
    "src:geom":"simplegeo",
    "wof:belongsto":[
        85797147,
        85633337,
        101754749,
        85687041
    ],
    "wof:breaches":[],
    "wof:concordances":{
        "sg:id":"SG_5VMyqC450Rh0jBfXx0pEm7_51.899685_4.570740@1306269946"
    },
    "wof:country":"NL",
    "wof:geomhash":"be558afb6ad840daefb22ddbdc509c98",
    "wof:hierarchy":[
        {
            "continent_id":-1,
            "country_id":85633337,
            "locality_id":101754749,
            "neighbourhood_id":85797147,
            "region_id":85687041,
            "venue_id":253088723
        }
    ],
    "wof:id":253088723,
    "wof:lastmodified":1449065101,
    "wof:name":"Dls",
    "wof:parent_id":85797147,
    "wof:placetype":"venue",
    "wof:superseded_by":[],
    "wof:supersedes":[],
    "wof:tags":[]
},
  "bbox": [4.57074,51.899685,4.57074,51.899685],
  "geometry": {"coordinates":[4.57074,51.899685],"type":"Point"}
}