{
  "id": 236297567,
  "type": "Feature",
  "properties": {
    "edtf:cessation":"u",
    "edtf:inception":"u",
    "geom:area":0.0,
    "geom:bbox":"4.90099,52.354595,4.90099,52.354595",
    "geom:latitude":52.354595,
    "geom:longitude":4.90099,
    "iso:country":"NL",
    "sg:address":"Ceintuurbaan 398",
    "sg:city":"Amsterdam",
    "sg:classifiers":[],
    "sg:orig_category":"Apothekers",
    "sg:owner":"simplegeo",
    "sg:phone":"+31 20 662 3610",
    "sg:postcode":"1073 EN",
    "sg:province":"Noord-Holland",
    "src:geom":"simplegeo",
    "wof:belongsto":[
        85798627,
        85633337,
        101751893,
        85687053
    ],
    "wof:breaches":[],
    "wof:concordances":{
        "sg:id":"SG_5XHQWsuIbIeKu57OudfYBB_52.354595_4.900990@1306269936"
    },
    "wof:country":"NL",
    "wof:geomhash":"a33bd54b6aaa72bafaa412e1b8f9242a",
    "wof:hierarchy":[
        {
            "continent_id":-1,
            "country_id":85633337,
            "locality_id":101751893,
            "neighbourhood_id":85798627,
            "region_id":85687053,
            "venue_id":236297567
        }
    ],
    "wof:id":236297567,
    "wof:lastmodified":1449003812,
    "wof:name":"Apotheek De Vijzel",
    "wof:parent_id":85798627,
    "wof:placetype":"venue",
    "wof:superseded_by":[],
    "wof:supersedes":[],
    "wof:tags":[]
},
  "bbox": [4.90099,52.354595,4.90099,52.354595],
  "geometry": {"coordinates":[4.90099,52.354595],"type":"Point"}
}