{
  "id": 269601317,
  "type": "Feature",
  "properties": {
    "edtf:cessation":"u",
    "edtf:inception":"u",
    "geom:area":0.0,
    "geom:bbox":"6.167448,52.252541,6.167448,52.252541",
    "geom:latitude":52.252541,
    "geom:longitude":6.167448,
    "iso:country":"NL",
    "sg:address":"Verl Kazernestr 11",
    "sg:city":"Deventer",
    "sg:classifiers":[],
    "sg:orig_category":"Projectontwikkeling",
    "sg:owner":"simplegeo",
    "sg:phone":"+31 570 504 252",
    "sg:postcode":"7417 ZA",
    "sg:province":"NL.08",
    "src:geom":"simplegeo",
    "wof:belongsto":[
        85798365,
        85633337,
        85687043
    ],
    "wof:breaches":[],
    "wof:concordances":{
        "sg:id":"SG_5ciuCYU7eSoRRmcluSXFn5_52.252541_6.167448@1306269955"
    },
    "wof:country":"NL",
    "wof:geomhash":"23ae9f30b8caa4e7e106581a983ca061",
    "wof:hierarchy":[
        {
            "continent_id":-1,
            "country_id":85633337,
            "locality_id":-1,
            "neighbourhood_id":85798365,
            "region_id":85687043,
            "venue_id":269601317
        }
    ],
    "wof:id":269601317,
    "wof:lastmodified":1449037211,
    "wof:name":"Landstad Cv",
    "wof:parent_id":85798365,
    "wof:placetype":"venue",
    "wof:superseded_by":[],
    "wof:supersedes":[],
    "wof:tags":[]
},
  "bbox": [6.167448,52.252541,6.167448,52.252541],
  "geometry": {"coordinates":[6.167448,52.252541],"type":"Point"}
}