{
  "id": 286840829,
  "type": "Feature",
  "properties": {
    "edtf:cessation":"u",
    "edtf:inception":"u",
    "geom:area":0.0,
    "geom:bbox":"4.519567,52.223663,4.519567,52.223663",
    "geom:latitude":52.223663,
    "geom:longitude":4.519567,
    "iso:country":"NL",
    "sg:address":"Teijlingerlaan 63",
    "sg:city":"Sassenheim",
    "sg:classifiers":[],
    "sg:orig_category":"Bloemen And Planten Gh",
    "sg:owner":"simplegeo",
    "sg:phone":"+31 252 216 895",
    "sg:postcode":"2171 CD",
    "sg:province":"Zuid-Holland",
    "src:geom":"simplegeo",
    "wof:belongsto":[
        85798109,
        85633337,
        101837701,
        85687041
    ],
    "wof:breaches":[],
    "wof:concordances":{
        "sg:id":"SG_3060bkoDoqTzt15VVQv394_52.223663_4.519567@1306269974"
    },
    "wof:country":"NL",
    "wof:geomhash":"a0664af454e73e844a3e698ac6fbda36",
    "wof:hierarchy":[
        {
            "continent_id":-1,
            "country_id":85633337,
            "locality_id":101837701,
            "neighbourhood_id":85798109,
            "region_id":85687041,
            "venue_id":286840829
        }
    ],
    "wof:id":286840829,
    "wof:lastmodified":1449017465,
    "wof:name":"Joh Bontje",
    "wof:parent_id":85798109,
    "wof:placetype":"venue",
    "wof:superseded_by":[],
    "wof:supersedes":[],
    "wof:tags":[]
},
  "bbox": [4.519567,52.223663,4.519567,52.223663],
  "geometry": {"coordinates":[4.519567,52.223663],"type":"Point"}
}