{
  "id": 219907643,
  "type": "Feature",
  "properties": {
    "edtf:cessation":"u",
    "edtf:inception":"u",
    "geom:area":0.0,
    "geom:bbox":"6.801226,52.920967,6.801226,52.920967",
    "geom:latitude":52.920967,
    "geom:longitude":6.801226,
    "iso:country":"NL",
    "sg:address":"Dingspil 1",
    "sg:city":"Borger",
    "sg:classifiers":[],
    "sg:orig_category":"Adviesbureaus Bedrijfsorganisatie",
    "sg:owner":"simplegeo",
    "sg:phone":"+31 599 238 033",
    "sg:postcode":"9531 HA",
    "sg:province":"Drenthe",
    "sg:website":"http://www.pmci.nl",
    "src:geom":"simplegeo",
    "wof:belongsto":[
        85633337,
        101807275,
        85687051
    ],
    "wof:breaches":[],
    "wof:concordances":{
        "sg:id":"SG_3gcUC29DBTpMUfI8RQx0kV_52.920967_6.801226@1306269930"
    },
    "wof:country":"NL",
    "wof:geomhash":"2b5d27e4388d6783044bc25dab4565d0",
    "wof:hierarchy":[
        {
            "continent_id":-1,
            "country_id":85633337,
            "locality_id":101807275,
            "neighbourhood_id":-1,
            "region_id":85687051,
            "venue_id":219907643
        }
    ],
    "wof:id":219907643,
    "wof:lastmodified":1449073643,
    "wof:name":"Pmci Bv",
    "wof:parent_id":-1,
    "wof:placetype":"venue",
    "wof:superseded_by":[],
    "wof:supersedes":[],
    "wof:tags":[]
},
  "bbox": [6.801226,52.920967,6.801226,52.920967],
  "geometry": {"coordinates":[6.801226,52.920967],"type":"Point"}
}