{
  "id": 169863923,
  "type": "Feature",
  "properties": {
    "edtf:cessation":"u",
    "edtf:inception":"u",
    "geom:area":0.0,
    "geom:bbox":"5.910446,51.981155,5.910446,51.981155",
    "geom:latitude":51.981155,
    "geom:longitude":5.910446,
    "iso:country":"NL",
    "sg:address":"Klarestr 17",
    "sg:city":"Arnhem",
    "sg:classifiers":[],
    "sg:orig_category":"Kappers",
    "sg:owner":"simplegeo",
    "sg:phone":"+31 26 443 7712",
    "sg:postcode":"6811 DP",
    "sg:province":"Gelderland",
    "src:geom":"simplegeo",
    "wof:belongsto":[
        85797977,
        85633337,
        85687043
    ],
    "wof:breaches":[],
    "wof:concordances":{
        "sg:id":"SG_0yogdq4NlXqy9HXOc3UHgn_51.981155_5.910446@1306269906"
    },
    "wof:country":"NL",
    "wof:geomhash":"3ef0cbcece22b8c6f26fbbd6a0897433",
    "wof:hierarchy":[
        {
            "continent_id":-1,
            "country_id":85633337,
            "locality_id":-1,
            "neighbourhood_id":85797977,
            "region_id":85687043,
            "venue_id":169863923
        }
    ],
    "wof:id":169863923,
    "wof:lastmodified":1449034973,
    "wof:name":"Siebelink Haute Coiffure, Jan",
    "wof:parent_id":85797977,
    "wof:placetype":"venue",
    "wof:superseded_by":[],
    "wof:supersedes":[],
    "wof:tags":[]
},
  "bbox": [5.910446,51.981155,5.910446,51.981155],
  "geometry": {"coordinates":[5.910446,51.981155],"type":"Point"}
}