{
  "id": 202725345,
  "type": "Feature",
  "properties": {
    "edtf:cessation":"u",
    "edtf:inception":"u",
    "geom:area":0.0,
    "geom:bbox":"6.129,51.942871,6.129,51.942871",
    "geom:latitude":51.942871,
    "geom:longitude":6.129,
    "iso:country":"NL",
    "sg:address":"Postbus 122",
    "sg:city":"Didam",
    "sg:classifiers":[],
    "sg:orig_category":"Verpakkingsbedrijven",
    "sg:owner":"simplegeo",
    "sg:phone":"+31 316 367 911",
    "sg:postcode":"6940 AA",
    "sg:province":"Gelderland",
    "src:geom":"simplegeo",
    "wof:belongsto":[
        85633337,
        101837755,
        85687043
    ],
    "wof:breaches":[],
    "wof:concordances":{
        "sg:id":"SG_3wLvSgMqRwzFUPbuLB0RJG_51.942871_6.129000@1306269917"
    },
    "wof:country":"NL",
    "wof:geomhash":"f5935e45361c42efa6622945307d6b6a",
    "wof:hierarchy":[
        {
            "continent_id":-1,
            "country_id":85633337,
            "locality_id":101837755,
            "neighbourhood_id":-1,
            "region_id":85687043,
            "venue_id":202725345
        }
    ],
    "wof:id":202725345,
    "wof:lastmodified":1449060733,
    "wof:name":"Constar Int Holl Bv",
    "wof:parent_id":-1,
    "wof:placetype":"venue",
    "wof:superseded_by":[],
    "wof:supersedes":[],
    "wof:tags":[]
},
  "bbox": [6.129,51.942871,6.129,51.942871],
  "geometry": {"coordinates":[6.129,51.942871],"type":"Point"}
}