{
  "id": 252887413,
  "type": "Feature",
  "properties": {
    "edtf:cessation":"u",
    "edtf:inception":"u",
    "geom:area":0.0,
    "geom:bbox":"5.223449,52.37851,5.223449,52.37851",
    "geom:latitude":52.37851,
    "geom:longitude":5.223449,
    "iso:country":"NL",
    "sg:address":"Randstad 2153",
    "sg:city":"Almere",
    "sg:classifiers":[
        {
            "category":"Wholesale",
            "subcategory":"Meat",
            "type":"Manufacturing & Wholesale Goods"
        }
    ],
    "sg:owner":"simplegeo",
    "sg:phone":"+31 36 548 7000",
    "sg:postcode":"1314 BH",
    "sg:province":"Flevoland",
    "sg:tags":[
        "regeltechniek",
        "en",
        "meet-"
    ],
    "src:geom":"simplegeo",
    "wof:belongsto":[
        85633337,
        101751877,
        85687049
    ],
    "wof:breaches":[],
    "wof:concordances":{
        "sg:id":"SG_6IhWVLjGpN2a2OGEcqHd77_52.378510_5.223449@1306269944"
    },
    "wof:country":"NL",
    "wof:geomhash":"58200584514783651b01354fb17dbe95",
    "wof:hierarchy":[
        {
            "continent_id":-1,
            "country_id":85633337,
            "locality_id":101751877,
            "neighbourhood_id":-1,
            "region_id":85687049,
            "venue_id":252887413
        }
    ],
    "wof:id":252887413,
    "wof:lastmodified":1449006284,
    "wof:name":"Testo Bv",
    "wof:parent_id":-1,
    "wof:placetype":"venue",
    "wof:superseded_by":[],
    "wof:supersedes":[],
    "wof:tags":[
        "regeltechniek",
        "en",
        "meet-"
    ]
},
  "bbox": [5.223449,52.37851,5.223449,52.37851],
  "geometry": {"coordinates":[5.223449,52.37851],"type":"Point"}
}