{
  "id": 320322063,
  "type": "Feature",
  "properties": {
    "edtf:cessation":"u",
    "edtf:inception":"u",
    "geom:area":0.0,
    "geom:bbox":"5.166495,51.767178,5.166495,51.767178",
    "geom:latitude":51.767178,
    "geom:longitude":5.166495,
    "iso:country":"NL",
    "sg:address":"Pinksterbloemstraat 2",
    "sg:city":"Nederhemert",
    "sg:classifiers":[],
    "sg:orig_category":"Goederenvervoer Over De Weg",
    "sg:owner":"simplegeo",
    "sg:phone":"+31 418 552 166",
    "sg:postcode":"5317 NG",
    "sg:province":"Gelderland",
    "src:geom":"simplegeo",
    "wof:belongsto":[
        85633337,
        101808719,
        85687043
    ],
    "wof:breaches":[],
    "wof:concordances":{
        "sg:id":"SG_28nmAfQfPrxAWTooAGfSVX_51.767178_5.166495@1306269997"
    },
    "wof:country":"NL",
    "wof:geomhash":"f12294e5f38ee50beb478d23584f2537",
    "wof:hierarchy":[
        {
            "continent_id":-1,
            "country_id":85633337,
            "locality_id":101808719,
            "neighbourhood_id":-1,
            "region_id":85687043,
            "venue_id":320322063
        }
    ],
    "wof:id":320322063,
    "wof:lastmodified":1449011219,
    "wof:name":"E. Van Ooijen",
    "wof:parent_id":-1,
    "wof:placetype":"venue",
    "wof:superseded_by":[],
    "wof:supersedes":[],
    "wof:tags":[]
},
  "bbox": [5.166495,51.767178,5.166495,51.767178],
  "geometry": {"coordinates":[5.166495,51.767178],"type":"Point"}
}