{
  "id": 270245667,
  "type": "Feature",
  "properties": {
    "edtf:cessation":"u",
    "edtf:inception":"u",
    "geom:area":0.0,
    "geom:bbox":"5.845247,50.953339,5.845247,50.953339",
    "geom:latitude":50.953339,
    "geom:longitude":5.845247,
    "iso:country":"NL",
    "sg:address":"Bergstraat 105",
    "sg:city":"Sweikhuizen",
    "sg:classifiers":[],
    "sg:orig_category":"Fotostudio'S And Fotografen",
    "sg:owner":"simplegeo",
    "sg:phone":"+31 46 443 4775",
    "sg:postcode":"6174 RR",
    "sg:province":"Limburg",
    "src:geom":"simplegeo",
    "wof:belongsto":[
        85797273,
        85633337,
        85687033
    ],
    "wof:breaches":[],
    "wof:concordances":{
        "sg:id":"SG_2crIucCOY3NJ34ZSRwfl4T_50.953339_5.845247@1306269963"
    },
    "wof:country":"NL",
    "wof:geomhash":"9acc7afae24af149689a4e117b982987",
    "wof:hierarchy":[
        {
            "continent_id":-1,
            "country_id":85633337,
            "locality_id":-1,
            "neighbourhood_id":85797273,
            "region_id":85687033,
            "venue_id":270245667
        }
    ],
    "wof:id":270245667,
    "wof:lastmodified":1449011052,
    "wof:name":"Leon Abraas Fotografie",
    "wof:parent_id":85797273,
    "wof:placetype":"venue",
    "wof:superseded_by":[],
    "wof:supersedes":[],
    "wof:tags":[]
},
  "bbox": [5.845247,50.953339,5.845247,50.953339],
  "geometry": {"coordinates":[5.845247,50.953339],"type":"Point"}
}