{
  "id": 185922227,
  "type": "Feature",
  "properties": {
    "edtf:cessation":"u",
    "edtf:inception":"u",
    "geom:area":0.0,
    "geom:bbox":"6.137596,52.275524,6.137596,52.275524",
    "geom:latitude":52.275524,
    "geom:longitude":6.137596,
    "iso:country":"NL",
    "sg:address":"Nijhoffgaarde 62",
    "sg:city":"Deventer",
    "sg:classifiers":[],
    "sg:orig_category":"Kinderopvang Behalve Thuis",
    "sg:owner":"simplegeo",
    "sg:phone":"+31 570 640 404",
    "sg:postcode":"7414 WH",
    "sg:province":"Overijssel",
    "src:geom":"simplegeo",
    "wof:belongsto":[
        85797157,
        85633337,
        101754775,
        85687045
    ],
    "wof:breaches":[],
    "wof:concordances":{
        "sg:id":"SG_4FfZZqMCOXd7O3uYVVsWGK_52.275524_6.137596@1306269908"
    },
    "wof:country":"NL",
    "wof:geomhash":"5d85663ac66de468b23e9c70a667cdeb",
    "wof:hierarchy":[
        {
            "continent_id":-1,
            "country_id":85633337,
            "locality_id":101754775,
            "neighbourhood_id":85797157,
            "region_id":85687045,
            "venue_id":185922227
        }
    ],
    "wof:id":185922227,
    "wof:lastmodified":1449006755,
    "wof:name":"Medisch Kleuterdagverblijf Piccolo",
    "wof:parent_id":85797157,
    "wof:placetype":"venue",
    "wof:superseded_by":[],
    "wof:supersedes":[],
    "wof:tags":[]
},
  "bbox": [6.137596,52.275524,6.137596,52.275524],
  "geometry": {"coordinates":[6.137596,52.275524],"type":"Point"}
}