{
  "id": 219651691,
  "type": "Feature",
  "properties": {
    "edtf:cessation":"u",
    "edtf:inception":"u",
    "geom:area":0.0,
    "geom:bbox":"5.44709,51.470959,5.44709,51.470959",
    "geom:latitude":51.470959,
    "geom:longitude":5.44709,
    "iso:country":"NL",
    "sg:address":"Julierpas 7",
    "sg:city":"Eindhoven",
    "sg:classifiers":[],
    "sg:orig_category":"Administratie- En Boekhoudkantoren",
    "sg:owner":"simplegeo",
    "sg:phone":"+31 40 256 5798",
    "sg:postcode":"5624 NC",
    "sg:province":"North Brabant",
    "sg:website":"http://www.ip-group.nl",
    "src:geom":"simplegeo",
    "wof:belongsto":[
        85797751,
        85633337,
        85687035
    ],
    "wof:breaches":[],
    "wof:concordances":{
        "sg:id":"SG_6Huq9HDXEd2mwtgLBw6fJg_51.470959_5.447090@1306269928"
    },
    "wof:country":"NL",
    "wof:geomhash":"932f87b7c17e43898032e6d256e3014f",
    "wof:hierarchy":[
        {
            "continent_id":-1,
            "country_id":85633337,
            "locality_id":-1,
            "neighbourhood_id":85797751,
            "region_id":85687035,
            "venue_id":219651691
        }
    ],
    "wof:id":219651691,
    "wof:lastmodified":1449071095,
    "wof:name":"Ipg Interim Payroll Group",
    "wof:parent_id":85797751,
    "wof:placetype":"venue",
    "wof:superseded_by":[],
    "wof:supersedes":[],
    "wof:tags":[]
},
  "bbox": [5.44709,51.470959,5.44709,51.470959],
  "geometry": {"coordinates":[5.44709,51.470959],"type":"Point"}
}