{
  "id": 169812445,
  "type": "Feature",
  "properties": {
    "edtf:cessation":"u",
    "edtf:inception":"u",
    "geom:area":0.0,
    "geom:bbox":"5.283008,52.212524,5.283008,52.212524",
    "geom:latitude":52.212524,
    "geom:longitude":5.283008,
    "iso:country":"NL",
    "sg:address":"Nw Baarnstr 37",
    "sg:city":"Baarn",
    "sg:classifiers":[],
    "sg:orig_category":"Kappers",
    "sg:owner":"simplegeo",
    "sg:phone":"+31 35 543 0985",
    "sg:postcode":"3743 BP",
    "sg:province":"Utrecht",
    "src:geom":"simplegeo",
    "wof:belongsto":[
        85798417,
        85633337,
        101837651,
        85687039
    ],
    "wof:breaches":[],
    "wof:concordances":{
        "sg:id":"SG_5wYcWcNiSkuVIGXa6aSIN1_52.212524_5.283008@1306269906"
    },
    "wof:country":"NL",
    "wof:geomhash":"c711671fca75a174842aa6cd444ad5fb",
    "wof:hierarchy":[
        {
            "continent_id":-1,
            "country_id":85633337,
            "locality_id":101837651,
            "neighbourhood_id":85798417,
            "region_id":85687039,
            "venue_id":169812445
        }
    ],
    "wof:id":169812445,
    "wof:lastmodified":1449032775,
    "wof:name":"Perfect, Herenkapsalon",
    "wof:parent_id":85798417,
    "wof:placetype":"venue",
    "wof:superseded_by":[],
    "wof:supersedes":[],
    "wof:tags":[]
},
  "bbox": [5.283008,52.212524,5.283008,52.212524],
  "geometry": {"coordinates":[5.283008,52.212524],"type":"Point"}
}