{
  "id": 202542425,
  "type": "Feature",
  "properties": {
    "edtf:cessation":"u",
    "edtf:inception":"u",
    "geom:area":0.0,
    "geom:bbox":"5.037772,52.45892,5.037772,52.45892",
    "geom:latitude":52.45892,
    "geom:longitude":5.037772,
    "iso:country":"NL",
    "sg:address":"Zuideinde 25",
    "sg:city":"Monnickendam",
    "sg:classifiers":[
        {
            "category":"Communications",
            "subcategory":"Television Station",
            "type":"Services"
        }
    ],
    "sg:owner":"simplegeo",
    "sg:phone":"+31 299 652 711",
    "sg:postcode":"1141 VG",
    "sg:province":"Noord-Holland",
    "sg:tags":[
        "video",
        "audio",
        "verhuur"
    ],
    "src:geom":"simplegeo",
    "wof:belongsto":[
        85798047,
        85633337,
        85687053
    ],
    "wof:breaches":[],
    "wof:concordances":{
        "sg:id":"SG_7bxTzrM4GMqxWga8H0NsKz_52.458920_5.037772@1306269916"
    },
    "wof:country":"NL",
    "wof:geomhash":"a468bd1fe338ef8e114ad1f829958160",
    "wof:hierarchy":[
        {
            "continent_id":-1,
            "country_id":85633337,
            "locality_id":-1,
            "neighbourhood_id":85798047,
            "region_id":85687053,
            "venue_id":202542425
        }
    ],
    "wof:id":202542425,
    "wof:lastmodified":1449062092,
    "wof:name":"Videotheek Waterland",
    "wof:parent_id":85798047,
    "wof:placetype":"venue",
    "wof:superseded_by":[],
    "wof:supersedes":[],
    "wof:tags":[
        "video",
        "audio",
        "verhuur"
    ]
},
  "bbox": [5.037772,52.45892,5.037772,52.45892],
  "geometry": {"coordinates":[5.037772,52.45892],"type":"Point"}
}