{
  "id": 336756581,
  "type": "Feature",
  "properties": {
    "edtf:cessation":"u",
    "edtf:inception":"u",
    "geom:area":0.0,
    "geom:bbox":"5.668302,51.972336,5.668302,51.972336",
    "geom:latitude":51.972336,
    "geom:longitude":5.668302,
    "iso:country":"NL",
    "sg:address":"Sportstr 42",
    "sg:city":"Wageningen",
    "sg:classifiers":[],
    "sg:orig_category":"Acupunctuur",
    "sg:owner":"simplegeo",
    "sg:phone":"+31 6 53563160",
    "sg:postcode":"6707 GH",
    "sg:province":"Gelderland",
    "src:geom":"simplegeo",
    "wof:belongsto":[
        85633337,
        101837813,
        85687043
    ],
    "wof:breaches":[],
    "wof:concordances":{
        "sg:id":"SG_4eLOjNI0wSApkpXLrHsfqp_51.972336_5.668302@1306270005"
    },
    "wof:country":"NL",
    "wof:geomhash":"3bc0418964067bee335a5fe4d877fde5",
    "wof:hierarchy":[
        {
            "continent_id":-1,
            "country_id":85633337,
            "locality_id":101837813,
            "neighbourhood_id":-1,
            "region_id":85687043,
            "venue_id":336756581
        }
    ],
    "wof:id":336756581,
    "wof:lastmodified":1448997584,
    "wof:name":"Albert De Vos",
    "wof:parent_id":-1,
    "wof:placetype":"venue",
    "wof:superseded_by":[],
    "wof:supersedes":[],
    "wof:tags":[]
},
  "bbox": [5.668302,51.972336,5.668302,51.972336],
  "geometry": {"coordinates":[5.668302,51.972336],"type":"Point"}
}