{
  "id": 336726097,
  "type": "Feature",
  "properties": {
    "edtf:cessation":"u",
    "edtf:inception":"u",
    "geom:area":0.0,
    "geom:bbox":"6.340947,51.91531,6.340947,51.91531",
    "geom:latitude":51.91531,
    "geom:longitude":6.340947,
    "iso:country":"NL",
    "sg:address":"Dorpsstraat 52",
    "sg:city":"Etten Gld",
    "sg:classifiers":[
        {
            "category":"Professional",
            "subcategory":"Accounting & Tax Preparation",
            "type":"Services"
        }
    ],
    "sg:owner":"simplegeo",
    "sg:phone":"+31 315 631 277",
    "sg:postcode":"7075 AE",
    "sg:province":"Gelderland",
    "sg:tags":[
        "accountant"
    ],
    "src:geom":"simplegeo",
    "wof:belongsto":[
        85633337,
        101837789,
        85687043
    ],
    "wof:breaches":[],
    "wof:concordances":{
        "sg:id":"SG_7mfn4WmMwRTYCY5ORbNxmE_51.915310_6.340947@1306270005"
    },
    "wof:country":"NL",
    "wof:geomhash":"709f32d67605d8185ea78ccc158c1359",
    "wof:hierarchy":[
        {
            "continent_id":-1,
            "country_id":85633337,
            "locality_id":101837789,
            "neighbourhood_id":-1,
            "region_id":85687043,
            "venue_id":336726097
        }
    ],
    "wof:id":336726097,
    "wof:lastmodified":1448997660,
    "wof:name":"Administratiekantoor Adcoma Bv",
    "wof:parent_id":-1,
    "wof:placetype":"venue",
    "wof:superseded_by":[],
    "wof:supersedes":[],
    "wof:tags":[
        "accountant"
    ]
},
  "bbox": [6.340947,51.91531,6.340947,51.91531],
  "geometry": {"coordinates":[6.340947,51.91531],"type":"Point"}
}