{
  "id": 320459485,
  "type": "Feature",
  "properties": {
    "edtf:cessation":"u",
    "edtf:inception":"u",
    "geom:area":0.0,
    "geom:bbox":"5.039219,51.576103,5.039219,51.576103",
    "geom:latitude":51.576103,
    "geom:longitude":5.039219,
    "iso:country":"NL",
    "sg:address":"Paletpln 20",
    "sg:city":"Tilburg",
    "sg:classifiers":[],
    "sg:orig_category":"Goudsmeden En Zilversmeden",
    "sg:owner":"simplegeo",
    "sg:phone":"+31 13 468 9180",
    "sg:postcode":"5044 JC",
    "sg:province":"Noord-Brabant",
    "src:geom":"simplegeo",
    "wof:belongsto":[
        85797687,
        85633337,
        85687035
    ],
    "wof:breaches":[],
    "wof:concordances":{
        "sg:id":"SG_6zc8wKkDgn2zeKqnk90Qh9_51.576103_5.039219@1306269998"
    },
    "wof:country":"NL",
    "wof:geomhash":"b26ddf144ec0ca0bf46acb76a691839d",
    "wof:hierarchy":[
        {
            "continent_id":-1,
            "country_id":85633337,
            "locality_id":-1,
            "neighbourhood_id":85797687,
            "region_id":85687035,
            "venue_id":320459485
        }
    ],
    "wof:id":320459485,
    "wof:lastmodified":1449012788,
    "wof:name":"Ebben, Susanne",
    "wof:parent_id":85797687,
    "wof:placetype":"venue",
    "wof:superseded_by":[],
    "wof:supersedes":[],
    "wof:tags":[]
},
  "bbox": [5.039219,51.576103,5.039219,51.576103],
  "geometry": {"coordinates":[5.039219,51.576103],"type":"Point"}
}