{
  "id": 320553769,
  "type": "Feature",
  "properties": {
    "edtf:cessation":"u",
    "edtf:inception":"u",
    "geom:area":0.0,
    "geom:bbox":"4.747922,52.267487,4.747922,52.267487",
    "geom:latitude":52.267487,
    "geom:longitude":4.747922,
    "iso:country":"NL",
    "sg:address":"Zijdstraat 70",
    "sg:city":"Aalsmeer",
    "sg:classifiers":[
        {
            "category":"Food & Beverages",
            "subcategory":"Fruits & Vegetables",
            "type":"Retail Goods"
        }
    ],
    "sg:owner":"simplegeo",
    "sg:phone":"+31 297 324 488",
    "sg:postcode":"1431 EE",
    "sg:province":"Noord-Holland",
    "sg:tags":[
        "groenten"
    ],
    "src:geom":"simplegeo",
    "wof:belongsto":[
        85797169,
        85633337,
        85687053
    ],
    "wof:breaches":[],
    "wof:concordances":{
        "sg:id":"SG_68eXbSNRLgLRclKlf9WQuK_52.267487_4.747922@1306269999"
    },
    "wof:country":"NL",
    "wof:geomhash":"5bce7822efc9c6e67c8ed29179c39c1a",
    "wof:hierarchy":[
        {
            "continent_id":-1,
            "country_id":85633337,
            "locality_id":-1,
            "neighbourhood_id":85797169,
            "region_id":85687053,
            "venue_id":320553769
        }
    ],
    "wof:id":320553769,
    "wof:lastmodified":1449011283,
    "wof:name":"Firma Gebr. Kreike",
    "wof:parent_id":85797169,
    "wof:placetype":"venue",
    "wof:superseded_by":[],
    "wof:supersedes":[],
    "wof:tags":[
        "groenten"
    ]
},
  "bbox": [4.747922,52.267487,4.747922,52.267487],
  "geometry": {"coordinates":[4.747922,52.267487],"type":"Point"}
}