{
  "id": 252789563,
  "type": "Feature",
  "properties": {
    "edtf:cessation":"u",
    "edtf:inception":"u",
    "geom:area":0.0,
    "geom:bbox":"5.022679,51.522881,5.022679,51.522881",
    "geom:latitude":51.522881,
    "geom:longitude":5.022679,
    "iso:country":"NL",
    "sg:address":"Brokkenstr 1",
    "sg:city":"Riel",
    "sg:classifiers":[],
    "sg:orig_category":"Manueel Therapeuten",
    "sg:owner":"simplegeo",
    "sg:phone":"+31 13 518 1736",
    "sg:postcode":"5133 AL",
    "sg:province":"Noord-Brabant",
    "src:geom":"simplegeo",
    "wof:belongsto":[
        85797287,
        85633337,
        85687035
    ],
    "wof:breaches":[],
    "wof:concordances":{
        "sg:id":"SG_6D3j1hm9Y0fHftxTDlj2Wk_51.522881_5.022679@1306269943"
    },
    "wof:country":"NL",
    "wof:geomhash":"45e07fe761360bb1b6017d6addadd965",
    "wof:hierarchy":[
        {
            "continent_id":-1,
            "country_id":85633337,
            "locality_id":-1,
            "neighbourhood_id":85797287,
            "region_id":85687035,
            "venue_id":252789563
        }
    ],
    "wof:id":252789563,
    "wof:lastmodified":1449005900,
    "wof:name":"Michielsen, C J L M",
    "wof:parent_id":85797287,
    "wof:placetype":"venue",
    "wof:superseded_by":[],
    "wof:supersedes":[],
    "wof:tags":[]
},
  "bbox": [5.022679,51.522881,5.022679,51.522881],
  "geometry": {"coordinates":[5.022679,51.522881],"type":"Point"}
}