{
  "id": 186209769,
  "type": "Feature",
  "properties": {
    "edtf:cessation":"u",
    "edtf:inception":"u",
    "geom:area":0.0,
    "geom:bbox":"5.582438,51.369156,5.582438,51.369156",
    "geom:latitude":51.369156,
    "geom:longitude":5.582438,
    "iso:country":"NL",
    "sg:address":"Industriewg 107",
    "sg:city":"Heeze",
    "sg:classifiers":[],
    "sg:orig_category":"Kunststoffen- Verwerkende Industrie",
    "sg:owner":"simplegeo",
    "sg:phone":"+31 40 224 1160",
    "sg:postcode":"5591 JL",
    "sg:province":"North Brabant",
    "src:geom":"simplegeo",
    "wof:belongsto":[
        85633337,
        101809717,
        85687035
    ],
    "wof:breaches":[],
    "wof:concordances":{
        "sg:id":"SG_4RZZmc6gZpPQCh8WNoBauW_51.369156_5.582438@1306269911"
    },
    "wof:country":"NL",
    "wof:geomhash":"5a2a9bf626cbadc76cbf25683b790bc2",
    "wof:hierarchy":[
        {
            "continent_id":-1,
            "country_id":85633337,
            "locality_id":101809717,
            "neighbourhood_id":-1,
            "region_id":85687035,
            "venue_id":186209769
        }
    ],
    "wof:id":186209769,
    "wof:lastmodified":1449052733,
    "wof:name":"Vdl Bv",
    "wof:parent_id":-1,
    "wof:placetype":"venue",
    "wof:superseded_by":[],
    "wof:supersedes":[],
    "wof:tags":[]
},
  "bbox": [5.582438,51.369156,5.582438,51.369156],
  "geometry": {"coordinates":[5.582438,51.369156],"type":"Point"}
}