{
  "id": 236180319,
  "type": "Feature",
  "properties": {
    "edtf:cessation":"u",
    "edtf:inception":"u",
    "geom:area":0.0,
    "geom:bbox":"4.577029,51.956318,4.577029,51.956318",
    "geom:latitude":51.956318,
    "geom:longitude":4.577029,
    "iso:country":"NL",
    "sg:address":"Hoofdweg 22",
    "sg:city":"Capelle A/D Ijssel",
    "sg:classifiers":[],
    "sg:orig_category":"Elektronische Bedrijfsinstallaties",
    "sg:owner":"simplegeo",
    "sg:phone":"+31 10 284 2666",
    "sg:postcode":"2908 LC",
    "sg:province":"Zuid-Holland",
    "src:geom":"simplegeo",
    "wof:belongsto":[
        85798779,
        85633337,
        101752769,
        85687041
    ],
    "wof:breaches":[],
    "wof:concordances":{
        "sg:id":"SG_0HXT42jXxjhhEj5BVoZrr3_51.956318_4.577029@1306269935"
    },
    "wof:country":"NL",
    "wof:geomhash":"c140c834a722d2a5f993d9d82310b3c3",
    "wof:hierarchy":[
        {
            "continent_id":-1,
            "country_id":85633337,
            "locality_id":101752769,
            "neighbourhood_id":85798779,
            "region_id":85687041,
            "venue_id":236180319
        }
    ],
    "wof:id":236180319,
    "wof:lastmodified":1449001776,
    "wof:name":"Van Swaay Toegangstechniek Bv",
    "wof:parent_id":85798779,
    "wof:placetype":"venue",
    "wof:superseded_by":[],
    "wof:supersedes":[],
    "wof:tags":[]
},
  "bbox": [4.577029,51.956318,4.577029,51.956318],
  "geometry": {"coordinates":[4.577029,51.956318],"type":"Point"}
}