{
  "id": 252770177,
  "type": "Feature",
  "properties": {
    "edtf:cessation":"u",
    "edtf:inception":"u",
    "geom:area":0.0,
    "geom:bbox":"6.174623,51.426197,6.174623,51.426197",
    "geom:latitude":51.426197,
    "geom:longitude":6.174623,
    "iso:country":"NL",
    "sg:address":"Molendk 23",
    "sg:city":"Velden",
    "sg:classifiers":[
        {
            "category":"Sports & Exercise",
            "subcategory":"Stables",
            "type":"Entertainment"
        }
    ],
    "sg:owner":"simplegeo",
    "sg:phone":"+31 77 472 2953",
    "sg:postcode":"5941 EE",
    "sg:province":"Limburg",
    "sg:tags":[
        "maneges"
    ],
    "src:geom":"simplegeo",
    "wof:belongsto":[
        85633337,
        85687033
    ],
    "wof:breaches":[],
    "wof:concordances":{
        "sg:id":"SG_6A78JHwTexozw7OfZgFuUc_51.426197_6.174623@1306269943"
    },
    "wof:country":"NL",
    "wof:geomhash":"75c1311653218d16a059acbbc4930f10",
    "wof:hierarchy":[
        {
            "continent_id":-1,
            "country_id":85633337,
            "locality_id":-1,
            "neighbourhood_id":-1,
            "region_id":85687033,
            "venue_id":252770177
        }
    ],
    "wof:id":252770177,
    "wof:lastmodified":1449006541,
    "wof:name":"Molendijk",
    "wof:parent_id":-1,
    "wof:placetype":"venue",
    "wof:superseded_by":[],
    "wof:supersedes":[],
    "wof:tags":[
        "maneges"
    ]
},
  "bbox": [6.174623,51.426197,6.174623,51.426197],
  "geometry": {"coordinates":[6.174623,51.426197],"type":"Point"}
}