{
  "id": 252826943,
  "type": "Feature",
  "properties": {
    "edtf:cessation":"u",
    "edtf:inception":"u",
    "geom:area":0.0,
    "geom:bbox":"6.010997,50.775047,6.010997,50.775047",
    "geom:latitude":50.775047,
    "geom:longitude":6.010997,
    "iso:country":"NL",
    "sg:address":"Maastrichterlaan 192",
    "sg:city":"Vaals",
    "sg:classifiers":[],
    "sg:orig_category":"Marktonderzoekbureaus",
    "sg:owner":"simplegeo",
    "sg:phone":"+31 43 306 3643",
    "sg:postcode":"6291 EW",
    "sg:province":"Limburg",
    "src:geom":"simplegeo",
    "wof:belongsto":[
        85862941,
        85633337,
        85687033
    ],
    "wof:breaches":[],
    "wof:concordances":{
        "sg:id":"SG_1ILVxMCfDuLLkhyjvwND3r_50.775047_6.010997@1306269943"
    },
    "wof:country":"NL",
    "wof:geomhash":"ae18e987db47dc10d260eae9bf99d16d",
    "wof:hierarchy":[
        {
            "continent_id":-1,
            "country_id":85633337,
            "locality_id":-1,
            "neighbourhood_id":85862941,
            "region_id":85687033,
            "venue_id":252826943
        }
    ],
    "wof:id":252826943,
    "wof:lastmodified":1449006187,
    "wof:name":"Ernes Buro Voor Reklame En Grafische Vormgeving Bv",
    "wof:parent_id":85862941,
    "wof:placetype":"venue",
    "wof:superseded_by":[],
    "wof:supersedes":[],
    "wof:tags":[]
},
  "bbox": [6.010997,50.775047,6.010997,50.775047],
  "geometry": {"coordinates":[6.010997,50.775047],"type":"Point"}
}