{
  "id": 320423983,
  "type": "Feature",
  "properties": {
    "edtf:cessation":"u",
    "edtf:inception":"u",
    "geom:area":0.0,
    "geom:bbox":"5.031503,51.986122,5.031503,51.986122",
    "geom:latitude":51.986122,
    "geom:longitude":5.031503,
    "iso:country":"NL",
    "sg:address":"Lopikerweg Oost 139",
    "sg:city":"Lopikerkapel",
    "sg:classifiers":[],
    "sg:orig_category":"Goederenvervoer Over De Weg",
    "sg:owner":"simplegeo",
    "sg:phone":"+31 30 688 8851",
    "sg:postcode":"3412 KC",
    "sg:province":"Utrecht",
    "src:geom":"simplegeo",
    "wof:belongsto":[
        85633337,
        85687039
    ],
    "wof:breaches":[],
    "wof:concordances":{
        "sg:id":"SG_7E9psKBv0STKCVjKNVpcL0_51.986122_5.031503@1306269998"
    },
    "wof:country":"NL",
    "wof:geomhash":"59af6e52804097dfc7e02b1c19124db7",
    "wof:hierarchy":[
        {
            "continent_id":-1,
            "country_id":85633337,
            "locality_id":-1,
            "neighbourhood_id":-1,
            "region_id":85687039,
            "venue_id":320423983
        }
    ],
    "wof:id":320423983,
    "wof:lastmodified":1449011880,
    "wof:name":"Wida Transport Bv",
    "wof:parent_id":-1,
    "wof:placetype":"venue",
    "wof:superseded_by":[],
    "wof:supersedes":[],
    "wof:tags":[]
},
  "bbox": [5.031503,51.986122,5.031503,51.986122],
  "geometry": {"coordinates":[5.031503,51.986122],"type":"Point"}
}