{
  "id": 236549005,
  "type": "Feature",
  "properties": {
    "edtf:cessation":"u",
    "edtf:inception":"u",
    "geom:area":0.0,
    "geom:bbox":"6.807097,52.280815,6.807097,52.280815",
    "geom:latitude":52.280815,
    "geom:longitude":6.807097,
    "iso:country":"NL",
    "sg:address":"Beitelstraat 13",
    "sg:city":"Hengelo Ov",
    "sg:classifiers":[],
    "sg:orig_category":"Autokeuringen",
    "sg:owner":"simplegeo",
    "sg:phone":"+31 74 291 3994",
    "sg:postcode":"7556 ND",
    "sg:province":"NL.08",
    "src:geom":"simplegeo",
    "wof:belongsto":[
        85797623,
        85633337,
        101751869,
        85687045
    ],
    "wof:breaches":[],
    "wof:concordances":{
        "sg:id":"SG_0Nirxt34KDklXvmztZ7tKk_52.280815_6.807097@1306269939"
    },
    "wof:country":"NL",
    "wof:geomhash":"6953a43ecbae0b8ecbb335a6683b73ed",
    "wof:hierarchy":[
        {
            "continent_id":-1,
            "country_id":85633337,
            "locality_id":101751869,
            "neighbourhood_id":85797623,
            "region_id":85687045,
            "venue_id":236549005
        }
    ],
    "wof:id":236549005,
    "wof:lastmodified":1449002373,
    "wof:name":"Autoschade B. Stoeten",
    "wof:parent_id":85797623,
    "wof:placetype":"venue",
    "wof:superseded_by":[],
    "wof:supersedes":[],
    "wof:tags":[]
},
  "bbox": [6.807097,52.280815,6.807097,52.280815],
  "geometry": {"coordinates":[6.807097,52.280815],"type":"Point"}
}