{
  "id": 236896375,
  "type": "Feature",
  "properties": {
    "edtf:cessation":"u",
    "edtf:inception":"u",
    "geom:area":0.0,
    "geom:bbox":"5.337685,51.317493,5.337685,51.317493",
    "geom:latitude":51.317493,
    "geom:longitude":5.337685,
    "iso:country":"NL",
    "sg:address":"Weerwolf 5",
    "sg:city":"Bergeyk",
    "sg:classifiers":[],
    "sg:orig_category":"Machinefabrieken",
    "sg:owner":"simplegeo",
    "sg:phone":"+31 497 572 538",
    "sg:postcode":"5571 MV",
    "sg:province":"North Brabant",
    "src:geom":"simplegeo",
    "wof:belongsto":[
        85633337,
        101839339,
        85687035
    ],
    "wof:breaches":[],
    "wof:concordances":{
        "sg:id":"SG_4VhNDGDjWNIaUVyLkeOVX4_51.317493_5.337685@1306269942"
    },
    "wof:country":"NL",
    "wof:geomhash":"e7fa3babd8d2a8aecc7b567876c3fa22",
    "wof:hierarchy":[
        {
            "continent_id":-1,
            "country_id":85633337,
            "locality_id":101839339,
            "neighbourhood_id":-1,
            "region_id":85687035,
            "venue_id":236896375
        }
    ],
    "wof:id":236896375,
    "wof:lastmodified":1449002726,
    "wof:name":"Bbm Bv",
    "wof:parent_id":-1,
    "wof:placetype":"venue",
    "wof:superseded_by":[],
    "wof:supersedes":[],
    "wof:tags":[]
},
  "bbox": [5.337685,51.317493,5.337685,51.317493],
  "geometry": {"coordinates":[5.337685,51.317493],"type":"Point"}
}