{
  "id": 286696185,
  "type": "Feature",
  "properties": {
    "edtf:cessation":"u",
    "edtf:inception":"u",
    "geom:area":0.0,
    "geom:bbox":"4.943251,52.099689,4.943251,52.099689",
    "geom:latitude":52.099689,
    "geom:longitude":4.943251,
    "iso:country":"NL",
    "sg:address":"Breudk 4",
    "sg:city":"Harmelen",
    "sg:classifiers":[],
    "sg:orig_category":"Beveiliging",
    "sg:owner":"simplegeo",
    "sg:phone":"+31 348 443 594",
    "sg:postcode":"3481 LP",
    "sg:province":"Utrecht",
    "sg:website":"http://www.initial-varel.nl",
    "src:geom":"simplegeo",
    "wof:belongsto":[
        85633337,
        85687039
    ],
    "wof:breaches":[],
    "wof:concordances":{
        "sg:id":"SG_69W56o9BUAds0K5OgNKzSF_52.099689_4.943251@1306269972"
    },
    "wof:country":"NL",
    "wof:geomhash":"514d6e629e4742e89cf8fadfe2195796",
    "wof:hierarchy":[
        {
            "continent_id":-1,
            "country_id":85633337,
            "locality_id":-1,
            "neighbourhood_id":-1,
            "region_id":85687039,
            "venue_id":286696185
        }
    ],
    "wof:id":286696185,
    "wof:lastmodified":1449015393,
    "wof:name":"Initial Varel",
    "wof:parent_id":-1,
    "wof:placetype":"venue",
    "wof:superseded_by":[],
    "wof:supersedes":[],
    "wof:tags":[]
},
  "bbox": [4.943251,52.099689,4.943251,52.099689],
  "geometry": {"coordinates":[4.943251,52.099689],"type":"Point"}
}