{
  "id": 270230665,
  "type": "Feature",
  "properties": {
    "edtf:cessation":"u",
    "edtf:inception":"u",
    "geom:area":0.0,
    "geom:bbox":"5.119699,52.082256,5.119699,52.082256",
    "geom:latitude":52.082256,
    "geom:longitude":5.119699,
    "iso:country":"NL",
    "sg:address":"Arthur Van Schendelstr 24",
    "sg:city":"Utrecht",
    "sg:classifiers":[],
    "sg:orig_category":"Fotostudio'S And Fotografen",
    "sg:owner":"simplegeo",
    "sg:phone":"+31 30 236 8278",
    "sg:postcode":"3511 MD",
    "sg:province":"Utrecht",
    "src:geom":"simplegeo",
    "wof:belongsto":[
        85798509,
        85633337,
        101751827,
        85687039
    ],
    "wof:breaches":[],
    "wof:concordances":{
        "sg:id":"SG_3laiscS8d5nzFpxlXwce9k_52.082256_5.119699@1306269963"
    },
    "wof:country":"NL",
    "wof:geomhash":"079ed9ec742186f88c17d57d3d1e019a",
    "wof:hierarchy":[
        {
            "continent_id":-1,
            "country_id":85633337,
            "locality_id":101751827,
            "neighbourhood_id":85798509,
            "region_id":85687039,
            "venue_id":270230665
        }
    ],
    "wof:id":270230665,
    "wof:lastmodified":1449010459,
    "wof:name":"Fotografie Ron Hendriks",
    "wof:parent_id":85798509,
    "wof:placetype":"venue",
    "wof:superseded_by":[],
    "wof:supersedes":[],
    "wof:tags":[]
},
  "bbox": [5.119699,52.082256,5.119699,52.082256],
  "geometry": {"coordinates":[5.119699,52.082256],"type":"Point"}
}