{
  "id": 202432353,
  "type": "Feature",
  "properties": {
    "edtf:cessation":"u",
    "edtf:inception":"u",
    "geom:area":0.0,
    "geom:bbox":"4.28429,52.112431,4.28429,52.112431",
    "geom:latitude":52.112431,
    "geom:longitude":4.28429,
    "iso:country":"NL",
    "sg:address":"Utrechtsestraat 19",
    "sg:city":"'S Gravenhage",
    "sg:classifiers":[],
    "sg:orig_category":"Verhuur Audiovisuele Apparatuur",
    "sg:owner":"simplegeo",
    "sg:phone":"+31 6 54971351",
    "sg:postcode":"2587 RB",
    "sg:province":"South Holland",
    "src:geom":"simplegeo",
    "wof:belongsto":[
        85798379,
        85633337,
        85687041
    ],
    "wof:breaches":[],
    "wof:concordances":{
        "sg:id":"SG_6CWny3KowyqGQptiBOuxK7_52.112431_4.284290@1306269915"
    },
    "wof:country":"NL",
    "wof:geomhash":"abe892c8ef43e4cca9a38d31198b3438",
    "wof:hierarchy":[
        {
            "continent_id":-1,
            "country_id":85633337,
            "locality_id":-1,
            "neighbourhood_id":85798379,
            "region_id":85687041,
            "venue_id":202432353
        }
    ],
    "wof:id":202432353,
    "wof:lastmodified":1449060064,
    "wof:name":"M & M",
    "wof:parent_id":85798379,
    "wof:placetype":"venue",
    "wof:superseded_by":[],
    "wof:supersedes":[],
    "wof:tags":[]
},
  "bbox": [4.28429,52.112431,4.28429,52.112431],
  "geometry": {"coordinates":[4.28429,52.112431],"type":"Point"}
}