{
  "id": 303325319,
  "type": "Feature",
  "properties": {
    "edtf:cessation":"u",
    "edtf:inception":"u",
    "geom:area":0.0,
    "geom:bbox":"4.492017,52.16024,4.492017,52.16024",
    "geom:latitude":52.16024,
    "geom:longitude":4.492017,
    "iso:country":"NL",
    "sg:address":"Haarlemmerstr 128",
    "sg:city":"Leiden",
    "sg:classifiers":[],
    "sg:orig_category":"Schoenen",
    "sg:owner":"simplegeo",
    "sg:phone":"+31 71 512 5585",
    "sg:postcode":"2312 GE",
    "sg:province":"South Holland",
    "src:geom":"simplegeo",
    "wof:belongsto":[
        85798811,
        85633337,
        101751833,
        85687041
    ],
    "wof:breaches":[],
    "wof:concordances":{
        "sg:id":"SG_0Ki75dVkYDv6hrZxlgjJBE_52.160240_4.492017@1306269982"
    },
    "wof:country":"NL",
    "wof:geomhash":"8631433d9abc030a0c4d1e92b40aa49b",
    "wof:hierarchy":[
        {
            "continent_id":-1,
            "country_id":85633337,
            "locality_id":101751833,
            "neighbourhood_id":85798811,
            "region_id":85687041,
            "venue_id":303325319
        }
    ],
    "wof:id":303325319,
    "wof:lastmodified":1448999078,
    "wof:name":"Dalen, Van",
    "wof:parent_id":85798811,
    "wof:placetype":"venue",
    "wof:superseded_by":[],
    "wof:supersedes":[],
    "wof:tags":[]
},
  "bbox": [4.492017,52.16024,4.492017,52.16024],
  "geometry": {"coordinates":[4.492017,52.16024],"type":"Point"}
}