{
  "id": 219937171,
  "type": "Feature",
  "properties": {
    "edtf:cessation":"u",
    "edtf:inception":"u",
    "geom:area":0.0,
    "geom:bbox":"6.565913,53.004097,6.565913,53.004097",
    "geom:latitude":53.004097,
    "geom:longitude":6.565913,
    "iso:country":"NL",
    "sg:address":"De Gaarde 1",
    "sg:city":"Assen",
    "sg:classifiers":[],
    "sg:orig_category":"Adviesbureaus Bedrijfsorganisatie",
    "sg:owner":"simplegeo",
    "sg:phone":"+31 592 406 090",
    "sg:postcode":"9402 LH",
    "sg:province":"Drenthe",
    "src:geom":"simplegeo",
    "wof:belongsto":[
        85798101,
        85633337,
        101751879,
        85687051
    ],
    "wof:breaches":[],
    "wof:concordances":{
        "sg:id":"SG_7gAb49gTQu5ZFBMo9v3Vaq_53.004097_6.565913@1306269930"
    },
    "wof:country":"NL",
    "wof:geomhash":"883ec4191a326fd141400222bf52ee43",
    "wof:hierarchy":[
        {
            "continent_id":-1,
            "country_id":85633337,
            "locality_id":101751879,
            "neighbourhood_id":85798101,
            "region_id":85687051,
            "venue_id":219937171
        }
    ],
    "wof:id":219937171,
    "wof:lastmodified":1449071063,
    "wof:name":"Via Visser Bv",
    "wof:parent_id":85798101,
    "wof:placetype":"venue",
    "wof:superseded_by":[],
    "wof:supersedes":[],
    "wof:tags":[]
},
  "bbox": [6.565913,53.004097,6.565913,53.004097],
  "geometry": {"coordinates":[6.565913,53.004097],"type":"Point"}
}