{
  "id": 269788251,
  "type": "Feature",
  "properties": {
    "edtf:cessation":"u",
    "edtf:inception":"u",
    "geom:area":0.0,
    "geom:bbox":"5.047562,52.666016,5.047562,52.666016",
    "geom:latitude":52.666016,
    "geom:longitude":5.047562,
    "iso:country":"NL",
    "sg:address":"Korenbloem 84",
    "sg:city":"Zwaag",
    "sg:classifiers":[
        {
            "category":"Fast Food",
            "subcategory":"",
            "type":"Food & Drink"
        }
    ],
    "sg:owner":"simplegeo",
    "sg:phone":"+31 229 234 267",
    "sg:postcode":"1689 RZ",
    "sg:province":"North Holland",
    "sg:tags":[
        "afhaal",
        "restaurant"
    ],
    "src:geom":"simplegeo",
    "wof:belongsto":[
        85797609,
        85633337,
        85687053
    ],
    "wof:breaches":[],
    "wof:concordances":{
        "sg:id":"SG_2OMhb3vFx3l39iihYnvWba_52.666016_5.047562@1306269957"
    },
    "wof:country":"NL",
    "wof:geomhash":"f4435fbeede13a5cbb21d42ee296d79c",
    "wof:hierarchy":[
        {
            "continent_id":-1,
            "country_id":85633337,
            "locality_id":-1,
            "neighbourhood_id":85797609,
            "region_id":85687053,
            "venue_id":269788251
        }
    ],
    "wof:id":269788251,
    "wof:lastmodified":1449037379,
    "wof:name":"Snackbar Risdam",
    "wof:parent_id":85797609,
    "wof:placetype":"venue",
    "wof:superseded_by":[],
    "wof:supersedes":[],
    "wof:tags":[
        "afhaal",
        "restaurant"
    ]
},
  "bbox": [5.047562,52.666016,5.047562,52.666016],
  "geometry": {"coordinates":[5.047562,52.666016],"type":"Point"}
}