{
  "id": 253106363,
  "type": "Feature",
  "properties": {
    "edtf:cessation":"u",
    "edtf:inception":"u",
    "geom:area":0.0,
    "geom:bbox":"5.857356,53.197639,5.857356,53.197639",
    "geom:latitude":53.197639,
    "geom:longitude":5.857356,
    "iso:country":"NL",
    "sg:address":"Siriuswg 3",
    "sg:city":"Leeuwarden",
    "sg:classifiers":[],
    "sg:orig_category":"Metselwerken",
    "sg:owner":"simplegeo",
    "sg:phone":"+31 58 288 9572",
    "sg:postcode":"8938 BB",
    "sg:province":"Friesland",
    "src:geom":"simplegeo",
    "wof:belongsto":[
        85797627,
        85633337,
        101751907,
        85687055
    ],
    "wof:breaches":[],
    "wof:concordances":{
        "sg:id":"SG_1KaRTXrwIlsm6FYVL1elqc_53.197639_5.857356@1306269946"
    },
    "wof:country":"NL",
    "wof:geomhash":"f530f7d4325c81597a1da0cbe0a86605",
    "wof:hierarchy":[
        {
            "continent_id":-1,
            "country_id":85633337,
            "locality_id":101751907,
            "neighbourhood_id":85797627,
            "region_id":85687055,
            "venue_id":253106363
        }
    ],
    "wof:id":253106363,
    "wof:lastmodified":1449062787,
    "wof:name":"Vries Bv, De",
    "wof:parent_id":85797627,
    "wof:placetype":"venue",
    "wof:superseded_by":[],
    "wof:supersedes":[],
    "wof:tags":[]
},
  "bbox": [5.857356,53.197639,5.857356,53.197639],
  "geometry": {"coordinates":[5.857356,53.197639],"type":"Point"}
}