{
  "id": 185737817,
  "type": "Feature",
  "properties": {
    "edtf:cessation":"u",
    "edtf:inception":"u",
    "geom:area":0.0,
    "geom:bbox":"4.24958,52.053631,4.24958,52.053631",
    "geom:latitude":52.053631,
    "geom:longitude":4.24958,
    "iso:country":"NL",
    "sg:address":"J J Heggestr 92",
    "sg:city":"S Gravenhage",
    "sg:classifiers":[],
    "sg:orig_category":"Keukens",
    "sg:owner":"simplegeo",
    "sg:phone":"+31 70 397 2943",
    "sg:postcode":"2552 GZ",
    "sg:province":"South Holland",
    "src:geom":"simplegeo",
    "wof:belongsto":[
        85859591,
        85633337,
        101752763,
        85687041
    ],
    "wof:breaches":[],
    "wof:concordances":{
        "sg:id":"SG_1JoeEKV4uHSak0HNYq27Od_52.053631_4.249580@1306269907"
    },
    "wof:country":"NL",
    "wof:geomhash":"f3c7e0f991724db980503fde1bcab882",
    "wof:hierarchy":[
        {
            "continent_id":-1,
            "country_id":85633337,
            "locality_id":101752763,
            "neighbourhood_id":85859591,
            "region_id":85687041,
            "venue_id":185737817
        }
    ],
    "wof:id":185737817,
    "wof:lastmodified":1449006980,
    "wof:name":"Delhage",
    "wof:parent_id":85859591,
    "wof:placetype":"venue",
    "wof:superseded_by":[],
    "wof:supersedes":[],
    "wof:tags":[]
},
  "bbox": [4.24958,52.053631,4.24958,52.053631],
  "geometry": {"coordinates":[4.24958,52.053631],"type":"Point"}
}