{
  "id": 219631551,
  "type": "Feature",
  "properties": {
    "edtf:cessation":"u",
    "edtf:inception":"u",
    "geom:area":0.0,
    "geom:bbox":"5.228901,52.247528,5.228901,52.247528",
    "geom:latitude":52.247528,
    "geom:longitude":5.228901,
    "iso:country":"NL",
    "sg:address":"Lg Vuurschewg 8",
    "sg:city":"Laren Nh",
    "sg:classifiers":[],
    "sg:orig_category":"Administratie- En Boekhoudkantoren",
    "sg:owner":"simplegeo",
    "sg:phone":"+31 35 531 1933",
    "sg:postcode":"1251 TT",
    "sg:province":"Noord-Holland",
    "src:geom":"simplegeo",
    "wof:belongsto":[
        85798173,
        85633337,
        101837933,
        85687053
    ],
    "wof:breaches":[],
    "wof:concordances":{
        "sg:id":"SG_3wHHqfckUNb0DtQW9G1Zq0_52.247528_5.228901@1306269927"
    },
    "wof:country":"NL",
    "wof:geomhash":"92dd25c4b52c8509cbbfa9ebb317ff81",
    "wof:hierarchy":[
        {
            "continent_id":-1,
            "country_id":85633337,
            "locality_id":101837933,
            "neighbourhood_id":85798173,
            "region_id":85687053,
            "venue_id":219631551
        }
    ],
    "wof:id":219631551,
    "wof:lastmodified":1449071489,
    "wof:name":"Groenen, J B C",
    "wof:parent_id":85798173,
    "wof:placetype":"venue",
    "wof:superseded_by":[],
    "wof:supersedes":[],
    "wof:tags":[]
},
  "bbox": [5.228901,52.247528,5.228901,52.247528],
  "geometry": {"coordinates":[5.228901,52.247528],"type":"Point"}
}