{
  "id": 286765073,
  "type": "Feature",
  "properties": {
    "edtf:cessation":"u",
    "edtf:inception":"u",
    "geom:area":0.0,
    "geom:bbox":"8.22414,46.813091,8.22414,46.813091",
    "geom:latitude":46.813091,
    "geom:longitude":8.22414,
    "iso:country":"NL",
    "sg:address":"Ugchelseweg 233",
    "sg:city":"Ugchelen",
    "sg:classifiers":[],
    "sg:orig_category":"Binnenhuisarchitecten",
    "sg:owner":"simplegeo",
    "sg:phone":"+31 55 541 1996",
    "sg:postcode":"7339 CH",
    "sg:province":"Gelderland",
    "src:geom":"simplegeo",
    "wof:belongsto":[
        85633051,
        85682371
    ],
    "wof:breaches":[],
    "wof:concordances":{
        "sg:id":"SG_1JgiGBeZikpzohWNhb9cBq_46.813091_8.224140@1306269973"
    },
    "wof:country":"NL",
    "wof:geomhash":"2db93b6a0f119044ff2dc52551b90631",
    "wof:hierarchy":[
        {
            "continent_id":-1,
            "country_id":85633051,
            "locality_id":-1,
            "neighbourhood_id":-1,
            "region_id":85682371,
            "venue_id":286765073
        }
    ],
    "wof:id":286765073,
    "wof:lastmodified":1449016886,
    "wof:name":"All-Round Totale Woninginrichting",
    "wof:parent_id":-1,
    "wof:placetype":"venue",
    "wof:superseded_by":[],
    "wof:supersedes":[],
    "wof:tags":[]
},
  "bbox": [8.22414,46.813091,8.22414,46.813091],
  "geometry": {"coordinates":[8.22414,46.813091],"type":"Point"}
}