{
  "id": 220178155,
  "type": "Feature",
  "properties": {
    "edtf:cessation":"u",
    "edtf:inception":"u",
    "geom:area":0.0,
    "geom:bbox":"4.886561,52.371822,4.886561,52.371822",
    "geom:latitude":52.371822,
    "geom:longitude":4.886561,
    "iso:country":"NL",
    "sg:address":"Herengr 244",
    "sg:city":"Amsterdam",
    "sg:classifiers":[],
    "sg:orig_category":"Advocaten En Advocatenkantoren",
    "sg:owner":"simplegeo",
    "sg:phone":"+31 20 623 6721",
    "sg:postcode":"1016 BT",
    "sg:province":"Noord-Holland",
    "src:geom":"simplegeo",
    "wof:belongsto":[
        85797363,
        85633337,
        101751893,
        85687053
    ],
    "wof:breaches":[],
    "wof:concordances":{
        "sg:id":"SG_5T0E5awhO4a3n105N6EXUo_52.371822_4.886561@1306269932"
    },
    "wof:country":"NL",
    "wof:geomhash":"02efc3023c15278be84ba6cb9d661698",
    "wof:hierarchy":[
        {
            "continent_id":-1,
            "country_id":85633337,
            "locality_id":101751893,
            "neighbourhood_id":85797363,
            "region_id":85687053,
            "venue_id":220178155
        }
    ],
    "wof:id":220178155,
    "wof:lastmodified":1449074629,
    "wof:name":"Nillesen, J L W",
    "wof:parent_id":85797363,
    "wof:placetype":"venue",
    "wof:superseded_by":[],
    "wof:supersedes":[],
    "wof:tags":[]
},
  "bbox": [4.886561,52.371822,4.886561,52.371822],
  "geometry": {"coordinates":[4.886561,52.371822],"type":"Point"}
}