{
  "id": 286506023,
  "type": "Feature",
  "properties": {
    "edtf:cessation":"u",
    "edtf:inception":"u",
    "geom:area":0.0,
    "geom:bbox":"5.085149,51.559002,5.085149,51.559002",
    "geom:latitude":51.559002,
    "geom:longitude":5.085149,
    "iso:country":"NL",
    "sg:address":"Poststr 23",
    "sg:city":"Tilburg",
    "sg:classifiers":[],
    "sg:orig_category":"Beeldende Kunstenaars",
    "sg:owner":"simplegeo",
    "sg:phone":"+31 13 536 5116",
    "sg:postcode":"5038 DG",
    "sg:province":"Noord-Brabant",
    "src:geom":"simplegeo",
    "wof:belongsto":[
        85797033,
        85633337,
        101751817,
        85687035
    ],
    "wof:breaches":[],
    "wof:concordances":{
        "sg:id":"SG_3yjf2GLFpmj3yLKakI7paf_51.559002_5.085149@1306269970"
    },
    "wof:country":"NL",
    "wof:geomhash":"131b590f1b6ce6767104997eaa2bd408",
    "wof:hierarchy":[
        {
            "continent_id":-1,
            "country_id":85633337,
            "locality_id":101751817,
            "neighbourhood_id":85797033,
            "region_id":85687035,
            "venue_id":286506023
        }
    ],
    "wof:id":286506023,
    "wof:lastmodified":1449015225,
    "wof:name":"Reijnen, C J M",
    "wof:parent_id":85797033,
    "wof:placetype":"venue",
    "wof:superseded_by":[],
    "wof:supersedes":[],
    "wof:tags":[]
},
  "bbox": [5.085149,51.559002,5.085149,51.559002],
  "geometry": {"coordinates":[5.085149,51.559002],"type":"Point"}
}