{
  "id": 303168949,
  "type": "Feature",
  "properties": {
    "edtf:cessation":"u",
    "edtf:inception":"u",
    "geom:area":0.0,
    "geom:bbox":"5.27879,52.121307,5.27879,52.121307",
    "geom:latitude":52.121307,
    "geom:longitude":5.27879,
    "iso:country":"NL",
    "sg:address":"Sterrenbergwg 3",
    "sg:city":"Soesterberg",
    "sg:classifiers":[],
    "sg:orig_category":"Sanitaire Artikelen",
    "sg:owner":"simplegeo",
    "sg:phone":"+31 346 352 194",
    "sg:postcode":"3769 BS",
    "sg:province":"Utrecht",
    "sg:website":"http://www.sanitair-tegels.nl",
    "src:geom":"simplegeo",
    "wof:belongsto":[
        85633337,
        85687039
    ],
    "wof:breaches":[],
    "wof:concordances":{
        "sg:id":"SG_4NCpcvIgijMeM1Hy50n2M1_52.121307_5.278790@1306269981"
    },
    "wof:country":"NL",
    "wof:geomhash":"4429f7b2de15bc78062bb1428677e16b",
    "wof:hierarchy":[
        {
            "continent_id":-1,
            "country_id":85633337,
            "locality_id":-1,
            "neighbourhood_id":-1,
            "region_id":85687039,
            "venue_id":303168949
        }
    ],
    "wof:id":303168949,
    "wof:lastmodified":1448999397,
    "wof:name":"Soesterberg Sanitair & Tegelcentr",
    "wof:parent_id":-1,
    "wof:placetype":"venue",
    "wof:superseded_by":[],
    "wof:supersedes":[],
    "wof:tags":[]
},
  "bbox": [5.27879,52.121307,5.27879,52.121307],
  "geometry": {"coordinates":[5.27879,52.121307],"type":"Point"}
}