{
  "id": 287157779,
  "type": "Feature",
  "properties": {
    "edtf:cessation":"u",
    "edtf:inception":"u",
    "geom:area":0.0,
    "geom:bbox":"5.657743,53.032825,5.657743,53.032825",
    "geom:latitude":53.032825,
    "geom:longitude":5.657743,
    "iso:country":"NL",
    "sg:address":"Nauwe Noorderhorn 21",
    "sg:city":"Sneek",
    "sg:classifiers":[],
    "sg:orig_category":"Boeken En Tijdschriften",
    "sg:owner":"simplegeo",
    "sg:phone":"+31 515 421 180",
    "sg:postcode":"8601 CX",
    "sg:province":"Friesland",
    "src:geom":"simplegeo",
    "wof:belongsto":[
        85797295,
        85633337,
        85687055
    ],
    "wof:breaches":[],
    "wof:concordances":{
        "sg:id":"SG_4kVufVv33o4M7zNvkCv1Nb_53.032825_5.657743@1306269977"
    },
    "wof:country":"NL",
    "wof:geomhash":"87903015a96562c5c462ce45803c4693",
    "wof:hierarchy":[
        {
            "continent_id":-1,
            "country_id":85633337,
            "locality_id":-1,
            "neighbourhood_id":85797295,
            "region_id":85687055,
            "venue_id":287157779
        }
    ],
    "wof:id":287157779,
    "wof:lastmodified":1449001447,
    "wof:name":"Kompas, Het",
    "wof:parent_id":85797295,
    "wof:placetype":"venue",
    "wof:superseded_by":[],
    "wof:supersedes":[],
    "wof:tags":[]
},
  "bbox": [5.657743,53.032825,5.657743,53.032825],
  "geometry": {"coordinates":[5.657743,53.032825],"type":"Point"}
}