{
  "id": 270488265,
  "type": "Feature",
  "properties": {
    "edtf:cessation":"u",
    "edtf:inception":"u",
    "geom:area":0.0,
    "geom:bbox":"5.09763,51.894241,5.09763,51.894241",
    "geom:latitude":51.894241,
    "geom:longitude":5.09763,
    "iso:country":"NL",
    "sg:address":"Watertorenlaan 25",
    "sg:city":"Leerdam",
    "sg:classifiers":[
        {
            "category":"Education",
            "subcategory":"Preschool",
            "type":"Public Place"
        }
    ],
    "sg:owner":"simplegeo",
    "sg:phone":"+31 345 614 317",
    "sg:postcode":"4141 HT",
    "sg:province":"Zuid-Holland",
    "sg:tags":[
        "kleuteronderwijs",
        "basis-"
    ],
    "src:geom":"simplegeo",
    "wof:belongsto":[
        85633337,
        101808521,
        85687041
    ],
    "wof:breaches":[],
    "wof:concordances":{
        "sg:id":"SG_6RpF7phAAhkhdBmuVV1iWp_51.894241_5.097630@1306269966"
    },
    "wof:country":"NL",
    "wof:geomhash":"459a9395496631154a14be0cccb2d486",
    "wof:hierarchy":[
        {
            "continent_id":-1,
            "country_id":85633337,
            "locality_id":101808521,
            "neighbourhood_id":-1,
            "region_id":85687041,
            "venue_id":270488265
        }
    ],
    "wof:id":270488265,
    "wof:lastmodified":1449011077,
    "wof:name":"Cbs Ichthus Locatie Juliana",
    "wof:parent_id":-1,
    "wof:placetype":"venue",
    "wof:superseded_by":[],
    "wof:supersedes":[],
    "wof:tags":[
        "kleuteronderwijs",
        "basis-"
    ]
},
  "bbox": [5.09763,51.894241,5.09763,51.894241],
  "geometry": {"coordinates":[5.09763,51.894241],"type":"Point"}
}