{
  "id": 320244439,
  "type": "Feature",
  "properties": {
    "edtf:cessation":"u",
    "edtf:inception":"u",
    "geom:area":0.0,
    "geom:bbox":"4.903426,52.586353,4.903426,52.586353",
    "geom:latitude":52.586353,
    "geom:longitude":4.903426,
    "iso:country":"NL",
    "sg:address":"Oosthuizerweg 25",
    "sg:city":"Noordbeemster",
    "sg:classifiers":[],
    "sg:orig_category":"Gespecialiseerde Voeding",
    "sg:owner":"simplegeo",
    "sg:phone":"+31 299 690 585",
    "sg:postcode":"1463 LL",
    "sg:province":"North Holland",
    "src:geom":"simplegeo",
    "wof:belongsto":[
        85633337,
        85687053
    ],
    "wof:breaches":[],
    "wof:concordances":{
        "sg:id":"SG_1lXxV803lpBl8ynrFI36ER_52.586353_4.903426@1306269996"
    },
    "wof:country":"NL",
    "wof:geomhash":"33c735151a29b349db95c63ad3015efb",
    "wof:hierarchy":[
        {
            "continent_id":-1,
            "country_id":85633337,
            "locality_id":-1,
            "neighbourhood_id":-1,
            "region_id":85687053,
            "venue_id":320244439
        }
    ],
    "wof:id":320244439,
    "wof:lastmodified":1449012751,
    "wof:name":"Jos Knijn Traiteur",
    "wof:parent_id":-1,
    "wof:placetype":"venue",
    "wof:superseded_by":[],
    "wof:supersedes":[],
    "wof:tags":[]
},
  "bbox": [4.903426,52.586353,4.903426,52.586353],
  "geometry": {"coordinates":[4.903426,52.586353],"type":"Point"}
}