{
  "id": 304008523,
  "type": "Feature",
  "properties": {
    "edtf:cessation":"u",
    "edtf:inception":"u",
    "geom:area":0.0,
    "geom:bbox":"4.586154,52.043221,4.586154,52.043221",
    "geom:latitude":52.043221,
    "geom:longitude":4.586154,
    "iso:country":"NL",
    "sg:address":"Nyverheidstr 7",
    "sg:city":"Moerkapelle",
    "sg:classifiers":[],
    "sg:orig_category":"Hoogwerkers",
    "sg:owner":"simplegeo",
    "sg:phone":"+31 79 593 1186",
    "sg:postcode":"2751 GR",
    "sg:province":"Zuid-Holland",
    "src:geom":"simplegeo",
    "wof:belongsto":[
        85633337,
        101807047,
        85687041
    ],
    "wof:breaches":[],
    "wof:concordances":{
        "sg:id":"SG_256e5oAphD9F0wHpVWa2jp_52.043221_4.586154@1306269990"
    },
    "wof:country":"NL",
    "wof:geomhash":"e04ea4a21189e8a83a9e0eda0cccc46e",
    "wof:hierarchy":[
        {
            "continent_id":-1,
            "country_id":85633337,
            "locality_id":101807047,
            "neighbourhood_id":-1,
            "region_id":85687041,
            "venue_id":304008523
        }
    ],
    "wof:id":304008523,
    "wof:lastmodified":1449043738,
    "wof:name":"Bac Bv",
    "wof:parent_id":-1,
    "wof:placetype":"venue",
    "wof:superseded_by":[],
    "wof:supersedes":[],
    "wof:tags":[]
},
  "bbox": [4.586154,52.043221,4.586154,52.043221],
  "geometry": {"coordinates":[4.586154,52.043221],"type":"Point"}
}