{
  "id": 219920397,
  "type": "Feature",
  "properties": {
    "edtf:cessation":"u",
    "edtf:inception":"u",
    "geom:area":0.0,
    "geom:bbox":"4.992204,51.983749,4.992204,51.983749",
    "geom:latitude":51.983749,
    "geom:longitude":4.992204,
    "iso:country":"NL",
    "sg:address":"Graafdk 59",
    "sg:city":"Lopik",
    "sg:classifiers":[],
    "sg:orig_category":"Adviesbureaus Bedrijfsorganisatie",
    "sg:owner":"simplegeo",
    "sg:phone":"+31 348 552 128",
    "sg:postcode":"3411 JV",
    "sg:province":"Utrecht",
    "src:geom":"simplegeo",
    "wof:belongsto":[
        85633337,
        101808449,
        85687039
    ],
    "wof:breaches":[],
    "wof:concordances":{
        "sg:id":"SG_0dTwNGy0NFhQNzBWYM4ccb_51.983749_4.992204@1306269930"
    },
    "wof:country":"NL",
    "wof:geomhash":"8c528d2cd252af296e22bf93aaf38a65",
    "wof:hierarchy":[
        {
            "continent_id":-1,
            "country_id":85633337,
            "locality_id":101808449,
            "neighbourhood_id":-1,
            "region_id":85687039,
            "venue_id":219920397
        }
    ],
    "wof:id":219920397,
    "wof:lastmodified":1449073131,
    "wof:name":"Reissenweber Bv, Ir M G",
    "wof:parent_id":-1,
    "wof:placetype":"venue",
    "wof:superseded_by":[],
    "wof:supersedes":[],
    "wof:tags":[]
},
  "bbox": [4.992204,51.983749,4.992204,51.983749],
  "geometry": {"coordinates":[4.992204,51.983749],"type":"Point"}
}