{
  "id": 304019095,
  "type": "Feature",
  "properties": {
    "edtf:cessation":"u",
    "edtf:inception":"u",
    "geom:area":0.0,
    "geom:bbox":"5.983968,51.957596,5.983968,51.957596",
    "geom:latitude":51.957596,
    "geom:longitude":5.983968,
    "iso:country":"NL",
    "sg:address":"Het Hazeland 10",
    "sg:city":"Westervoort",
    "sg:classifiers":[],
    "sg:orig_category":"Horeca-Inrichtingen En -Uitrustingen",
    "sg:owner":"simplegeo",
    "sg:phone":"+31 26 311 5800",
    "sg:postcode":"6931 KB",
    "sg:province":"Gelderland",
    "src:geom":"simplegeo",
    "wof:belongsto":[
        85798321,
        85633337,
        101751857,
        85687043
    ],
    "wof:breaches":[],
    "wof:concordances":{
        "sg:id":"SG_1gEHCG7oWUwvFrtEiwSWRN_51.957596_5.983968@1306269990"
    },
    "wof:country":"NL",
    "wof:geomhash":"cb45ebfb6e92de84e6004f137e3f6004",
    "wof:hierarchy":[
        {
            "continent_id":-1,
            "country_id":85633337,
            "locality_id":101751857,
            "neighbourhood_id":85798321,
            "region_id":85687043,
            "venue_id":304019095
        }
    ],
    "wof:id":304019095,
    "wof:lastmodified":1449043932,
    "wof:name":"Janssen",
    "wof:parent_id":85798321,
    "wof:placetype":"venue",
    "wof:superseded_by":[],
    "wof:supersedes":[],
    "wof:tags":[]
},
  "bbox": [5.983968,51.957596,5.983968,51.957596],
  "geometry": {"coordinates":[5.983968,51.957596],"type":"Point"}
}