{
  "id": 320223485,
  "type": "Feature",
  "properties": {
    "edtf:cessation":"u",
    "edtf:inception":"u",
    "geom:area":0.0,
    "geom:bbox":"4.892743,52.369217,4.892743,52.369217",
    "geom:latitude":52.369217,
    "geom:longitude":4.892743,
    "iso:country":"NL",
    "sg:address":"Langebrugsteeg 2",
    "sg:city":"Amsterdam",
    "sg:classifiers":[
        {
            "category":"Shopping",
            "subcategory":"Gifts & Souvenirs",
            "type":"Retail Goods"
        }
    ],
    "sg:owner":"simplegeo",
    "sg:phone":"+31 20 627 6774",
    "sg:postcode":"1012 GB",
    "sg:province":"Noord-Holland",
    "sg:tags":[
        "geschenken"
    ],
    "src:geom":"simplegeo",
    "wof:belongsto":[
        85797363,
        85633337,
        101751893,
        85687053
    ],
    "wof:breaches":[],
    "wof:concordances":{
        "sg:id":"SG_5awtNz9xlZYCwgC424rtNV_52.369217_4.892743@1306269996"
    },
    "wof:country":"NL",
    "wof:geomhash":"a6141cabc28e0552abcaf6ea4b378009",
    "wof:hierarchy":[
        {
            "continent_id":-1,
            "country_id":85633337,
            "locality_id":101751893,
            "neighbourhood_id":85797363,
            "region_id":85687053,
            "venue_id":320223485
        }
    ],
    "wof:id":320223485,
    "wof:lastmodified":1449011503,
    "wof:name":"Vof The Mill Shop",
    "wof:parent_id":85797363,
    "wof:placetype":"venue",
    "wof:superseded_by":[],
    "wof:supersedes":[],
    "wof:tags":[
        "geschenken"
    ]
},
  "bbox": [4.892743,52.369217,4.892743,52.369217],
  "geometry": {"coordinates":[4.892743,52.369217],"type":"Point"}
}