{
  "id": 270028883,
  "type": "Feature",
  "properties": {
    "edtf:cessation":"u",
    "edtf:inception":"u",
    "geom:area":0.0,
    "geom:bbox":"5.860377,51.77528,5.860377,51.77528",
    "geom:latitude":51.77528,
    "geom:longitude":5.860377,
    "iso:country":"NL",
    "sg:address":"Tarwe 23",
    "sg:city":"Malden",
    "sg:classifiers":[],
    "sg:orig_category":"Financi\u00c3\u00able Planning",
    "sg:owner":"simplegeo",
    "sg:phone":"+31 24 388 1424",
    "sg:postcode":"6581 RX",
    "sg:province":"Gelderland",
    "src:geom":"simplegeo",
    "wof:belongsto":[
        85797179,
        85633337,
        101751859,
        85687043
    ],
    "wof:breaches":[],
    "wof:concordances":{
        "sg:id":"SG_3Rg0l5BX3LSgQAMXudNAmV_51.775280_5.860377@1306269960"
    },
    "wof:country":"NL",
    "wof:geomhash":"9eae4d320c3bd34b505729ba1c283c2a",
    "wof:hierarchy":[
        {
            "continent_id":-1,
            "country_id":85633337,
            "locality_id":101751859,
            "neighbourhood_id":85797179,
            "region_id":85687043,
            "venue_id":270028883
        }
    ],
    "wof:id":270028883,
    "wof:lastmodified":1449009965,
    "wof:name":"Janssen, A J J",
    "wof:parent_id":85797179,
    "wof:placetype":"venue",
    "wof:superseded_by":[],
    "wof:supersedes":[],
    "wof:tags":[]
},
  "bbox": [5.860377,51.77528,5.860377,51.77528],
  "geometry": {"coordinates":[5.860377,51.77528],"type":"Point"}
}