{
  "id": 303771415,
  "type": "Feature",
  "properties": {
    "edtf:cessation":"u",
    "edtf:inception":"u",
    "geom:area":0.0,
    "geom:bbox":"4.99865,51.864128,4.99865,51.864128",
    "geom:latitude":51.864128,
    "geom:longitude":4.99865,
    "iso:country":"NL",
    "sg:address":"Vlietskd 8023",
    "sg:city":"Arkel",
    "sg:classifiers":[],
    "sg:orig_category":"Drukkerijen",
    "sg:owner":"simplegeo",
    "sg:phone":"+31 183 567 165",
    "sg:postcode":"4241 WS",
    "sg:province":"Overijssel",
    "src:geom":"simplegeo",
    "wof:belongsto":[
        85633337,
        101837683,
        85687041
    ],
    "wof:breaches":[],
    "wof:concordances":{
        "sg:id":"SG_4tS5h7knrz8MFATvSqo3QS_51.864128_4.998650@1306269987"
    },
    "wof:country":"NL",
    "wof:geomhash":"cbf4922d68ab27a3c990909d4e4ddb51",
    "wof:hierarchy":[
        {
            "continent_id":-1,
            "country_id":85633337,
            "locality_id":101837683,
            "neighbourhood_id":-1,
            "region_id":85687041,
            "venue_id":303771415
        }
    ],
    "wof:id":303771415,
    "wof:lastmodified":1448999448,
    "wof:name":"Horneer",
    "wof:parent_id":-1,
    "wof:placetype":"venue",
    "wof:superseded_by":[],
    "wof:supersedes":[],
    "wof:tags":[]
},
  "bbox": [4.99865,51.864128,4.99865,51.864128],
  "geometry": {"coordinates":[4.99865,51.864128],"type":"Point"}
}