{
  "id": 202880971,
  "type": "Feature",
  "properties": {
    "edtf:cessation":"u",
    "edtf:inception":"u",
    "geom:area":0.0,
    "geom:bbox":"5.047906,52.027515,5.047906,52.027515",
    "geom:latitude":52.027515,
    "geom:longitude":5.047906,
    "iso:country":"NL",
    "sg:address":"Libra 30",
    "sg:city":"Ysselstein Ut",
    "sg:classifiers":[],
    "sg:orig_category":"Vertalers",
    "sg:owner":"simplegeo",
    "sg:phone":"+31 30 687 0862",
    "sg:postcode":"3402 HA",
    "sg:province":"Utrecht",
    "src:geom":"simplegeo",
    "wof:belongsto":[
        85797753,
        85633337,
        101754605,
        85687039
    ],
    "wof:breaches":[],
    "wof:concordances":{
        "sg:id":"SG_0t2AXAHT7OHOQAAffk5E1t_52.027515_5.047906@1306269919"
    },
    "wof:country":"NL",
    "wof:geomhash":"c91e36f9a324db514d5e7ea39eb784ab",
    "wof:hierarchy":[
        {
            "continent_id":-1,
            "country_id":85633337,
            "locality_id":101754605,
            "neighbourhood_id":85797753,
            "region_id":85687039,
            "venue_id":202880971
        }
    ],
    "wof:id":202880971,
    "wof:lastmodified":1449062675,
    "wof:name":"Ruiter, C V",
    "wof:parent_id":85797753,
    "wof:placetype":"venue",
    "wof:superseded_by":[],
    "wof:supersedes":[],
    "wof:tags":[]
},
  "bbox": [5.047906,52.027515,5.047906,52.027515],
  "geometry": {"coordinates":[5.047906,52.027515],"type":"Point"}
}