{
  "id": 252938407,
  "type": "Feature",
  "properties": {
    "edtf:cessation":"u",
    "edtf:inception":"u",
    "geom:area":0.0,
    "geom:bbox":"6.651534,52.097401,6.651534,52.097401",
    "geom:latitude":52.097401,
    "geom:longitude":6.651534,
    "iso:country":"NL",
    "sg:address":"Bronkhorstkamp 18",
    "sg:city":"Eibergen",
    "sg:classifiers":[],
    "sg:orig_category":"Metaalbekleding And -Behandeling",
    "sg:owner":"simplegeo",
    "sg:phone":"+31 545 473 374",
    "sg:postcode":"7151 DJ",
    "sg:province":"Gelderland",
    "src:geom":"simplegeo",
    "wof:belongsto":[
        85633337,
        101807089,
        85687043
    ],
    "wof:breaches":[],
    "wof:concordances":{
        "sg:id":"SG_5mhs9zdbesrnQZkSjRpum8_52.097401_6.651534@1306269945"
    },
    "wof:country":"NL",
    "wof:geomhash":"9be32114ad1bb45119e49ea3497135a6",
    "wof:hierarchy":[
        {
            "continent_id":-1,
            "country_id":85633337,
            "locality_id":101807089,
            "neighbourhood_id":-1,
            "region_id":85687043,
            "venue_id":252938407
        }
    ],
    "wof:id":252938407,
    "wof:lastmodified":1449006217,
    "wof:name":"Kleinsman-Hazewinkel",
    "wof:parent_id":-1,
    "wof:placetype":"venue",
    "wof:superseded_by":[],
    "wof:supersedes":[],
    "wof:tags":[]
},
  "bbox": [6.651534,52.097401,6.651534,52.097401],
  "geometry": {"coordinates":[6.651534,52.097401],"type":"Point"}
}