{
  "id": 253559155,
  "type": "Feature",
  "properties": {
    "edtf:cessation":"u",
    "edtf:inception":"u",
    "geom:area":0.0,
    "geom:bbox":"4.472717,52.057426,4.472717,52.057426",
    "geom:latitude":52.057426,
    "geom:longitude":4.472717,
    "iso:country":"NL",
    "sg:address":"Kadoelerbos 55",
    "sg:city":"Zoetermeer",
    "sg:classifiers":[
        {
            "category":"Personal",
            "subcategory":"Nail Salon",
            "type":"Services"
        }
    ],
    "sg:owner":"simplegeo",
    "sg:phone":"+31 79 352 3283",
    "sg:postcode":"2715 RZ",
    "sg:province":"Zuid-Holland",
    "sg:tags":[
        "pedicure"
    ],
    "src:geom":"simplegeo",
    "wof:belongsto":[
        85798007,
        85633337,
        85687041
    ],
    "wof:breaches":[],
    "wof:concordances":{
        "sg:id":"SG_1yuSg77Xe4m3ZEy9sv0Atp_52.057426_4.472717@1306269951"
    },
    "wof:country":"NL",
    "wof:geomhash":"bc31041d9737dd3881587333cf8e5c82",
    "wof:hierarchy":[
        {
            "continent_id":-1,
            "country_id":85633337,
            "locality_id":-1,
            "neighbourhood_id":85798007,
            "region_id":85687041,
            "venue_id":253559155
        }
    ],
    "wof:id":253559155,
    "wof:lastmodified":1449065111,
    "wof:name":"Kok, L P M De",
    "wof:parent_id":85798007,
    "wof:placetype":"venue",
    "wof:superseded_by":[],
    "wof:supersedes":[],
    "wof:tags":[
        "pedicure"
    ]
},
  "bbox": [4.472717,52.057426,4.472717,52.057426],
  "geometry": {"coordinates":[4.472717,52.057426],"type":"Point"}
}