{
  "id": 253245185,
  "type": "Feature",
  "properties": {
    "edtf:cessation":"u",
    "edtf:inception":"u",
    "geom:area":0.0,
    "geom:bbox":"4.694139,52.560303,4.694139,52.560303",
    "geom:latitude":52.560303,
    "geom:longitude":4.694139,
    "iso:country":"NL",
    "sg:address":"Uitgeesterwg 15",
    "sg:city":"Limmen",
    "sg:classifiers":[],
    "sg:orig_category":"Meubelstoffering",
    "sg:owner":"simplegeo",
    "sg:phone":"+31 72 505 2852",
    "sg:postcode":"1906 NW",
    "sg:province":"Noord-Holland",
    "sg:website":"http://www.z-i-d.nl",
    "src:geom":"simplegeo",
    "wof:belongsto":[
        85633337,
        85687053
    ],
    "wof:breaches":[],
    "wof:concordances":{
        "sg:id":"SG_5q5X4aYMoAvkIpjw2geoDJ_52.560303_4.694139@1306269947"
    },
    "wof:country":"NL",
    "wof:geomhash":"5bdf4664642f35340d0afc2ca778207c",
    "wof:hierarchy":[
        {
            "continent_id":-1,
            "country_id":85633337,
            "locality_id":-1,
            "neighbourhood_id":-1,
            "region_id":85687053,
            "venue_id":253245185
        }
    ],
    "wof:id":253245185,
    "wof:lastmodified":1449065701,
    "wof:name":"Zijlstra",
    "wof:parent_id":-1,
    "wof:placetype":"venue",
    "wof:superseded_by":[],
    "wof:supersedes":[],
    "wof:tags":[]
},
  "bbox": [4.694139,52.560303,4.694139,52.560303],
  "geometry": {"coordinates":[4.694139,52.560303],"type":"Point"}
}