{
  "id": 252851079,
  "type": "Feature",
  "properties": {
    "edtf:cessation":"u",
    "edtf:inception":"u",
    "geom:area":0.0,
    "geom:bbox":"5.549939,52.01812,5.549939,52.01812",
    "geom:latitude":52.01812,
    "geom:longitude":5.549939,
    "iso:country":"NL",
    "sg:address":"Spoorlaan 3",
    "sg:city":"Veenendaal",
    "sg:classifiers":[],
    "sg:orig_category":"Medische Apparatuur And Prothesen Fab",
    "sg:owner":"simplegeo",
    "sg:phone":"+31 318 548 380",
    "sg:postcode":"3903 XS",
    "sg:province":"Utrecht",
    "src:geom":"simplegeo",
    "wof:belongsto":[
        85797563,
        85633337,
        85687039
    ],
    "wof:breaches":[],
    "wof:concordances":{
        "sg:id":"SG_2HjEcsKBINASgAArpRxCLE_52.018120_5.549939@1306269944"
    },
    "wof:country":"NL",
    "wof:geomhash":"fc85fa90a91dd8e278acd718d3f55c33",
    "wof:hierarchy":[
        {
            "continent_id":-1,
            "country_id":85633337,
            "locality_id":-1,
            "neighbourhood_id":85797563,
            "region_id":85687039,
            "venue_id":252851079
        }
    ],
    "wof:id":252851079,
    "wof:lastmodified":1449006117,
    "wof:name":"Horen Veenendaal Hoortoestelspeciaalzaak",
    "wof:parent_id":85797563,
    "wof:placetype":"venue",
    "wof:superseded_by":[],
    "wof:supersedes":[],
    "wof:tags":[]
},
  "bbox": [5.549939,52.01812,5.549939,52.01812],
  "geometry": {"coordinates":[5.549939,52.01812],"type":"Point"}
}