{
  "id": 202483249,
  "type": "Feature",
  "properties": {
    "edtf:cessation":"u",
    "edtf:inception":"u",
    "geom:area":0.0,
    "geom:bbox":"4.274407,52.073261,4.274407,52.073261",
    "geom:latitude":52.073261,
    "geom:longitude":4.274407,
    "iso:country":"NL",
    "sg:address":"Fahrenheitstraat 226",
    "sg:city":"Den Haag",
    "sg:classifiers":[],
    "sg:orig_category":"Verhuur Catering-, Feest- En Evenementbenodigdheden",
    "sg:owner":"simplegeo",
    "sg:phone":"+31 70 335 2690",
    "sg:postcode":"2561 EH",
    "sg:province":"Zuid-Holland",
    "src:geom":"simplegeo",
    "wof:belongsto":[
        85859605,
        85633337,
        101752763,
        85687041
    ],
    "wof:breaches":[],
    "wof:concordances":{
        "sg:id":"SG_5bRadV2ZXRGyq4if9PNPqc_52.073261_4.274407@1306269915"
    },
    "wof:country":"NL",
    "wof:geomhash":"55f285dd546b691149ec36b589d663b5",
    "wof:hierarchy":[
        {
            "continent_id":-1,
            "country_id":85633337,
            "locality_id":101752763,
            "neighbourhood_id":85859605,
            "region_id":85687041,
            "venue_id":202483249
        }
    ],
    "wof:id":202483249,
    "wof:lastmodified":1449062119,
    "wof:name":"Speelautomaten Multi Game",
    "wof:parent_id":85859605,
    "wof:placetype":"venue",
    "wof:superseded_by":[],
    "wof:supersedes":[],
    "wof:tags":[]
},
  "bbox": [4.274407,52.073261,4.274407,52.073261],
  "geometry": {"coordinates":[4.274407,52.073261],"type":"Point"}
}