{
  "id": 236221177,
  "type": "Feature",
  "properties": {
    "edtf:cessation":"u",
    "edtf:inception":"u",
    "geom:area":0.0,
    "geom:bbox":"4.666689,51.817028,4.666689,51.817028",
    "geom:latitude":51.817028,
    "geom:longitude":4.666689,
    "iso:country":"NL",
    "sg:address":"Gravenstr 9",
    "sg:city":"Dordrecht",
    "sg:classifiers":[],
    "sg:orig_category":"Etalageverzorging",
    "sg:owner":"simplegeo",
    "sg:phone":"+31 78 631 6744",
    "sg:postcode":"3311 BC",
    "sg:province":"South Holland",
    "src:geom":"simplegeo",
    "wof:belongsto":[
        85797875,
        85633337,
        101751841,
        85687041
    ],
    "wof:breaches":[],
    "wof:concordances":{
        "sg:id":"SG_1Sl1zFa7jezk4PbH6tRHHC_51.817028_4.666689@1306269935"
    },
    "wof:country":"NL",
    "wof:geomhash":"6835b2dc682f84eee7619611df2339ca",
    "wof:hierarchy":[
        {
            "continent_id":-1,
            "country_id":85633337,
            "locality_id":101751841,
            "neighbourhood_id":85797875,
            "region_id":85687041,
            "venue_id":236221177
        }
    ],
    "wof:id":236221177,
    "wof:lastmodified":1449003043,
    "wof:name":"Giessen, Jeroen Van Der",
    "wof:parent_id":85797875,
    "wof:placetype":"venue",
    "wof:superseded_by":[],
    "wof:supersedes":[],
    "wof:tags":[]
},
  "bbox": [4.666689,51.817028,4.666689,51.817028],
  "geometry": {"coordinates":[4.666689,51.817028],"type":"Point"}
}