{
  "id": 320223523,
  "type": "Feature",
  "properties": {
    "edtf:cessation":"u",
    "edtf:inception":"u",
    "geom:area":0.0,
    "geom:bbox":"6.378319,51.871307,6.378319,51.871307",
    "geom:latitude":51.871307,
    "geom:longitude":6.378319,
    "iso:country":"NL",
    "sg:address":"Grotestraat 19",
    "sg:city":"Gendringen",
    "sg:classifiers":[
        {
            "category":"Shopping",
            "subcategory":"Gifts & Souvenirs",
            "type":"Retail Goods"
        }
    ],
    "sg:owner":"simplegeo",
    "sg:phone":"+31 315 681 327",
    "sg:postcode":"7081 CA",
    "sg:province":"Gelderland",
    "sg:tags":[
        "geschenken"
    ],
    "src:geom":"simplegeo",
    "wof:belongsto":[
        85633337,
        101837795,
        85687043
    ],
    "wof:breaches":[],
    "wof:concordances":{
        "sg:id":"SG_1XEbPJzMpjiWbELwIVkbFg_51.871307_6.378319@1306269996"
    },
    "wof:country":"NL",
    "wof:geomhash":"eed7b8632adda1d604b35191f119a89e",
    "wof:hierarchy":[
        {
            "continent_id":-1,
            "country_id":85633337,
            "locality_id":101837795,
            "neighbourhood_id":-1,
            "region_id":85687043,
            "venue_id":320223523
        }
    ],
    "wof:id":320223523,
    "wof:lastmodified":1449011502,
    "wof:name":"Vof Geschenkenhuis Lukassen - Tangelder",
    "wof:parent_id":-1,
    "wof:placetype":"venue",
    "wof:superseded_by":[],
    "wof:supersedes":[],
    "wof:tags":[
        "geschenken"
    ]
},
  "bbox": [6.378319,51.871307,6.378319,51.871307],
  "geometry": {"coordinates":[6.378319,51.871307],"type":"Point"}
}