{
  "id": 320432721,
  "type": "Feature",
  "properties": {
    "edtf:cessation":"u",
    "edtf:inception":"u",
    "geom:area":0.0,
    "geom:bbox":"5.995591,51.662468,5.995591,51.662468",
    "geom:latitude":51.662468,
    "geom:longitude":5.995591,
    "iso:country":"NL",
    "sg:address":"De Grens 21",
    "sg:city":"Heijen",
    "sg:classifiers":[],
    "sg:orig_category":"Goederenvervoer Over De Weg",
    "sg:owner":"simplegeo",
    "sg:phone":"+31 485 490 200",
    "sg:postcode":"6598 DK",
    "sg:province":"Limburg",
    "src:geom":"simplegeo",
    "wof:belongsto":[
        85633337,
        85687033
    ],
    "wof:breaches":[],
    "wof:concordances":{
        "sg:id":"SG_2mwBaU4TPBoh3EEiJZome6_51.662468_5.995591@1306269998"
    },
    "wof:country":"NL",
    "wof:geomhash":"2dd957273f68c92de91de46d1d2360cb",
    "wof:hierarchy":[
        {
            "continent_id":-1,
            "country_id":85633337,
            "locality_id":-1,
            "neighbourhood_id":-1,
            "region_id":85687033,
            "venue_id":320432721
        }
    ],
    "wof:id":320432721,
    "wof:lastmodified":1449011194,
    "wof:name":"Noy Logistics Bv",
    "wof:parent_id":-1,
    "wof:placetype":"venue",
    "wof:superseded_by":[],
    "wof:supersedes":[],
    "wof:tags":[]
},
  "bbox": [5.995591,51.662468,5.995591,51.662468],
  "geometry": {"coordinates":[5.995591,51.662468],"type":"Point"}
}