{
  "id": 303530117,
  "type": "Feature",
  "properties": {
    "edtf:cessation":"u",
    "edtf:inception":"u",
    "geom:area":0.0,
    "geom:bbox":"4.463273,51.931549,4.463273,51.931549",
    "geom:latitude":51.931549,
    "geom:longitude":4.463273,
    "iso:country":"NL",
    "sg:address":"Stadhoudersplein 135",
    "sg:city":"Rotterdam",
    "sg:classifiers":[],
    "sg:orig_category":"Supermarkten",
    "sg:owner":"simplegeo",
    "sg:phone":"+31 10 466 4662",
    "sg:postcode":"3038 EA",
    "sg:province":"Zuid-Holland",
    "src:geom":"simplegeo",
    "wof:belongsto":[
        85859789,
        85633337,
        101751843,
        85687041
    ],
    "wof:breaches":[],
    "wof:concordances":{
        "sg:id":"SG_61nIprC6i3yYWzbtHOWczK_51.931549_4.463273@1306269984"
    },
    "wof:country":"NL",
    "wof:geomhash":"d051b7193767afec615e2488780e28d2",
    "wof:hierarchy":[
        {
            "continent_id":-1,
            "country_id":85633337,
            "locality_id":101751843,
            "neighbourhood_id":85859789,
            "region_id":85687041,
            "venue_id":303530117
        }
    ],
    "wof:id":303530117,
    "wof:lastmodified":1448999424,
    "wof:name":"Edah",
    "wof:parent_id":85859789,
    "wof:placetype":"venue",
    "wof:superseded_by":[],
    "wof:supersedes":[],
    "wof:tags":[]
},
  "bbox": [4.463273,51.931549,4.463273,51.931549],
  "geometry": {"coordinates":[4.463273,51.931549],"type":"Point"}
}