{
  "id": 253532609,
  "type": "Feature",
  "properties": {
    "edtf:cessation":"u",
    "edtf:inception":"u",
    "geom:area":0.0,
    "geom:bbox":"4.829695,51.565334,4.829695,51.565334",
    "geom:latitude":51.565334,
    "geom:longitude":4.829695,
    "iso:country":"NL",
    "sg:address":"Brigidastraat 4",
    "sg:city":"Bavel",
    "sg:classifiers":[],
    "sg:orig_category":"Partycatering And -Organisatie",
    "sg:owner":"simplegeo",
    "sg:phone":"+31 161 433 358",
    "sg:postcode":"4854 CT",
    "sg:province":"North Brabant",
    "src:geom":"simplegeo",
    "wof:belongsto":[
        85797701,
        85633337,
        101751811,
        85687035
    ],
    "wof:breaches":[],
    "wof:concordances":{
        "sg:id":"SG_2wbuksdAJTS7dW7WYS0O4z_51.565334_4.829695@1306269950"
    },
    "wof:country":"NL",
    "wof:geomhash":"70eaa24edc037b05ee3d22321a36e40d",
    "wof:hierarchy":[
        {
            "continent_id":-1,
            "country_id":85633337,
            "locality_id":101751811,
            "neighbourhood_id":85797701,
            "region_id":85687035,
            "venue_id":253532609
        }
    ],
    "wof:id":253532609,
    "wof:lastmodified":1449063813,
    "wof:name":"In De Groentetuin",
    "wof:parent_id":85797701,
    "wof:placetype":"venue",
    "wof:superseded_by":[],
    "wof:supersedes":[],
    "wof:tags":[]
},
  "bbox": [4.829695,51.565334,4.829695,51.565334],
  "geometry": {"coordinates":[4.829695,51.565334],"type":"Point"}
}