{
  "id": 253666427,
  "type": "Feature",
  "properties": {
    "edtf:cessation":"u",
    "edtf:inception":"u",
    "geom:area":0.0,
    "geom:bbox":"6.889431,52.751118,6.889431,52.751118",
    "geom:latitude":52.751118,
    "geom:longitude":6.889431,
    "iso:country":"NL",
    "sg:address":"Valkenveld 59",
    "sg:city":"Emmen",
    "sg:classifiers":[
        {
            "category":"Food & Beverages",
            "subcategory":"Bakery",
            "type":"Retail Goods"
        }
    ],
    "sg:owner":"simplegeo",
    "sg:phone":"+31 591 694 342",
    "sg:postcode":"7827 HC",
    "sg:province":"Drenthe",
    "sg:tags":[
        "pizza"
    ],
    "src:geom":"simplegeo",
    "wof:belongsto":[
        85798097,
        85633337,
        101751881,
        85687051
    ],
    "wof:breaches":[],
    "wof:concordances":{
        "sg:id":"SG_3TAOAJCJgiQBPgBJs1gFPW_52.751118_6.889431@1306269952"
    },
    "wof:country":"NL",
    "wof:geomhash":"a9b4f018c55f7194765b2a48efea8902",
    "wof:hierarchy":[
        {
            "continent_id":-1,
            "country_id":85633337,
            "locality_id":101751881,
            "neighbourhood_id":85798097,
            "region_id":85687051,
            "venue_id":253666427
        }
    ],
    "wof:id":253666427,
    "wof:lastmodified":1449063909,
    "wof:name":"La Luna",
    "wof:parent_id":85798097,
    "wof:placetype":"venue",
    "wof:superseded_by":[],
    "wof:supersedes":[],
    "wof:tags":[
        "pizza"
    ]
},
  "bbox": [6.889431,52.751118,6.889431,52.751118],
  "geometry": {"coordinates":[6.889431,52.751118],"type":"Point"}
}