{
  "id": 236302853,
  "type": "Feature",
  "properties": {
    "edtf:cessation":"u",
    "edtf:inception":"u",
    "geom:area":0.0,
    "geom:bbox":"6.538472,52.706352,6.538472,52.706352",
    "geom:latitude":52.706352,
    "geom:longitude":6.538472,
    "iso:country":"NL",
    "sg:address":"Het Hoekje 43",
    "sg:city":"Hollandscheveld",
    "sg:classifiers":[],
    "sg:orig_category":"Apothekers",
    "sg:owner":"simplegeo",
    "sg:phone":"+31 528 342 995",
    "sg:postcode":"7913 BB",
    "sg:province":"Drenthe",
    "src:geom":"simplegeo",
    "wof:belongsto":[
        85797859,
        85633337,
        85687051
    ],
    "wof:breaches":[],
    "wof:concordances":{
        "sg:id":"SG_3lDtFMD1hkWhO4Xa6pBx2L_52.706352_6.538472@1306269936"
    },
    "wof:country":"NL",
    "wof:geomhash":"380d5d7de391ec9039a676ccce5a880f",
    "wof:hierarchy":[
        {
            "continent_id":-1,
            "country_id":85633337,
            "locality_id":-1,
            "neighbourhood_id":85797859,
            "region_id":85687051,
            "venue_id":236302853
        }
    ],
    "wof:id":236302853,
    "wof:lastmodified":1449002622,
    "wof:name":"Apotheek Tjan",
    "wof:parent_id":85797859,
    "wof:placetype":"venue",
    "wof:superseded_by":[],
    "wof:supersedes":[],
    "wof:tags":[]
},
  "bbox": [6.538472,52.706352,6.538472,52.706352],
  "geometry": {"coordinates":[6.538472,52.706352],"type":"Point"}
}