{
  "id": 169786357,
  "type": "Feature",
  "properties": {
    "edtf:cessation":"u",
    "edtf:inception":"u",
    "geom:area":0.0,
    "geom:bbox":"4.851607,52.363026,4.851607,52.363026",
    "geom:latitude":52.363026,
    "geom:longitude":4.851607,
    "iso:country":"NL",
    "sg:address":"Curacaostr 135",
    "sg:city":"Amsterdam",
    "sg:classifiers":[],
    "sg:orig_category":"Kappers",
    "sg:owner":"simplegeo",
    "sg:phone":"+31 20 618 4784",
    "sg:postcode":"1058 BV",
    "sg:province":"Noord-Holland",
    "src:geom":"simplegeo",
    "wof:belongsto":[
        85798223,
        85633337,
        101751893,
        85687053
    ],
    "wof:breaches":[],
    "wof:concordances":{
        "sg:id":"SG_1jGcqRXO2yZqVTpRCmP4pM_52.363026_4.851607@1306269905"
    },
    "wof:country":"NL",
    "wof:geomhash":"d23395a6b207a08207f8bc1f9b485777",
    "wof:hierarchy":[
        {
            "continent_id":-1,
            "country_id":85633337,
            "locality_id":101751893,
            "neighbourhood_id":85798223,
            "region_id":85687053,
            "venue_id":169786357
        }
    ],
    "wof:id":169786357,
    "wof:lastmodified":1449033117,
    "wof:name":"Morves",
    "wof:parent_id":85798223,
    "wof:placetype":"venue",
    "wof:superseded_by":[],
    "wof:supersedes":[],
    "wof:tags":[]
},
  "bbox": [4.851607,52.363026,4.851607,52.363026],
  "geometry": {"coordinates":[4.851607,52.363026],"type":"Point"}
}