{
  "id": 303414737,
  "type": "Feature",
  "properties": {
    "edtf:cessation":"u",
    "edtf:inception":"u",
    "geom:area":0.0,
    "geom:bbox":"5.13438,51.750591,5.13438,51.750591",
    "geom:latitude":51.750591,
    "geom:longitude":5.13438,
    "iso:country":"NL",
    "sg:address":"Postbus 13",
    "sg:city":"Wijk En Aalburg",
    "sg:classifiers":[],
    "sg:orig_category":"Scholen Voor Basisonderwijs",
    "sg:owner":"simplegeo",
    "sg:phone":"+31 416 692 101",
    "sg:postcode":"4260 AA",
    "sg:province":"Gelderland",
    "src:geom":"simplegeo",
    "wof:belongsto":[
        85633337,
        101837643,
        85687035
    ],
    "wof:breaches":[],
    "wof:concordances":{
        "sg:id":"SG_1QBm0hPpcboplrbDDl57dZ_51.750591_5.134380@1306269983"
    },
    "wof:country":"NL",
    "wof:geomhash":"cb275c0ccefb01a0be94e403b405b48d",
    "wof:hierarchy":[
        {
            "continent_id":-1,
            "country_id":85633337,
            "locality_id":101837643,
            "neighbourhood_id":-1,
            "region_id":85687035,
            "venue_id":303414737
        }
    ],
    "wof:id":303414737,
    "wof:lastmodified":1448999260,
    "wof:name":"Hoeksteen Chr, De",
    "wof:parent_id":-1,
    "wof:placetype":"venue",
    "wof:superseded_by":[],
    "wof:supersedes":[],
    "wof:tags":[]
},
  "bbox": [5.13438,51.750591,5.13438,51.750591],
  "geometry": {"coordinates":[5.13438,51.750591],"type":"Point"}
}