{
  "id": 287308065,
  "type": "Feature",
  "properties": {
    "edtf:cessation":"u",
    "edtf:inception":"u",
    "geom:area":0.0,
    "geom:bbox":"4.652287,52.501514,4.652287,52.501514",
    "geom:latitude":52.501514,
    "geom:longitude":4.652287,
    "iso:country":"NL",
    "sg:address":"Ambachtsring 14",
    "sg:city":"Heemskerk",
    "sg:classifiers":[],
    "sg:orig_category":"Boekhouders",
    "sg:owner":"simplegeo",
    "sg:phone":"+31 251 240 522",
    "sg:postcode":"1969 NH",
    "sg:province":"Noord-Holland",
    "src:geom":"simplegeo",
    "wof:belongsto":[
        85797997,
        85633337,
        101754793,
        85687053
    ],
    "wof:breaches":[],
    "wof:concordances":{
        "sg:id":"SG_63sF9THpXfzm6RHRT5KmCg_52.501514_4.652287@1306269979"
    },
    "wof:country":"NL",
    "wof:geomhash":"6626854757d5703c7400a3a2ca54937a",
    "wof:hierarchy":[
        {
            "continent_id":-1,
            "country_id":85633337,
            "locality_id":101754793,
            "neighbourhood_id":85797997,
            "region_id":85687053,
            "venue_id":287308065
        }
    ],
    "wof:id":287308065,
    "wof:lastmodified":1449001612,
    "wof:name":"Flexicompt Bv",
    "wof:parent_id":85797997,
    "wof:placetype":"venue",
    "wof:superseded_by":[],
    "wof:supersedes":[],
    "wof:tags":[]
},
  "bbox": [4.652287,52.501514,4.652287,52.501514],
  "geometry": {"coordinates":[4.652287,52.501514],"type":"Point"}
}