{
  "id": 203104535,
  "type": "Feature",
  "properties": {
    "edtf:cessation":"u",
    "edtf:inception":"u",
    "geom:area":0.0,
    "geom:bbox":"6.376099,51.871979,6.376099,51.871979",
    "geom:latitude":51.871979,
    "geom:longitude":6.376099,
    "iso:country":"NL",
    "sg:address":"Grotestraat 53",
    "sg:city":"Gendringen",
    "sg:classifiers":[],
    "sg:orig_category":"Verzekeringen",
    "sg:owner":"simplegeo",
    "sg:phone":"+31 315 683 578",
    "sg:postcode":"7081 CB",
    "sg:province":"Gelderland",
    "src:geom":"simplegeo",
    "wof:belongsto":[
        85633337,
        101837795,
        85687043
    ],
    "wof:breaches":[],
    "wof:concordances":{
        "sg:id":"SG_0SjQvGOe9M75cAAZ99pxkT_51.871979_6.376099@1306269921"
    },
    "wof:country":"NL",
    "wof:geomhash":"886621038463b0e4117b4b0b805eba51",
    "wof:hierarchy":[
        {
            "continent_id":-1,
            "country_id":85633337,
            "locality_id":101837795,
            "neighbourhood_id":-1,
            "region_id":85687043,
            "venue_id":203104535
        }
    ],
    "wof:id":203104535,
    "wof:lastmodified":1449025705,
    "wof:name":"Assurantiekantoor Sloetjes",
    "wof:parent_id":-1,
    "wof:placetype":"venue",
    "wof:superseded_by":[],
    "wof:supersedes":[],
    "wof:tags":[]
},
  "bbox": [6.376099,51.871979,6.376099,51.871979],
  "geometry": {"coordinates":[6.376099,51.871979],"type":"Point"}
}