{
  "id": 270483431,
  "type": "Feature",
  "properties": {
    "edtf:cessation":"u",
    "edtf:inception":"u",
    "geom:area":0.0,
    "geom:bbox":"5.089771,51.692078,5.089771,51.692078",
    "geom:latitude":51.692078,
    "geom:longitude":5.089771,
    "iso:country":"NL",
    "sg:address":"Baardwijksestraat 44",
    "sg:city":"Waalwijk",
    "sg:classifiers":[
        {
            "category":"Education",
            "subcategory":"Preschool",
            "type":"Public Place"
        }
    ],
    "sg:owner":"simplegeo",
    "sg:phone":"+31 416 561 166",
    "sg:postcode":"5142 WG",
    "sg:province":"Noord-Brabant",
    "sg:tags":[
        "kleuteronderwijs",
        "basis-"
    ],
    "src:geom":"simplegeo",
    "wof:belongsto":[
        85633337,
        101839403,
        85687035
    ],
    "wof:breaches":[],
    "wof:concordances":{
        "sg:id":"SG_0vEjmkr3DcrbA77I5X8vgW_51.692078_5.089771@1306269966"
    },
    "wof:country":"NL",
    "wof:geomhash":"45da83aadc88380299c02a90c728ba6f",
    "wof:hierarchy":[
        {
            "continent_id":-1,
            "country_id":85633337,
            "locality_id":101839403,
            "neighbourhood_id":-1,
            "region_id":85687035,
            "venue_id":270483431
        }
    ],
    "wof:id":270483431,
    "wof:lastmodified":1449010542,
    "wof:name":"Basisschool St. Clemens",
    "wof:parent_id":-1,
    "wof:placetype":"venue",
    "wof:superseded_by":[],
    "wof:supersedes":[],
    "wof:tags":[
        "kleuteronderwijs",
        "basis-"
    ]
},
  "bbox": [5.089771,51.692078,5.089771,51.692078],
  "geometry": {"coordinates":[5.089771,51.692078],"type":"Point"}
}