{
  "id": 286296321,
  "type": "Feature",
  "properties": {
    "edtf:cessation":"u",
    "edtf:inception":"u",
    "geom:area":0.0,
    "geom:bbox":"6.493295,53.302578,6.493295,53.302578",
    "geom:latitude":53.302578,
    "geom:longitude":6.493295,
    "iso:country":"NL",
    "sg:address":"Hunzeweg 68",
    "sg:city":"Garnwerd",
    "sg:classifiers":[
        {
            "category":"Education",
            "subcategory":"Preschool",
            "type":"Public Place"
        }
    ],
    "sg:owner":"simplegeo",
    "sg:phone":"+31 594 628 000",
    "sg:postcode":"9893 PD",
    "sg:province":"Groningen",
    "sg:tags":[
        "kleuteronderwijs",
        "basis-"
    ],
    "src:geom":"simplegeo",
    "wof:belongsto":[
        85633337,
        85687059
    ],
    "wof:breaches":[],
    "wof:concordances":{
        "sg:id":"SG_69Sz77HGZjEeP0rIlchDvO_53.302578_6.493295@1306269967"
    },
    "wof:country":"NL",
    "wof:geomhash":"f1b27b8dce0327b7bc6c00e76f6bb8d8",
    "wof:hierarchy":[
        {
            "continent_id":-1,
            "country_id":85633337,
            "locality_id":-1,
            "neighbourhood_id":-1,
            "region_id":85687059,
            "venue_id":286296321
        }
    ],
    "wof:id":286296321,
    "wof:lastmodified":1449017572,
    "wof:name":"Openbare Basisschool Kromme Akkers",
    "wof:parent_id":-1,
    "wof:placetype":"venue",
    "wof:superseded_by":[],
    "wof:supersedes":[],
    "wof:tags":[
        "kleuteronderwijs",
        "basis-"
    ]
},
  "bbox": [6.493295,53.302578,6.493295,53.302578],
  "geometry": {"coordinates":[6.493295,53.302578],"type":"Point"}
}