{
  "id": 219877161,
  "type": "Feature",
  "properties": {
    "edtf:cessation":"u",
    "edtf:inception":"u",
    "geom:area":0.0,
    "geom:bbox":"6.094398,53.379025,6.094398,53.379025",
    "geom:latitude":53.379025,
    "geom:longitude":6.094398,
    "iso:country":"NL",
    "sg:address":"Garewei 2",
    "sg:city":"Lioessens",
    "sg:classifiers":[],
    "sg:orig_category":"Adviesbureaus Bedrijfsorganisatie",
    "sg:owner":"simplegeo",
    "sg:phone":"+31 519 321 499",
    "sg:postcode":"9134 NR",
    "sg:province":"Friesland",
    "src:geom":"simplegeo",
    "wof:belongsto":[
        85633337,
        85687055
    ],
    "wof:breaches":[],
    "wof:concordances":{
        "sg:id":"SG_5GDQxExaRU0bZRWpHLEMVt_53.379025_6.094398@1306269930"
    },
    "wof:country":"NL",
    "wof:geomhash":"1874d284ea71cf4406295598c5b302b7",
    "wof:hierarchy":[
        {
            "continent_id":-1,
            "country_id":85633337,
            "locality_id":-1,
            "neighbourhood_id":-1,
            "region_id":85687055,
            "venue_id":219877161
        }
    ],
    "wof:id":219877161,
    "wof:lastmodified":1449072874,
    "wof:name":"Meurs, Drs R H Van",
    "wof:parent_id":-1,
    "wof:placetype":"venue",
    "wof:superseded_by":[],
    "wof:supersedes":[],
    "wof:tags":[]
},
  "bbox": [6.094398,53.379025,6.094398,53.379025],
  "geometry": {"coordinates":[6.094398,53.379025],"type":"Point"}
}