{
  "id": 303278605,
  "type": "Feature",
  "properties": {
    "edtf:cessation":"u",
    "edtf:inception":"u",
    "geom:area":0.0,
    "geom:bbox":"4.6395,52.269501,4.6395,52.269501",
    "geom:latitude":52.269501,
    "geom:longitude":4.6395,
    "iso:country":"NL",
    "sg:address":"Zadelmaker 111",
    "sg:city":"Nieuw Vennep",
    "sg:classifiers":[],
    "sg:orig_category":"Schilderwerk",
    "sg:owner":"simplegeo",
    "sg:phone":"+31 252 686 117",
    "sg:postcode":"2152 LP",
    "sg:province":"Noord-Holland",
    "src:geom":"simplegeo",
    "wof:belongsto":[
        85797085,
        85633337,
        85687053
    ],
    "wof:breaches":[],
    "wof:concordances":{
        "sg:id":"SG_4mhWtQd1yQJO6nuX7HdOYP_52.269501_4.639500@1306269982"
    },
    "wof:country":"NL",
    "wof:geomhash":"92ec7e2968c791e892994560d559085f",
    "wof:hierarchy":[
        {
            "continent_id":-1,
            "country_id":85633337,
            "locality_id":-1,
            "neighbourhood_id":85797085,
            "region_id":85687053,
            "venue_id":303278605
        }
    ],
    "wof:id":303278605,
    "wof:lastmodified":1448999471,
    "wof:name":"Reekers Schildersbedrijf",
    "wof:parent_id":85797085,
    "wof:placetype":"venue",
    "wof:superseded_by":[],
    "wof:supersedes":[],
    "wof:tags":[]
},
  "bbox": [4.6395,52.269501,4.6395,52.269501],
  "geometry": {"coordinates":[4.6395,52.269501],"type":"Point"}
}