{
  "id": 320670005,
  "type": "Feature",
  "properties": {
    "edtf:cessation":"u",
    "edtf:inception":"u",
    "geom:area":0.0,
    "geom:bbox":"4.667218,52.120049,4.667218,52.120049",
    "geom:latitude":52.120049,
    "geom:longitude":4.667218,
    "iso:country":"NL",
    "sg:address":"Pr Hendrikstr 35B",
    "sg:city":"Alphen Aan Den Ryn",
    "sg:classifiers":[],
    "sg:orig_category":"Zeefdrukkerijen",
    "sg:owner":"simplegeo",
    "sg:phone":"+31 172 473 916",
    "sg:postcode":"2405 AG",
    "sg:province":"Zuid-Holland",
    "src:geom":"simplegeo",
    "wof:belongsto":[
        85633337,
        101751837,
        85687041
    ],
    "wof:breaches":[],
    "wof:concordances":{
        "sg:id":"SG_4P0BhnEddI22MBeK9bx4rq_52.120049_4.667218@1306270001"
    },
    "wof:country":"NL",
    "wof:geomhash":"33d46888f6c484b7af921d27610bd6ba",
    "wof:hierarchy":[
        {
            "continent_id":-1,
            "country_id":85633337,
            "locality_id":101751837,
            "neighbourhood_id":-1,
            "region_id":85687041,
            "venue_id":320670005
        }
    ],
    "wof:id":320670005,
    "wof:lastmodified":1449011818,
    "wof:name":"Kameleon",
    "wof:parent_id":-1,
    "wof:placetype":"venue",
    "wof:superseded_by":[],
    "wof:supersedes":[],
    "wof:tags":[]
},
  "bbox": [4.667218,52.120049,4.667218,52.120049],
  "geometry": {"coordinates":[4.667218,52.120049],"type":"Point"}
}