{
  "id": 320365777,
  "type": "Feature",
  "properties": {
    "edtf:cessation":"u",
    "edtf:inception":"u",
    "geom:area":0.0,
    "geom:bbox":"5.331621,52.255482,5.331621,52.255482",
    "geom:latitude":52.255482,
    "geom:longitude":5.331621,
    "iso:country":"NL",
    "sg:address":"Kerkepad 10",
    "sg:city":"Eemdijk",
    "sg:classifiers":[],
    "sg:orig_category":"Goederenvervoer Over De Weg",
    "sg:owner":"simplegeo",
    "sg:phone":"+31 33 298 3361",
    "sg:postcode":"3754 NR",
    "sg:province":"Utrecht",
    "src:geom":"simplegeo",
    "wof:belongsto":[
        85633337,
        85687039
    ],
    "wof:breaches":[],
    "wof:concordances":{
        "sg:id":"SG_4oMvetmuJba2zIi2d9KwXj_52.255482_5.331621@1306269997"
    },
    "wof:country":"NL",
    "wof:geomhash":"0233e805bd77d526ca9ccdd3de9ee1e6",
    "wof:hierarchy":[
        {
            "continent_id":-1,
            "country_id":85633337,
            "locality_id":-1,
            "neighbourhood_id":-1,
            "region_id":85687039,
            "venue_id":320365777
        }
    ],
    "wof:id":320365777,
    "wof:lastmodified":1449011857,
    "wof:name":"M Hoolwerf",
    "wof:parent_id":-1,
    "wof:placetype":"venue",
    "wof:superseded_by":[],
    "wof:supersedes":[],
    "wof:tags":[]
},
  "bbox": [5.331621,52.255482,5.331621,52.255482],
  "geometry": {"coordinates":[5.331621,52.255482],"type":"Point"}
}