{
  "id": 203003423,
  "type": "Feature",
  "properties": {
    "edtf:cessation":"u",
    "edtf:inception":"u",
    "geom:area":0.0,
    "geom:bbox":"6.590784,52.356815,6.590784,52.356815",
    "geom:latitude":52.356815,
    "geom:longitude":6.590784,
    "iso:country":"NL",
    "sg:address":"Burg Vd Bergpln 9",
    "sg:city":"Wierden",
    "sg:classifiers":[],
    "sg:orig_category":"Verzekeringen - Verzekeringskantoren",
    "sg:owner":"simplegeo",
    "sg:phone":"+31 546 571 233",
    "sg:postcode":"7642 GR",
    "sg:province":"Overijssel",
    "sg:website":"http://www.plaggemars.com",
    "src:geom":"simplegeo",
    "wof:belongsto":[
        85633337,
        101754779,
        85687045
    ],
    "wof:breaches":[],
    "wof:concordances":{
        "sg:id":"SG_60l0ORWniTLTVHosADe6bF_52.356815_6.590784@1306269920"
    },
    "wof:country":"NL",
    "wof:geomhash":"e3f262711b21758b765c8d066d712f3d",
    "wof:hierarchy":[
        {
            "continent_id":-1,
            "country_id":85633337,
            "locality_id":101754779,
            "neighbourhood_id":-1,
            "region_id":85687045,
            "venue_id":203003423
        }
    ],
    "wof:id":203003423,
    "wof:lastmodified":1449026721,
    "wof:name":"Plaggemars",
    "wof:parent_id":-1,
    "wof:placetype":"venue",
    "wof:superseded_by":[],
    "wof:supersedes":[],
    "wof:tags":[]
},
  "bbox": [6.590784,52.356815,6.590784,52.356815],
  "geometry": {"coordinates":[6.590784,52.356815],"type":"Point"}
}