{
  "id": 320208551,
  "type": "Feature",
  "properties": {
    "edtf:cessation":"u",
    "edtf:inception":"u",
    "geom:area":0.0,
    "geom:bbox":"5.931523,52.575275,5.931523,52.575275",
    "geom:latitude":52.575275,
    "geom:longitude":5.931523,
    "iso:country":"NL",
    "sg:address":"Bergweg 20",
    "sg:city":"Ijsselmuiden",
    "sg:classifiers":[
        {
            "category":"Shopping",
            "subcategory":"Gifts & Souvenirs",
            "type":"Retail Goods"
        }
    ],
    "sg:owner":"simplegeo",
    "sg:phone":"+31 38 332 1533",
    "sg:postcode":"8271 CD",
    "sg:province":"Overijssel",
    "sg:tags":[
        "geschenken"
    ],
    "src:geom":"simplegeo",
    "wof:belongsto":[
        85797211,
        85633337,
        101837847,
        85687045
    ],
    "wof:breaches":[],
    "wof:concordances":{
        "sg:id":"SG_7F24tflfL3PDcEEk2Bo5wp_52.575275_5.931523@1306269996"
    },
    "wof:country":"NL",
    "wof:geomhash":"f089f21fe3e985da3a8ad9a23883fb56",
    "wof:hierarchy":[
        {
            "continent_id":-1,
            "country_id":85633337,
            "locality_id":101837847,
            "neighbourhood_id":85797211,
            "region_id":85687045,
            "venue_id":320208551
        }
    ],
    "wof:id":320208551,
    "wof:lastmodified":1449011680,
    "wof:name":"Ini-Mini",
    "wof:parent_id":85797211,
    "wof:placetype":"venue",
    "wof:superseded_by":[],
    "wof:supersedes":[],
    "wof:tags":[
        "geschenken"
    ]
},
  "bbox": [5.931523,52.575275,5.931523,52.575275],
  "geometry": {"coordinates":[5.931523,52.575275],"type":"Point"}
}