{
  "id": 270224089,
  "type": "Feature",
  "properties": {
    "edtf:cessation":"u",
    "edtf:inception":"u",
    "geom:area":0.0,
    "geom:bbox":"4.845043,52.285378,4.845043,52.285378",
    "geom:latitude":52.285378,
    "geom:longitude":4.845043,
    "iso:country":"NL",
    "sg:address":"Bouwmeester 34",
    "sg:city":"Amstelveen",
    "sg:classifiers":[],
    "sg:orig_category":"Fotostudio'S And Fotografen",
    "sg:owner":"simplegeo",
    "sg:phone":"+31 20 643 4110",
    "sg:postcode":"1188 DT",
    "sg:province":"North Holland",
    "src:geom":"simplegeo",
    "wof:belongsto":[
        85797169,
        85633337,
        85687053
    ],
    "wof:breaches":[],
    "wof:concordances":{
        "sg:id":"SG_5FQwAOcE8AhQ9d5td2Gqm2_52.285378_4.845043@1306269963"
    },
    "wof:country":"NL",
    "wof:geomhash":"137edf185dee7085ce12cabc6783608e",
    "wof:hierarchy":[
        {
            "continent_id":-1,
            "country_id":85633337,
            "locality_id":-1,
            "neighbourhood_id":85797169,
            "region_id":85687053,
            "venue_id":270224089
        }
    ],
    "wof:id":270224089,
    "wof:lastmodified":1449010447,
    "wof:name":"Fotoburo/Fotostudio Dick Vader",
    "wof:parent_id":85797169,
    "wof:placetype":"venue",
    "wof:superseded_by":[],
    "wof:supersedes":[],
    "wof:tags":[]
},
  "bbox": [4.845043,52.285378,4.845043,52.285378],
  "geometry": {"coordinates":[4.845043,52.285378],"type":"Point"}
}