{
  "id": 186126141,
  "type": "Feature",
  "properties": {
    "edtf:cessation":"u",
    "edtf:inception":"u",
    "geom:area":0.0,
    "geom:bbox":"5.788799,53.205044,5.788799,53.205044",
    "geom:latitude":53.205044,
    "geom:longitude":5.788799,
    "iso:country":"NL",
    "sg:address":"Stienserstr 3",
    "sg:city":"Leeuwarden",
    "sg:classifiers":[],
    "sg:orig_category":"Kunstbemiddeling",
    "sg:owner":"simplegeo",
    "sg:phone":"+31 58 215 3412",
    "sg:postcode":"8917 CE",
    "sg:province":"Provincie Friesland",
    "src:geom":"simplegeo",
    "wof:belongsto":[
        85798637,
        85633337,
        85687055
    ],
    "wof:breaches":[],
    "wof:concordances":{
        "sg:id":"SG_408EWQNm3PvyKxbCHeAx8z_53.205044_5.788799@1306269910"
    },
    "wof:country":"NL",
    "wof:geomhash":"1436623bd900126ab784624905717868",
    "wof:hierarchy":[
        {
            "continent_id":-1,
            "country_id":85633337,
            "locality_id":-1,
            "neighbourhood_id":85798637,
            "region_id":85687055,
            "venue_id":186126141
        }
    ],
    "wof:id":186126141,
    "wof:lastmodified":1449051372,
    "wof:name":"Sprezzatura",
    "wof:parent_id":85798637,
    "wof:placetype":"venue",
    "wof:superseded_by":[],
    "wof:supersedes":[],
    "wof:tags":[]
},
  "bbox": [5.788799,53.205044,5.788799,53.205044],
  "geometry": {"coordinates":[5.788799,53.205044],"type":"Point"}
}