{
  "id": 202904781,
  "type": "Feature",
  "properties": {
    "edtf:cessation":"u",
    "edtf:inception":"u",
    "geom:area":0.0,
    "geom:bbox":"5.300158,52.201809,5.300158,52.201809",
    "geom:latitude":52.201809,
    "geom:longitude":5.300158,
    "iso:country":"NL",
    "sg:address":"Dotterbloemln 41",
    "sg:city":"Baarn",
    "sg:classifiers":[],
    "sg:orig_category":"Verzekeringen - Verzekeringskantoren",
    "sg:owner":"simplegeo",
    "sg:phone":"+31 35 541 8118",
    "sg:postcode":"3742 ED",
    "sg:province":"Utrecht",
    "src:geom":"simplegeo",
    "wof:belongsto":[
        85798417,
        85633337,
        101837651,
        85687039
    ],
    "wof:breaches":[],
    "wof:concordances":{
        "sg:id":"SG_569xcoHafY1kau6TExBFPB_52.201809_5.300158@1306269919"
    },
    "wof:country":"NL",
    "wof:geomhash":"4b4cdf7d1aa5cc460e0d25122d2b66b0",
    "wof:hierarchy":[
        {
            "continent_id":-1,
            "country_id":85633337,
            "locality_id":101837651,
            "neighbourhood_id":85798417,
            "region_id":85687039,
            "venue_id":202904781
        }
    ],
    "wof:id":202904781,
    "wof:lastmodified":1449062721,
    "wof:name":"Bakker, P J",
    "wof:parent_id":85798417,
    "wof:placetype":"venue",
    "wof:superseded_by":[],
    "wof:supersedes":[],
    "wof:tags":[]
},
  "bbox": [5.300158,52.201809,5.300158,52.201809],
  "geometry": {"coordinates":[5.300158,52.201809],"type":"Point"}
}