{
  "id": 303941819,
  "type": "Feature",
  "properties": {
    "edtf:cessation":"u",
    "edtf:inception":"u",
    "geom:area":0.0,
    "geom:bbox":"4.690992,52.054813,4.690992,52.054813",
    "geom:latitude":52.054813,
    "geom:longitude":4.690992,
    "iso:country":"NL",
    "sg:address":"Reewal 1B",
    "sg:city":"Reeuwyk",
    "sg:classifiers":[],
    "sg:orig_category":"Hoefsmederijen",
    "sg:owner":"simplegeo",
    "sg:phone":"+31 6 53443683",
    "sg:postcode":"2811 PT",
    "sg:province":"Zuid-Holland",
    "src:geom":"simplegeo",
    "wof:belongsto":[
        85797133,
        85633337,
        85687041
    ],
    "wof:breaches":[],
    "wof:concordances":{
        "sg:id":"SG_0Ov4JeDlMrBgqLdl5txbKZ_52.054813_4.690992@1306269989"
    },
    "wof:country":"NL",
    "wof:geomhash":"0097f21e6d1b2cf69890c1530b225a9d",
    "wof:hierarchy":[
        {
            "continent_id":-1,
            "country_id":85633337,
            "locality_id":-1,
            "neighbourhood_id":85797133,
            "region_id":85687041,
            "venue_id":303941819
        }
    ],
    "wof:id":303941819,
    "wof:lastmodified":1448999580,
    "wof:name":"Both, R",
    "wof:parent_id":85797133,
    "wof:placetype":"venue",
    "wof:superseded_by":[],
    "wof:supersedes":[],
    "wof:tags":[]
},
  "bbox": [4.690992,52.054813,4.690992,52.054813],
  "geometry": {"coordinates":[4.690992,52.054813],"type":"Point"}
}