{
  "id": 303120803,
  "type": "Feature",
  "properties": {
    "edtf:cessation":"u",
    "edtf:inception":"u",
    "geom:area":0.0,
    "geom:bbox":"4.896663,52.20002,4.896663,52.20002",
    "geom:latitude":52.20002,
    "geom:longitude":4.896663,
    "iso:country":"NL",
    "sg:address":"Molmlaan 8",
    "sg:city":"Wilnis",
    "sg:classifiers":[
        {
            "category":"Bakery",
            "subcategory":"",
            "type":"Food & Drink"
        }
    ],
    "sg:owner":"simplegeo",
    "sg:phone":"+31 297 256 750",
    "sg:postcode":"3648 XK",
    "sg:province":"Utrecht",
    "sg:tags":[
        "brood",
        "banket"
    ],
    "src:geom":"simplegeo",
    "wof:belongsto":[
        85633337,
        101837677,
        85687039
    ],
    "wof:breaches":[],
    "wof:concordances":{
        "sg:id":"SG_2LUZZqFgtt5IspsVfUrSHm_52.200020_4.896663@1306269980"
    },
    "wof:country":"NL",
    "wof:geomhash":"df5b5461da7351421acf30d99445a99f",
    "wof:hierarchy":[
        {
            "continent_id":-1,
            "country_id":85633337,
            "locality_id":101837677,
            "neighbourhood_id":-1,
            "region_id":85687039,
            "venue_id":303120803
        }
    ],
    "wof:id":303120803,
    "wof:lastmodified":1449000211,
    "wof:name":"Kwaliteitsbakkerij Leonard Bv",
    "wof:parent_id":-1,
    "wof:placetype":"venue",
    "wof:superseded_by":[],
    "wof:supersedes":[],
    "wof:tags":[
        "brood",
        "banket"
    ]
},
  "bbox": [4.896663,52.20002,4.896663,52.20002],
  "geometry": {"coordinates":[4.896663,52.20002],"type":"Point"}
}