{
  "id": 219953287,
  "type": "Feature",
  "properties": {
    "edtf:cessation":"u",
    "edtf:inception":"u",
    "geom:area":0.0,
    "geom:bbox":"6.34412,51.928959,6.34412,51.928959",
    "geom:latitude":51.928959,
    "geom:longitude":6.34412,
    "iso:country":"NL",
    "sg:address":"Postbus 95",
    "sg:city":"Gaanderen",
    "sg:classifiers":[],
    "sg:orig_category":"Adviesbureaus Bedrijfsveiligheid",
    "sg:owner":"simplegeo",
    "sg:phone":"+31 315 324 803",
    "sg:postcode":"7010 AB",
    "sg:province":"Gelderland",
    "src:geom":"simplegeo",
    "wof:belongsto":[
        85633337,
        101837791,
        85687043
    ],
    "wof:breaches":[],
    "wof:concordances":{
        "sg:id":"SG_32Zmy4MXb8flmFXTfHR9Iw_51.928959_6.344120@1306269930"
    },
    "wof:country":"NL",
    "wof:geomhash":"30d62ba1cc963c1426716d07d3746530",
    "wof:hierarchy":[
        {
            "continent_id":-1,
            "country_id":85633337,
            "locality_id":101837791,
            "neighbourhood_id":-1,
            "region_id":85687043,
            "venue_id":219953287
        }
    ],
    "wof:id":219953287,
    "wof:lastmodified":1449072820,
    "wof:name":"Hekman",
    "wof:parent_id":-1,
    "wof:placetype":"venue",
    "wof:superseded_by":[],
    "wof:supersedes":[],
    "wof:tags":[]
},
  "bbox": [6.34412,51.928959,6.34412,51.928959],
  "geometry": {"coordinates":[6.34412,51.928959],"type":"Point"}
}