{
  "id": 186547063,
  "type": "Feature",
  "properties": {
    "edtf:cessation":"u",
    "edtf:inception":"u",
    "geom:area":0.0,
    "geom:bbox":"5.093977,51.891727,5.093977,51.891727",
    "geom:latitude":51.891727,
    "geom:longitude":5.093977,
    "iso:country":"NL",
    "sg:address":"Poortery 3",
    "sg:city":"Leerdam",
    "sg:classifiers":[],
    "sg:orig_category":"Verenigingen En Stichtingen",
    "sg:owner":"simplegeo",
    "sg:phone":"+31 345 568 875",
    "sg:postcode":"4141 AW",
    "sg:province":"South Holland",
    "src:geom":"simplegeo",
    "wof:belongsto":[
        85633337,
        101808521,
        85687041
    ],
    "wof:breaches":[],
    "wof:concordances":{
        "sg:id":"SG_5H1HEz9PdcdXuwLvdBSmDi_51.891727_5.093977@1306269913"
    },
    "wof:country":"NL",
    "wof:geomhash":"dd561cbd24b5ea2aa12c668f152cb6f3",
    "wof:hierarchy":[
        {
            "continent_id":-1,
            "country_id":85633337,
            "locality_id":101808521,
            "neighbourhood_id":-1,
            "region_id":85687041,
            "venue_id":186547063
        }
    ],
    "wof:id":186547063,
    "wof:lastmodified":1449050515,
    "wof:name":"Werk En Welzijn Leerdam, Sticht",
    "wof:parent_id":-1,
    "wof:placetype":"venue",
    "wof:superseded_by":[],
    "wof:supersedes":[],
    "wof:tags":[]
},
  "bbox": [5.093977,51.891727,5.093977,51.891727],
  "geometry": {"coordinates":[5.093977,51.891727],"type":"Point"}
}