{
  "id": 220024349,
  "type": "Feature",
  "properties": {
    "edtf:cessation":"u",
    "edtf:inception":"u",
    "geom:area":0.0,
    "geom:bbox":"6.361554,52.850346,6.361554,52.850346",
    "geom:latitude":52.850346,
    "geom:longitude":6.361554,
    "iso:country":"NL",
    "sg:address":"Leggeloo 1E",
    "sg:city":"Dwingeloo",
    "sg:classifiers":[],
    "sg:orig_category":"Adviesbureaus Bouwkunde",
    "sg:owner":"simplegeo",
    "sg:phone":"+31 521 591 630",
    "sg:postcode":"7991 PW",
    "sg:province":"Drenthe",
    "src:geom":"simplegeo",
    "wof:belongsto":[
        85633337,
        85687051
    ],
    "wof:breaches":[],
    "wof:concordances":{
        "sg:id":"SG_3n1Eit9UyQEXpVzTXmPgdA_52.850346_6.361554@1306269931"
    },
    "wof:country":"NL",
    "wof:geomhash":"8f18b3eb9b9603feecefcc9303802ce4",
    "wof:hierarchy":[
        {
            "continent_id":-1,
            "country_id":85633337,
            "locality_id":-1,
            "neighbourhood_id":-1,
            "region_id":85687051,
            "venue_id":220024349
        }
    ],
    "wof:id":220024349,
    "wof:lastmodified":1449074408,
    "wof:name":"Wfi",
    "wof:parent_id":-1,
    "wof:placetype":"venue",
    "wof:superseded_by":[],
    "wof:supersedes":[],
    "wof:tags":[]
},
  "bbox": [6.361554,52.850346,6.361554,52.850346],
  "geometry": {"coordinates":[6.361554,52.850346],"type":"Point"}
}