{
  "id": 320274107,
  "type": "Feature",
  "properties": {
    "edtf:cessation":"u",
    "edtf:inception":"u",
    "geom:area":0.0,
    "geom:bbox":"6.93915,53.044292,6.93915,53.044292",
    "geom:latitude":53.044292,
    "geom:longitude":6.93915,
    "iso:country":"NL",
    "sg:address":"Tilstraat H 12",
    "sg:city":"Nieuwe Pekela",
    "sg:classifiers":[],
    "sg:orig_category":"Glaszetten",
    "sg:owner":"simplegeo",
    "sg:phone":"+31 597 646 189",
    "sg:postcode":"9663 TA",
    "sg:province":"Groningen",
    "src:geom":"simplegeo",
    "wof:belongsto":[
        85633337,
        85687059
    ],
    "wof:breaches":[],
    "wof:concordances":{
        "sg:id":"SG_2xtb3qM1JB9z6vYnGQAjVw_53.044292_6.939150@1306269996"
    },
    "wof:country":"NL",
    "wof:geomhash":"a65e04bcbef431494bcc1c4155506056",
    "wof:hierarchy":[
        {
            "continent_id":-1,
            "country_id":85633337,
            "locality_id":-1,
            "neighbourhood_id":-1,
            "region_id":85687059,
            "venue_id":320274107
        }
    ],
    "wof:id":320274107,
    "wof:lastmodified":1449011704,
    "wof:name":"Glashandel Nuninga",
    "wof:parent_id":-1,
    "wof:placetype":"venue",
    "wof:superseded_by":[],
    "wof:supersedes":[],
    "wof:tags":[]
},
  "bbox": [6.93915,53.044292,6.93915,53.044292],
  "geometry": {"coordinates":[6.93915,53.044292],"type":"Point"}
}