{
  "id": 320271359,
  "type": "Feature",
  "properties": {
    "edtf:cessation":"u",
    "edtf:inception":"u",
    "geom:area":0.0,
    "geom:bbox":"4.694102,51.524437,4.694102,51.524437",
    "geom:latitude":51.524437,
    "geom:longitude":4.694102,
    "iso:country":"NL",
    "sg:address":"De Waterman 2",
    "sg:city":"Rijsbergen",
    "sg:classifiers":[],
    "sg:orig_category":"Glaszetten",
    "sg:owner":"simplegeo",
    "sg:phone":"+31 76 596 2549",
    "sg:postcode":"4891 TL",
    "sg:province":"Noord-Brabant",
    "src:geom":"simplegeo",
    "wof:belongsto":[
        85633337,
        85687035
    ],
    "wof:breaches":[],
    "wof:concordances":{
        "sg:id":"SG_6NzxM7MqUEs7xjGJYRPr1r_51.524437_4.694102@1306269996"
    },
    "wof:country":"NL",
    "wof:geomhash":"4459a7dc25bf3193f31a34b035775b0d",
    "wof:hierarchy":[
        {
            "continent_id":-1,
            "country_id":85633337,
            "locality_id":-1,
            "neighbourhood_id":-1,
            "region_id":85687035,
            "venue_id":320271359
        }
    ],
    "wof:id":320271359,
    "wof:lastmodified":1449013213,
    "wof:name":"Iso Reno",
    "wof:parent_id":-1,
    "wof:placetype":"venue",
    "wof:superseded_by":[],
    "wof:supersedes":[],
    "wof:tags":[]
},
  "bbox": [4.694102,51.524437,4.694102,51.524437],
  "geometry": {"coordinates":[4.694102,51.524437],"type":"Point"}
}