{
  "id": 336958463,
  "type": "Feature",
  "properties": {
    "edtf:cessation":"u",
    "edtf:inception":"u",
    "geom:area":0.0,
    "geom:bbox":"5.982276,51.546783,5.982276,51.546783",
    "geom:latitude":51.546783,
    "geom:longitude":5.982276,
    "iso:country":"NL",
    "sg:address":"Microstr 2",
    "sg:city":"Venray",
    "sg:classifiers":[
        {
            "category":"Retail",
            "subcategory":"Storage",
            "type":"Services"
        }
    ],
    "sg:owner":"simplegeo",
    "sg:phone":"+31 478 640 318",
    "sg:postcode":"5804 CM",
    "sg:province":"Limburg",
    "sg:tags":[
        "op-",
        "en",
        "overslagbedrijven"
    ],
    "src:geom":"simplegeo",
    "wof:belongsto":[
        85633337,
        101839289,
        85687033
    ],
    "wof:breaches":[],
    "wof:concordances":{
        "sg:id":"SG_3igsTSqPdlrQTAYCD1ocGm_51.546783_5.982276@1306270008"
    },
    "wof:country":"NL",
    "wof:geomhash":"41c216df68e137c4703b980e1469fc4c",
    "wof:hierarchy":[
        {
            "continent_id":-1,
            "country_id":85633337,
            "locality_id":101839289,
            "neighbourhood_id":-1,
            "region_id":85687033,
            "venue_id":336958463
        }
    ],
    "wof:id":336958463,
    "wof:lastmodified":1448997798,
    "wof:name":"Stock Keeping Units Bv",
    "wof:parent_id":-1,
    "wof:placetype":"venue",
    "wof:superseded_by":[],
    "wof:supersedes":[],
    "wof:tags":[
        "op-",
        "en",
        "overslagbedrijven"
    ]
},
  "bbox": [5.982276,51.546783,5.982276,51.546783],
  "geometry": {"coordinates":[5.982276,51.546783],"type":"Point"}
}