{
  "id": 320472647,
  "type": "Feature",
  "properties": {
    "edtf:cessation":"u",
    "edtf:inception":"u",
    "geom:area":0.0,
    "geom:bbox":"6.134208,52.015236,6.134208,52.015236",
    "geom:latitude":52.015236,
    "geom:longitude":6.134208,
    "iso:country":"NL",
    "sg:address":"Koepoortstr 6",
    "sg:city":"Doesburg",
    "sg:classifiers":[],
    "sg:orig_category":"Grafisch Ontwerpers",
    "sg:owner":"simplegeo",
    "sg:phone":"+31 313 475 171",
    "sg:postcode":"6981 AS",
    "sg:province":"Gelderland",
    "src:geom":"simplegeo",
    "wof:belongsto":[
        85633337,
        101837759,
        85687043
    ],
    "wof:breaches":[],
    "wof:concordances":{
        "sg:id":"SG_4QSB68B2LURIMOujiIbLLa_52.015236_6.134208@1306269998"
    },
    "wof:country":"NL",
    "wof:geomhash":"46feb3a75f4ab3509ccb1ca4c2f92f09",
    "wof:hierarchy":[
        {
            "continent_id":-1,
            "country_id":85633337,
            "locality_id":101837759,
            "neighbourhood_id":-1,
            "region_id":85687043,
            "venue_id":320472647
        }
    ],
    "wof:id":320472647,
    "wof:lastmodified":1449011537,
    "wof:name":"Casteren, Annette Van",
    "wof:parent_id":-1,
    "wof:placetype":"venue",
    "wof:superseded_by":[],
    "wof:supersedes":[],
    "wof:tags":[]
},
  "bbox": [6.134208,52.015236,6.134208,52.015236],
  "geometry": {"coordinates":[6.134208,52.015236],"type":"Point"}
}