{
  "id": 253487857,
  "type": "Feature",
  "properties": {
    "edtf:cessation":"u",
    "edtf:inception":"u",
    "geom:area":0.0,
    "geom:bbox":"5.134587,52.101093,5.134587,52.101093",
    "geom:latitude":52.101093,
    "geom:longitude":5.134587,
    "iso:country":"NL",
    "sg:address":"Dekhuyzenstraat 60",
    "sg:city":"Utrecht",
    "sg:classifiers":[],
    "sg:orig_category":"Paramedische Behandelingen",
    "sg:owner":"simplegeo",
    "sg:phone":"+31 30 275 9502",
    "sg:postcode":"3572 WN",
    "sg:province":"Utrecht",
    "src:geom":"simplegeo",
    "wof:belongsto":[
        85798515,
        85633337,
        101751827,
        85687039
    ],
    "wof:breaches":[],
    "wof:concordances":{
        "sg:id":"SG_6J92uMxeFoD4d8x6bhqKjt_52.101093_5.134587@1306269950"
    },
    "wof:country":"NL",
    "wof:geomhash":"bb1bf704939fec7315bd399e3f09d189",
    "wof:hierarchy":[
        {
            "continent_id":-1,
            "country_id":85633337,
            "locality_id":101751827,
            "neighbourhood_id":85798515,
            "region_id":85687039,
            "venue_id":253487857
        }
    ],
    "wof:id":253487857,
    "wof:lastmodified":1449063793,
    "wof:name":"Zuilen Logopediepraktijk",
    "wof:parent_id":85798515,
    "wof:placetype":"venue",
    "wof:superseded_by":[],
    "wof:supersedes":[],
    "wof:tags":[]
},
  "bbox": [5.134587,52.101093,5.134587,52.101093],
  "geometry": {"coordinates":[5.134587,52.101093],"type":"Point"}
}