{
  "id": 320063831,
  "type": "Feature",
  "properties": {
    "edtf:cessation":"u",
    "edtf:inception":"u",
    "geom:area":0.0,
    "geom:bbox":"6.151407,51.377869,6.151407,51.377869",
    "geom:latitude":51.377869,
    "geom:longitude":6.151407,
    "iso:country":"NL",
    "sg:address":"De Sondert 5",
    "sg:city":"Venlo",
    "sg:classifiers":[
        {
            "category":"Retail",
            "subcategory":"Auto Repair",
            "type":"Services"
        }
    ],
    "sg:owner":"simplegeo",
    "sg:phone":"+31 77 382 0000",
    "sg:postcode":"5928 RV",
    "sg:province":"Limburg",
    "sg:tags":[
        "garage"
    ],
    "src:geom":"simplegeo",
    "wof:belongsto":[
        85798541,
        85633337,
        85687033
    ],
    "wof:breaches":[],
    "wof:concordances":{
        "sg:id":"SG_0QIYaCUuHu1PFRpjucZEE7_51.377869_6.151407@1306269994"
    },
    "wof:country":"NL",
    "wof:geomhash":"44a6f8c887068629ef9c9a4128a7a982",
    "wof:hierarchy":[
        {
            "continent_id":-1,
            "country_id":85633337,
            "locality_id":-1,
            "neighbourhood_id":85798541,
            "region_id":85687033,
            "venue_id":320063831
        }
    ],
    "wof:id":320063831,
    "wof:lastmodified":1449011568,
    "wof:name":"Deinum Bv",
    "wof:parent_id":85798541,
    "wof:placetype":"venue",
    "wof:superseded_by":[],
    "wof:supersedes":[],
    "wof:tags":[
        "garage"
    ]
},
  "bbox": [6.151407,51.377869,6.151407,51.377869],
  "geometry": {"coordinates":[6.151407,51.377869],"type":"Point"}
}