{
  "id": 186034427,
  "type": "Feature",
  "properties": {
    "edtf:cessation":"u",
    "edtf:inception":"u",
    "geom:area":0.0,
    "geom:bbox":"6.103381,53.105328,6.103381,53.105328",
    "geom:latitude":53.105328,
    "geom:longitude":6.103381,
    "iso:country":"NL",
    "sg:address":"Het Heem 10",
    "sg:city":"Drachten",
    "sg:classifiers":[],
    "sg:orig_category":"Koeriersdiensten",
    "sg:owner":"simplegeo",
    "sg:phone":"+31 6 10260260",
    "sg:postcode":"9203 XV",
    "sg:province":"Provincie Friesland",
    "src:geom":"simplegeo",
    "wof:belongsto":[
        85797413,
        85633337,
        85687055
    ],
    "wof:breaches":[],
    "wof:concordances":{
        "sg:id":"SG_5a3mzUSl5yGd0krlVC9kvA_53.105328_6.103381@1306269909"
    },
    "wof:country":"NL",
    "wof:geomhash":"7320b1bf1f089cab9558b46eb046de11",
    "wof:hierarchy":[
        {
            "continent_id":-1,
            "country_id":85633337,
            "locality_id":-1,
            "neighbourhood_id":85797413,
            "region_id":85687055,
            "venue_id":186034427
        }
    ],
    "wof:id":186034427,
    "wof:lastmodified":1449050545,
    "wof:name":"Bezorg Service Drachten",
    "wof:parent_id":85797413,
    "wof:placetype":"venue",
    "wof:superseded_by":[],
    "wof:supersedes":[],
    "wof:tags":[]
},
  "bbox": [6.103381,53.105328,6.103381,53.105328],
  "geometry": {"coordinates":[6.103381,53.105328],"type":"Point"}
}