{
  "id": 286874941,
  "type": "Feature",
  "properties": {
    "edtf:cessation":"u",
    "edtf:inception":"u",
    "geom:area":0.0,
    "geom:bbox":"4.976166,51.829601,4.976166,51.829601",
    "geom:latitude":51.829601,
    "geom:longitude":4.976166,
    "iso:country":"NL",
    "sg:address":"Langedijk 22",
    "sg:city":"Gorinchem",
    "sg:classifiers":[],
    "sg:orig_category":"Bloemen And Planten",
    "sg:owner":"simplegeo",
    "sg:phone":"+31 183 631 944",
    "sg:postcode":"4201  C",
    "sg:province":"Zuid-Holland",
    "src:geom":"simplegeo",
    "wof:belongsto":[
        85633337,
        101808515,
        85687041
    ],
    "wof:breaches":[],
    "wof:concordances":{
        "sg:id":"SG_1DPp2QadYRih8qz0prPkFt_51.829601_4.976166@1306269974"
    },
    "wof:country":"NL",
    "wof:geomhash":"8fec81834b612327c2fedeacc9b61e31",
    "wof:hierarchy":[
        {
            "continent_id":-1,
            "country_id":85633337,
            "locality_id":101808515,
            "neighbourhood_id":-1,
            "region_id":85687041,
            "venue_id":286874941
        }
    ],
    "wof:id":286874941,
    "wof:lastmodified":1449017905,
    "wof:name":"Bloemerie Johannes & Gerdien Van Camp",
    "wof:parent_id":-1,
    "wof:placetype":"venue",
    "wof:superseded_by":[],
    "wof:supersedes":[],
    "wof:tags":[]
},
  "bbox": [4.976166,51.829601,4.976166,51.829601],
  "geometry": {"coordinates":[4.976166,51.829601],"type":"Point"}
}