{
  "id": 253149995,
  "type": "Feature",
  "properties": {
    "edtf:cessation":"u",
    "edtf:inception":"u",
    "geom:area":0.0,
    "geom:bbox":"6.066357,52.510883,6.066357,52.510883",
    "geom:latitude":52.510883,
    "geom:longitude":6.066357,
    "iso:country":"NL",
    "sg:address":"Grt Voort 88",
    "sg:city":"Zwolle",
    "sg:classifiers":[],
    "sg:orig_category":"Meubelen",
    "sg:owner":"simplegeo",
    "sg:phone":"+31 38 421 0600",
    "sg:postcode":"8041 BH",
    "sg:province":"Overijssel",
    "src:geom":"simplegeo",
    "wof:belongsto":[
        85797715,
        85633337,
        101751861,
        85687045
    ],
    "wof:breaches":[],
    "wof:concordances":{
        "sg:id":"SG_7Tn0J33FLpDkzX5U5vEOe3_52.510883_6.066357@1306269946"
    },
    "wof:country":"NL",
    "wof:geomhash":"b9c519412cd4c30e1d1f7346dec34c1e",
    "wof:hierarchy":[
        {
            "continent_id":-1,
            "country_id":85633337,
            "locality_id":101751861,
            "neighbourhood_id":85797715,
            "region_id":85687045,
            "venue_id":253149995
        }
    ],
    "wof:id":253149995,
    "wof:lastmodified":1449062834,
    "wof:name":"Sanders Bv",
    "wof:parent_id":85797715,
    "wof:placetype":"venue",
    "wof:superseded_by":[],
    "wof:supersedes":[],
    "wof:tags":[]
},
  "bbox": [6.066357,52.510883,6.066357,52.510883],
  "geometry": {"coordinates":[6.066357,52.510883],"type":"Point"}
}