{
  "id": 185704287,
  "type": "Feature",
  "properties": {
    "edtf:cessation":"u",
    "edtf:inception":"u",
    "geom:area":0.0,
    "geom:bbox":"5.036607,51.583454,5.036607,51.583454",
    "geom:latitude":51.583454,
    "geom:longitude":5.036607,
    "iso:country":"NL",
    "sg:address":"Albionstr 31",
    "sg:city":"Tilburg",
    "sg:classifiers":[],
    "sg:orig_category":"Kermisexploitatie",
    "sg:owner":"simplegeo",
    "sg:phone":"+31 13 571 3420",
    "sg:postcode":"5047 SJ",
    "sg:province":"Noord-Brabant",
    "src:geom":"simplegeo",
    "wof:belongsto":[
        85797687,
        85633337,
        85687035
    ],
    "wof:breaches":[],
    "wof:concordances":{
        "sg:id":"SG_6QWARwY95IekzyDMevqYDS_51.583454_5.036607@1306269907"
    },
    "wof:country":"NL",
    "wof:geomhash":"ae5132b41dbbd6520ca7ceff8c6b3f60",
    "wof:hierarchy":[
        {
            "continent_id":-1,
            "country_id":85633337,
            "locality_id":-1,
            "neighbourhood_id":85797687,
            "region_id":85687035,
            "venue_id":185704287
        }
    ],
    "wof:id":185704287,
    "wof:lastmodified":1449007025,
    "wof:name":"Dusomos, L J",
    "wof:parent_id":85797687,
    "wof:placetype":"venue",
    "wof:superseded_by":[],
    "wof:supersedes":[],
    "wof:tags":[]
},
  "bbox": [5.036607,51.583454,5.036607,51.583454],
  "geometry": {"coordinates":[5.036607,51.583454],"type":"Point"}
}