{
  "id": 219363047,
  "type": "Feature",
  "properties": {
    "edtf:cessation":"u",
    "edtf:inception":"u",
    "geom:area":0.0,
    "geom:bbox":"6.923788,53.330029,6.923788,53.330029",
    "geom:latitude":53.330029,
    "geom:longitude":6.923788,
    "iso:country":"NL",
    "sg:address":"Singel 56",
    "sg:city":"Delfzijl",
    "sg:classifiers":[],
    "sg:orig_category":"Loodgieterswerk, Verwarming And Sanitaire Installaties",
    "sg:owner":"simplegeo",
    "sg:phone":"+31 596 613 677",
    "sg:postcode":"9934 BX",
    "sg:province":"Groningen",
    "src:geom":"simplegeo",
    "wof:belongsto":[
        85797887,
        85633337,
        101837987,
        85687059
    ],
    "wof:breaches":[],
    "wof:concordances":{
        "sg:id":"SG_7bVRfNnxToO4XaextGFBkT_53.330029_6.923788@1306269925"
    },
    "wof:country":"NL",
    "wof:geomhash":"6c3a0c5c0d3203dfb43ab5b7880bcc54",
    "wof:hierarchy":[
        {
            "continent_id":-1,
            "country_id":85633337,
            "locality_id":101837987,
            "neighbourhood_id":85797887,
            "region_id":85687059,
            "venue_id":219363047
        }
    ],
    "wof:id":219363047,
    "wof:lastmodified":1449073493,
    "wof:name":"H. Noordhoff En Zn",
    "wof:parent_id":85797887,
    "wof:placetype":"venue",
    "wof:superseded_by":[],
    "wof:supersedes":[],
    "wof:tags":[]
},
  "bbox": [6.923788,53.330029,6.923788,53.330029],
  "geometry": {"coordinates":[6.923788,53.330029],"type":"Point"}
}