{
  "id": 236047615,
  "type": "Feature",
  "properties": {
    "edtf:cessation":"u",
    "edtf:inception":"u",
    "geom:area":0.0,
    "geom:bbox":"5.776754,51.443081,5.776754,51.443081",
    "geom:latitude":51.443081,
    "geom:longitude":5.776754,
    "iso:country":"NL",
    "sg:address":"Heieindsewg 3",
    "sg:city":"Deurne",
    "sg:classifiers":[
        {
            "category":"Autos & Motor Vehicles",
            "subcategory":"Automobile Sales",
            "type":"Retail Goods"
        }
    ],
    "sg:owner":"simplegeo",
    "sg:phone":"+31 493 323 534",
    "sg:postcode":"5753 PZ",
    "sg:province":"Noord-Brabant",
    "sg:tags":[
        "caravan",
        "stalling",
        "-"
    ],
    "src:geom":"simplegeo",
    "wof:belongsto":[
        85797725,
        85633337,
        85687035
    ],
    "wof:breaches":[],
    "wof:concordances":{
        "sg:id":"SG_3lNrtPmMUk6oswXGvIrlJN_51.443081_5.776754@1306269934"
    },
    "wof:country":"NL",
    "wof:geomhash":"55634db0aa7afeb59d675f831fd0f0ed",
    "wof:hierarchy":[
        {
            "continent_id":-1,
            "country_id":85633337,
            "locality_id":-1,
            "neighbourhood_id":85797725,
            "region_id":85687035,
            "venue_id":236047615
        }
    ],
    "wof:id":236047615,
    "wof:lastmodified":1449003847,
    "wof:name":"Transaro",
    "wof:parent_id":85797725,
    "wof:placetype":"venue",
    "wof:superseded_by":[],
    "wof:supersedes":[],
    "wof:tags":[
        "caravan",
        "stalling",
        "-"
    ]
},
  "bbox": [5.776754,51.443081,5.776754,51.443081],
  "geometry": {"coordinates":[5.776754,51.443081],"type":"Point"}
}