{
  "id": 185739895,
  "type": "Feature",
  "properties": {
    "edtf:cessation":"u",
    "edtf:inception":"u",
    "geom:area":0.0,
    "geom:bbox":"5.563963,51.613346,5.563963,51.613346",
    "geom:latitude":51.613346,
    "geom:longitude":5.563963,
    "iso:country":"NL",
    "sg:address":"De Stad 7A",
    "sg:city":"Veghel",
    "sg:classifiers":[],
    "sg:orig_category":"Keukens",
    "sg:owner":"simplegeo",
    "sg:phone":"+31 6 55191944",
    "sg:postcode":"5463 XE",
    "sg:province":"Noord-Brabant",
    "src:geom":"simplegeo",
    "wof:belongsto":[
        85633337,
        85687035
    ],
    "wof:breaches":[],
    "wof:concordances":{
        "sg:id":"SG_0GHSKpDnH6SLcp0UsNq364_51.613346_5.563963@1306269907"
    },
    "wof:country":"NL",
    "wof:geomhash":"64ed8901e79c4091b5e71db4d02eb744",
    "wof:hierarchy":[
        {
            "continent_id":-1,
            "country_id":85633337,
            "locality_id":-1,
            "neighbourhood_id":-1,
            "region_id":85687035,
            "venue_id":185739895
        }
    ],
    "wof:id":185739895,
    "wof:lastmodified":1449007282,
    "wof:name":"Dooren, Arie Van",
    "wof:parent_id":-1,
    "wof:placetype":"venue",
    "wof:superseded_by":[],
    "wof:supersedes":[],
    "wof:tags":[]
},
  "bbox": [5.563963,51.613346,5.563963,51.613346],
  "geometry": {"coordinates":[5.563963,51.613346],"type":"Point"}
}