{
  "id": 320118605,
  "type": "Feature",
  "properties": {
    "edtf:cessation":"u",
    "edtf:inception":"u",
    "geom:area":0.0,
    "geom:bbox":"4.89111,52.36121,4.89111,52.36121",
    "geom:latitude":52.36121,
    "geom:longitude":4.89111,
    "iso:country":"NL",
    "sg:address":"2E Weteringdwstr 4248",
    "sg:city":"Amsterdam",
    "sg:classifiers":[
        {
            "category":"Retail",
            "subcategory":"Auto Repair",
            "type":"Services"
        }
    ],
    "sg:owner":"simplegeo",
    "sg:phone":"+31 20 623 4138",
    "sg:postcode":"1017 SX",
    "sg:province":"Noord-Holland",
    "sg:tags":[
        "garage"
    ],
    "src:geom":"simplegeo",
    "wof:belongsto":[
        85797363,
        85633337,
        101751893,
        85687053
    ],
    "wof:breaches":[],
    "wof:concordances":{
        "sg:id":"SG_6skOQxv3wZ9KW0LNfuajEs_52.361210_4.891110@1306269995"
    },
    "wof:country":"NL",
    "wof:geomhash":"136247043f36347211678440b2558fa0",
    "wof:hierarchy":[
        {
            "continent_id":-1,
            "country_id":85633337,
            "locality_id":101751893,
            "neighbourhood_id":85797363,
            "region_id":85687053,
            "venue_id":320118605
        }
    ],
    "wof:id":320118605,
    "wof:lastmodified":1449014254,
    "wof:name":"Vreugde, De",
    "wof:parent_id":85797363,
    "wof:placetype":"venue",
    "wof:superseded_by":[],
    "wof:supersedes":[],
    "wof:tags":[
        "garage"
    ]
},
  "bbox": [4.89111,52.36121,4.89111,52.36121],
  "geometry": {"coordinates":[4.89111,52.36121],"type":"Point"}
}