{
  "id": 219929533,
  "type": "Feature",
  "properties": {
    "edtf:cessation":"u",
    "edtf:inception":"u",
    "geom:area":0.0,
    "geom:bbox":"5.14371,52.086601,5.14371,52.086601",
    "geom:latitude":52.086601,
    "geom:longitude":5.14371,
    "iso:country":"NL",
    "sg:address":"Stadhoudersln 7",
    "sg:city":"Utrecht",
    "sg:classifiers":[],
    "sg:orig_category":"Adviesbureaus Bedrijfsorganisatie",
    "sg:owner":"simplegeo",
    "sg:phone":"+31 30 254 1293",
    "sg:postcode":"3583 JA",
    "sg:province":"Utrecht",
    "src:geom":"simplegeo",
    "wof:belongsto":[
        85797403,
        85633337,
        85687039
    ],
    "wof:breaches":[],
    "wof:concordances":{
        "sg:id":"SG_3lXhlB5LJ1cK06wT6QGj6P_52.086601_5.143710@1306269930"
    },
    "wof:country":"NL",
    "wof:geomhash":"3ab62a380dd451f5f297745870034157",
    "wof:hierarchy":[
        {
            "continent_id":-1,
            "country_id":85633337,
            "locality_id":-1,
            "neighbourhood_id":85797403,
            "region_id":85687039,
            "venue_id":219929533
        }
    ],
    "wof:id":219929533,
    "wof:lastmodified":1449071741,
    "wof:name":"Traffic & Transport",
    "wof:parent_id":85797403,
    "wof:placetype":"venue",
    "wof:superseded_by":[],
    "wof:supersedes":[],
    "wof:tags":[]
},
  "bbox": [5.14371,52.086601,5.14371,52.086601],
  "geometry": {"coordinates":[5.14371,52.086601],"type":"Point"}
}