{
  "id": 169789117,
  "type": "Feature",
  "properties": {
    "edtf:cessation":"u",
    "edtf:inception":"u",
    "geom:area":0.0,
    "geom:bbox":"5.724392,51.977627,5.724392,51.977627",
    "geom:latitude":51.977627,
    "geom:longitude":5.724392,
    "iso:country":"NL",
    "sg:address":"Beukenlaan 45",
    "sg:city":"Renkum",
    "sg:classifiers":[],
    "sg:orig_category":"Kappers",
    "sg:owner":"simplegeo",
    "sg:phone":"+31 317 317 453",
    "sg:postcode":"6871 CK",
    "sg:province":"Gelderland",
    "src:geom":"simplegeo",
    "wof:belongsto":[
        85633337,
        101837829,
        85687043
    ],
    "wof:breaches":[],
    "wof:concordances":{
        "sg:id":"SG_3IHNZClyc37KjYSJdE00dt_51.977627_5.724392@1306269905"
    },
    "wof:country":"NL",
    "wof:geomhash":"72f813963ced4e63014f32a0d3dc085b",
    "wof:hierarchy":[
        {
            "continent_id":-1,
            "country_id":85633337,
            "locality_id":101837829,
            "neighbourhood_id":-1,
            "region_id":85687043,
            "venue_id":169789117
        }
    ],
    "wof:id":169789117,
    "wof:lastmodified":1449034161,
    "wof:name":"Mw. A.M. Derks",
    "wof:parent_id":-1,
    "wof:placetype":"venue",
    "wof:superseded_by":[],
    "wof:supersedes":[],
    "wof:tags":[]
},
  "bbox": [5.724392,51.977627,5.724392,51.977627],
  "geometry": {"coordinates":[5.724392,51.977627],"type":"Point"}
}