{
  "id": 202505551,
  "type": "Feature",
  "properties": {
    "edtf:cessation":"u",
    "edtf:inception":"u",
    "geom:area":0.0,
    "geom:bbox":"5.102274,51.897202,5.102274,51.897202",
    "geom:latitude":51.897202,
    "geom:longitude":5.102274,
    "iso:country":"NL",
    "sg:address":"Energieweg 15 D",
    "sg:city":"Leerdam",
    "sg:classifiers":[],
    "sg:orig_category":"Verhuur Huishoudartikelen",
    "sg:owner":"simplegeo",
    "sg:phone":"+31 900 7000247",
    "sg:postcode":"4143 HK",
    "sg:province":"Zuid-Holland",
    "src:geom":"simplegeo",
    "wof:belongsto":[
        85633337,
        101808521,
        85687041
    ],
    "wof:breaches":[],
    "wof:concordances":{
        "sg:id":"SG_3VOP748lZ9rqiTemMmnXp6_51.897202_5.102274@1306269915"
    },
    "wof:country":"NL",
    "wof:geomhash":"f59c4b514867c513d8a0350bb3a84137",
    "wof:hierarchy":[
        {
            "continent_id":-1,
            "country_id":85633337,
            "locality_id":101808521,
            "neighbourhood_id":-1,
            "region_id":85687041,
            "venue_id":202505551
        }
    ],
    "wof:id":202505551,
    "wof:lastmodified":1449062239,
    "wof:name":"Dekkers & Dekkers Partyverhuur Vof",
    "wof:parent_id":-1,
    "wof:placetype":"venue",
    "wof:superseded_by":[],
    "wof:supersedes":[],
    "wof:tags":[]
},
  "bbox": [5.102274,51.897202,5.102274,51.897202],
  "geometry": {"coordinates":[5.102274,51.897202],"type":"Point"}
}