{
  "id": 270170177,
  "type": "Feature",
  "properties": {
    "edtf:cessation":"u",
    "edtf:inception":"u",
    "geom:area":0.0,
    "geom:bbox":"-111.930344,34.168091,-111.930344,34.168091",
    "geom:latitude":34.168091,
    "geom:longitude":-111.930344,
    "iso:country":"NL",
    "sg:address":"Nassaupk 1",
    "sg:city":"Bosschenhoofd",
    "sg:classifiers":[],
    "sg:orig_category":"Fotolitho- En Reprografie - Inrichtingen",
    "sg:owner":"simplegeo",
    "sg:phone":"+31 165 316 267",
    "sg:postcode":"4744 AZ",
    "sg:province":"Noord-Brabant",
    "src:geom":"simplegeo",
    "wof:belongsto":[
        85633793,
        85688719
    ],
    "wof:breaches":[],
    "wof:concordances":{
        "sg:id":"SG_5h14ykdvEzCLKGL9myGM1W_34.168091_-111.930344@1306269962"
    },
    "wof:country":"NL",
    "wof:geomhash":"6fb9ff332afc5b10d8ae6dfcfe7e020b",
    "wof:hierarchy":[
        {
            "continent_id":-1,
            "country_id":85633793,
            "locality_id":-1,
            "neighbourhood_id":-1,
            "region_id":85688719,
            "venue_id":270170177
        }
    ],
    "wof:id":270170177,
    "wof:lastmodified":1449008871,
    "wof:name":"Visser, J C W",
    "wof:parent_id":-1,
    "wof:placetype":"venue",
    "wof:superseded_by":[],
    "wof:supersedes":[],
    "wof:tags":[]
},
  "bbox": [-111.930344,34.168091,-111.930344,34.168091],
  "geometry": {"coordinates":[-111.930344,34.168091],"type":"Point"}
}