{
  "id": 202543177,
  "type": "Feature",
  "properties": {
    "edtf:cessation":"u",
    "edtf:inception":"u",
    "geom:area":0.0,
    "geom:bbox":"6.872179,53.317871,6.872179,53.317871",
    "geom:latitude":53.317871,
    "geom:longitude":6.872179,
    "iso:country":"NL",
    "sg:address":"Focco Ukenalaan 30",
    "sg:city":"Appingedam",
    "sg:classifiers":[
        {
            "category":"Communications",
            "subcategory":"Television Station",
            "type":"Services"
        }
    ],
    "sg:owner":"simplegeo",
    "sg:phone":"+31 596 623 936",
    "sg:postcode":"9902 GC",
    "sg:province":"Groningen",
    "sg:tags":[
        "video",
        "audio",
        "verhuur"
    ],
    "src:geom":"simplegeo",
    "wof:belongsto":[
        85797887,
        85633337,
        101837987,
        85687059
    ],
    "wof:breaches":[],
    "wof:concordances":{
        "sg:id":"SG_3eQ5KMu5HZBYR7slb6e2tv_53.317871_6.872179@1306269916"
    },
    "wof:country":"NL",
    "wof:geomhash":"3714e7d5c5d12e8fbc385b93ce9f9d93",
    "wof:hierarchy":[
        {
            "continent_id":-1,
            "country_id":85633337,
            "locality_id":101837987,
            "neighbourhood_id":85797887,
            "region_id":85687059,
            "venue_id":202543177
        }
    ],
    "wof:id":202543177,
    "wof:lastmodified":1449060609,
    "wof:name":"Videowereld",
    "wof:parent_id":85797887,
    "wof:placetype":"venue",
    "wof:superseded_by":[],
    "wof:supersedes":[],
    "wof:tags":[
        "video",
        "audio",
        "verhuur"
    ]
},
  "bbox": [6.872179,53.317871,6.872179,53.317871],
  "geometry": {"coordinates":[6.872179,53.317871],"type":"Point"}
}