{
  "id": 236723693,
  "type": "Feature",
  "properties": {
    "edtf:cessation":"u",
    "edtf:inception":"u",
    "geom:area":0.0,
    "geom:bbox":"5.55452,51.411888,5.55452,51.411888",
    "geom:latitude":51.411888,
    "geom:longitude":5.55452,
    "iso:country":"NL",
    "sg:address":"Emopad 80",
    "sg:city":"Geldrop",
    "sg:classifiers":[],
    "sg:orig_category":"Autopoetsbedrijven",
    "sg:owner":"simplegeo",
    "sg:phone":"+31 40 280 2764",
    "sg:postcode":"5663 PB",
    "sg:province":"Noord-Brabant",
    "src:geom":"simplegeo",
    "wof:belongsto":[
        85797733,
        85633337,
        85687035
    ],
    "wof:breaches":[],
    "wof:concordances":{
        "sg:id":"SG_7GN0wA4pbS9aWe3IYzv8SG_51.411888_5.554520@1306269940"
    },
    "wof:country":"NL",
    "wof:geomhash":"3a6f6f029df6fa0c16cbef3ec2ca64c7",
    "wof:hierarchy":[
        {
            "continent_id":-1,
            "country_id":85633337,
            "locality_id":-1,
            "neighbourhood_id":85797733,
            "region_id":85687035,
            "venue_id":236723693
        }
    ],
    "wof:id":236723693,
    "wof:lastmodified":1449003599,
    "wof:name":"Mr Polish",
    "wof:parent_id":85797733,
    "wof:placetype":"venue",
    "wof:superseded_by":[],
    "wof:supersedes":[],
    "wof:tags":[]
},
  "bbox": [5.55452,51.411888,5.55452,51.411888],
  "geometry": {"coordinates":[5.55452,51.411888],"type":"Point"}
}