{
  "id": 202597123,
  "type": "Feature",
  "properties": {
    "edtf:cessation":"u",
    "edtf:inception":"u",
    "geom:area":0.0,
    "geom:bbox":"5.334895,52.046146,5.334895,52.046146",
    "geom:latitude":52.046146,
    "geom:longitude":5.334895,
    "iso:country":"NL",
    "sg:address":"Van Galenlaan 81",
    "sg:city":"Doorn",
    "sg:classifiers":[],
    "sg:orig_category":"Verlichting And Huishoudartikelen",
    "sg:owner":"simplegeo",
    "sg:phone":"+31 343 415 665",
    "sg:postcode":"3941 VC",
    "sg:province":"Utrecht",
    "src:geom":"simplegeo",
    "wof:belongsto":[
        85633337,
        101806997,
        85687039
    ],
    "wof:breaches":[],
    "wof:concordances":{
        "sg:id":"SG_2s9lETiB22lsZAxxGHuweI_52.046146_5.334895@1306269916"
    },
    "wof:country":"NL",
    "wof:geomhash":"f49d9c3014b2635a48dcecc6cd49f49c",
    "wof:hierarchy":[
        {
            "continent_id":-1,
            "country_id":85633337,
            "locality_id":101806997,
            "neighbourhood_id":-1,
            "region_id":85687039,
            "venue_id":202597123
        }
    ],
    "wof:id":202597123,
    "wof:lastmodified":1449062601,
    "wof:name":"D'Orangerie Wonen Woonacc- Woonadvies Antiek",
    "wof:parent_id":-1,
    "wof:placetype":"venue",
    "wof:superseded_by":[],
    "wof:supersedes":[],
    "wof:tags":[]
},
  "bbox": [5.334895,52.046146,5.334895,52.046146],
  "geometry": {"coordinates":[5.334895,52.046146],"type":"Point"}
}