{
  "id": 269895371,
  "type": "Feature",
  "properties": {
    "edtf:cessation":"u",
    "edtf:inception":"u",
    "geom:area":0.0,
    "geom:bbox":"4.496514,52.159794,4.496514,52.159794",
    "geom:latitude":52.159794,
    "geom:longitude":4.496514,
    "iso:country":"NL",
    "sg:address":"Kaasmarkt 5",
    "sg:city":"Leiden",
    "sg:classifiers":[],
    "sg:orig_category":"Fietsen En Bromfietsen",
    "sg:owner":"simplegeo",
    "sg:phone":"+31 71 512 4124",
    "sg:postcode":"2312 HZ",
    "sg:province":"Zuid-Holland",
    "src:geom":"simplegeo",
    "wof:belongsto":[
        85798811,
        85633337,
        101751833,
        85687041
    ],
    "wof:breaches":[],
    "wof:concordances":{
        "sg:id":"SG_6ZgByM9qNoio42sU1TMU0o_52.159794_4.496514@1306269959"
    },
    "wof:country":"NL",
    "wof:geomhash":"f123bf8d243b911e1402447163601b57",
    "wof:hierarchy":[
        {
            "continent_id":-1,
            "country_id":85633337,
            "locality_id":101751833,
            "neighbourhood_id":85798811,
            "region_id":85687041,
            "venue_id":269895371
        }
    ],
    "wof:id":269895371,
    "wof:lastmodified":1449037148,
    "wof:name":"Kaasmarkt",
    "wof:parent_id":85798811,
    "wof:placetype":"venue",
    "wof:superseded_by":[],
    "wof:supersedes":[],
    "wof:tags":[]
},
  "bbox": [4.496514,52.159794,4.496514,52.159794],
  "geometry": {"coordinates":[4.496514,52.159794],"type":"Point"}
}