{
  "id": 203200681,
  "type": "Feature",
  "properties": {
    "edtf:cessation":"u",
    "edtf:inception":"u",
    "geom:area":0.0,
    "geom:bbox":"-89.622375,40.348873,-89.622375,40.348873",
    "geom:latitude":40.348873,
    "geom:longitude":-89.622375,
    "iso:country":"NL",
    "sg:address":"Dorpsstraat 147",
    "sg:city":"Winkel",
    "sg:classifiers":[],
    "sg:orig_category":"Verzekeringen",
    "sg:owner":"simplegeo",
    "sg:phone":"+31 224 542 147",
    "sg:postcode":"1731 RE",
    "sg:province":"Noord-Holland",
    "src:geom":"simplegeo",
    "wof:belongsto":[
        85633793,
        85688697
    ],
    "wof:breaches":[],
    "wof:concordances":{
        "sg:id":"SG_53JTKbICTi2SnLKNwPCrFf_40.348873_-89.622375@1306269922"
    },
    "wof:country":"NL",
    "wof:geomhash":"7257e99089ef14e54190c1e8ad842bea",
    "wof:hierarchy":[
        {
            "continent_id":-1,
            "country_id":85633793,
            "locality_id":-1,
            "neighbourhood_id":-1,
            "region_id":85688697,
            "venue_id":203200681
        }
    ],
    "wof:id":203200681,
    "wof:lastmodified":1449025679,
    "wof:name":"Vof Brandsma Krediet + Verzekeringen",
    "wof:parent_id":-1,
    "wof:placetype":"venue",
    "wof:superseded_by":[],
    "wof:supersedes":[],
    "wof:tags":[]
},
  "bbox": [-89.622375,40.348873,-89.622375,40.348873],
  "geometry": {"coordinates":[-89.622375,40.348873],"type":"Point"}
}