{
  "id": 236589789,
  "type": "Feature",
  "properties": {
    "edtf:cessation":"u",
    "edtf:inception":"u",
    "geom:area":0.0,
    "geom:bbox":"6.168161,52.45961,6.168161,52.45961",
    "geom:latitude":52.45961,
    "geom:longitude":6.168161,
    "iso:country":"NL",
    "sg:address":"Kolkweg 57",
    "sg:city":"Laag Zuthem",
    "sg:classifiers":[],
    "sg:orig_category":"Autokeuringen",
    "sg:owner":"simplegeo",
    "sg:phone":"+31 529 497 315",
    "sg:postcode":"8055 PT",
    "sg:province":"Overijssel",
    "src:geom":"simplegeo",
    "wof:belongsto":[
        85633337,
        85687045
    ],
    "wof:breaches":[],
    "wof:concordances":{
        "sg:id":"SG_4jiR0XjnTTURIRSoMLKyFi_52.459610_6.168161@1306269939"
    },
    "wof:country":"NL",
    "wof:geomhash":"a1e47e89dde176fe31cb2b034adcc075",
    "wof:hierarchy":[
        {
            "continent_id":-1,
            "country_id":85633337,
            "locality_id":-1,
            "neighbourhood_id":-1,
            "region_id":85687045,
            "venue_id":236589789
        }
    ],
    "wof:id":236589789,
    "wof:lastmodified":1449003411,
    "wof:name":"H Dalhuisen",
    "wof:parent_id":-1,
    "wof:placetype":"venue",
    "wof:superseded_by":[],
    "wof:supersedes":[],
    "wof:tags":[]
},
  "bbox": [6.168161,52.45961,6.168161,52.45961],
  "geometry": {"coordinates":[6.168161,52.45961],"type":"Point"}
}