{
  "id": 219991633,
  "type": "Feature",
  "properties": {
    "edtf:cessation":"u",
    "edtf:inception":"u",
    "geom:area":0.0,
    "geom:bbox":"7.014178,53.195179,7.014178,53.195179",
    "geom:latitude":53.195179,
    "geom:longitude":7.014178,
    "iso:country":"NL",
    "sg:address":"Hoofdwg 194",
    "sg:city":"Midwolda",
    "sg:classifiers":[],
    "sg:orig_category":"Adviesbureaus Bouwkunde",
    "sg:owner":"simplegeo",
    "sg:phone":"+31 597 551 670",
    "sg:postcode":"9681 AM",
    "sg:province":"Groningen",
    "src:geom":"simplegeo",
    "wof:belongsto":[
        85633337,
        101807489,
        85687059
    ],
    "wof:breaches":[],
    "wof:concordances":{
        "sg:id":"SG_6Mezemv7rLilIyph5kt6Ij_53.195179_7.014178@1306269931"
    },
    "wof:country":"NL",
    "wof:geomhash":"65fa91f82f681924211a0a8a326715d4",
    "wof:hierarchy":[
        {
            "continent_id":-1,
            "country_id":85633337,
            "locality_id":101807489,
            "neighbourhood_id":-1,
            "region_id":85687059,
            "venue_id":219991633
        }
    ],
    "wof:id":219991633,
    "wof:lastmodified":1449071507,
    "wof:name":"Heku",
    "wof:parent_id":-1,
    "wof:placetype":"venue",
    "wof:superseded_by":[],
    "wof:supersedes":[],
    "wof:tags":[]
},
  "bbox": [7.014178,53.195179,7.014178,53.195179],
  "geometry": {"coordinates":[7.014178,53.195179],"type":"Point"}
}