{
  "id": 336814993,
  "type": "Feature",
  "properties": {
    "edtf:cessation":"u",
    "edtf:inception":"u",
    "geom:area":0.0,
    "geom:bbox":"5.429882,51.47337,5.429882,51.47337",
    "geom:latitude":51.47337,
    "geom:longitude":5.429882,
    "iso:country":"NL",
    "sg:address":"Bert Kemplaan 13",
    "sg:city":"Eindhoven",
    "sg:classifiers":[],
    "sg:orig_category":"Onderhoud And Reparatie Kantoorapparatuur",
    "sg:owner":"simplegeo",
    "sg:phone":"+31 40 262 3581",
    "sg:postcode":"5626 HP",
    "sg:province":"North Brabant",
    "src:geom":"simplegeo",
    "wof:belongsto":[
        85797751,
        85633337,
        85687035
    ],
    "wof:breaches":[],
    "wof:concordances":{
        "sg:id":"SG_1IFExbPfNC2io82ydR9E7E_51.473370_5.429882@1306270006"
    },
    "wof:country":"NL",
    "wof:geomhash":"206f65224365c19d8a3f478b15127ef4",
    "wof:hierarchy":[
        {
            "continent_id":-1,
            "country_id":85633337,
            "locality_id":-1,
            "neighbourhood_id":85797751,
            "region_id":85687035,
            "venue_id":336814993
        }
    ],
    "wof:id":336814993,
    "wof:lastmodified":1448997144,
    "wof:name":"Smelt Serv",
    "wof:parent_id":85797751,
    "wof:placetype":"venue",
    "wof:superseded_by":[],
    "wof:supersedes":[],
    "wof:tags":[]
},
  "bbox": [5.429882,51.47337,5.429882,51.47337],
  "geometry": {"coordinates":[5.429882,51.47337],"type":"Point"}
}