{
  "id": 185753441,
  "type": "Feature",
  "properties": {
    "edtf:cessation":"u",
    "edtf:inception":"u",
    "geom:area":0.0,
    "geom:bbox":"5.14692,52.223415,5.14692,52.223415",
    "geom:latitude":52.223415,
    "geom:longitude":5.14692,
    "iso:country":"NL",
    "sg:address":"2E Loswal 3",
    "sg:city":"Hilversum",
    "sg:classifiers":[],
    "sg:orig_category":"Keukens",
    "sg:owner":"simplegeo",
    "sg:phone":"+31 35 621 1575",
    "sg:postcode":"1216 BC",
    "sg:province":"North Holland",
    "sg:website":"http://www.interatio.nl",
    "src:geom":"simplegeo",
    "wof:belongsto":[
        85797793,
        85633337,
        85687053
    ],
    "wof:breaches":[],
    "wof:concordances":{
        "sg:id":"SG_5mpICrxivOS0MSqZhTDuvI_52.223415_5.146920@1306269907"
    },
    "wof:country":"NL",
    "wof:geomhash":"f88557863494a7380d42396a49cc7ff6",
    "wof:hierarchy":[
        {
            "continent_id":-1,
            "country_id":85633337,
            "locality_id":-1,
            "neighbourhood_id":85797793,
            "region_id":85687053,
            "venue_id":185753441
        }
    ],
    "wof:id":185753441,
    "wof:lastmodified":1449006792,
    "wof:name":"Interatio Keukenarchitektuur",
    "wof:parent_id":85797793,
    "wof:placetype":"venue",
    "wof:superseded_by":[],
    "wof:supersedes":[],
    "wof:tags":[]
},
  "bbox": [5.14692,52.223415,5.14692,52.223415],
  "geometry": {"coordinates":[5.14692,52.223415],"type":"Point"}
}