{
  "id": 270171637,
  "type": "Feature",
  "properties": {
    "edtf:cessation":"u",
    "edtf:inception":"u",
    "geom:area":0.0,
    "geom:bbox":"6.370807,53.387909,6.370807,53.387909",
    "geom:latitude":53.387909,
    "geom:longitude":6.370807,
    "iso:country":"NL",
    "sg:address":"Julianatocht 1",
    "sg:city":"Kloosterburen",
    "sg:classifiers":[],
    "sg:orig_category":"Fotopersbureaus",
    "sg:owner":"simplegeo",
    "sg:phone":"+31 595 481 192",
    "sg:postcode":"9977 PM",
    "sg:province":"Groningen",
    "src:geom":"simplegeo",
    "wof:belongsto":[
        85633337,
        85687059
    ],
    "wof:breaches":[],
    "wof:concordances":{
        "sg:id":"SG_1Kke3wHlWxyhZAJLQBo6IS_53.387909_6.370807@1306269962"
    },
    "wof:country":"NL",
    "wof:geomhash":"f60f3a8609fce8de2195bcc51a6ed78d",
    "wof:hierarchy":[
        {
            "continent_id":-1,
            "country_id":85633337,
            "locality_id":-1,
            "neighbourhood_id":-1,
            "region_id":85687059,
            "venue_id":270171637
        }
    ],
    "wof:id":270171637,
    "wof:lastmodified":1449011125,
    "wof:name":"Independent Press Bur",
    "wof:parent_id":-1,
    "wof:placetype":"venue",
    "wof:superseded_by":[],
    "wof:supersedes":[],
    "wof:tags":[]
},
  "bbox": [6.370807,53.387909,6.370807,53.387909],
  "geometry": {"coordinates":[6.370807,53.387909],"type":"Point"}
}