{
  "id": 303325071,
  "type": "Feature",
  "properties": {
    "edtf:cessation":"u",
    "edtf:inception":"u",
    "geom:area":0.0,
    "geom:bbox":"6.665802,52.35495,6.665802,52.35495",
    "geom:latitude":52.35495,
    "geom:longitude":6.665802,
    "iso:country":"NL",
    "sg:address":"Grotestr 111-113",
    "sg:city":"Almelo",
    "sg:classifiers":[],
    "sg:orig_category":"Schoenen",
    "sg:owner":"simplegeo",
    "sg:phone":"+31 546 812 789",
    "sg:postcode":"7607 CH",
    "sg:province":"Overijssel",
    "src:geom":"simplegeo",
    "wof:belongsto":[
        85797827,
        85633337,
        101751863,
        85687045
    ],
    "wof:breaches":[],
    "wof:concordances":{
        "sg:id":"SG_6XmYat4sjwuY3SNAzqzSK8_52.354950_6.665802@1306269982"
    },
    "wof:country":"NL",
    "wof:geomhash":"c89def5a0fa58540f637c35ffb17b13e",
    "wof:hierarchy":[
        {
            "continent_id":-1,
            "country_id":85633337,
            "locality_id":101751863,
            "neighbourhood_id":85797827,
            "region_id":85687045,
            "venue_id":303325071
        }
    ],
    "wof:id":303325071,
    "wof:lastmodified":1448999078,
    "wof:name":"Dael Almelo Bv, Van",
    "wof:parent_id":85797827,
    "wof:placetype":"venue",
    "wof:superseded_by":[],
    "wof:supersedes":[],
    "wof:tags":[]
},
  "bbox": [6.665802,52.35495,6.665802,52.35495],
  "geometry": {"coordinates":[6.665802,52.35495],"type":"Point"}
}