{
  "id": 203019985,
  "type": "Feature",
  "properties": {
    "edtf:cessation":"u",
    "edtf:inception":"u",
    "geom:area":0.0,
    "geom:bbox":"4.585851,52.01239,4.585851,52.01239",
    "geom:latitude":52.01239,
    "geom:longitude":4.585851,
    "iso:country":"NL",
    "sg:address":"Asterstr 9",
    "sg:city":"Zevenhuizen Zh",
    "sg:classifiers":[],
    "sg:orig_category":"Verzekeringen - Verzekeringskantoren",
    "sg:owner":"simplegeo",
    "sg:phone":"+31 180 632 423",
    "sg:postcode":"2761 GS",
    "sg:province":"Zuid-Holland",
    "src:geom":"simplegeo",
    "wof:belongsto":[
        85798199,
        85633337,
        101807025,
        85687041
    ],
    "wof:breaches":[],
    "wof:concordances":{
        "sg:id":"SG_11VDpClSRCT6aGgwrOa44V_52.012390_4.585851@1306269920"
    },
    "wof:country":"NL",
    "wof:geomhash":"564b2648fd6700f35ff162274ec69d8d",
    "wof:hierarchy":[
        {
            "continent_id":-1,
            "country_id":85633337,
            "locality_id":101807025,
            "neighbourhood_id":85798199,
            "region_id":85687041,
            "venue_id":203019985
        }
    ],
    "wof:id":203019985,
    "wof:lastmodified":1449026039,
    "wof:name":"Sleeuwenhoek, N J",
    "wof:parent_id":85798199,
    "wof:placetype":"venue",
    "wof:superseded_by":[],
    "wof:supersedes":[],
    "wof:tags":[]
},
  "bbox": [4.585851,52.01239,4.585851,52.01239],
  "geometry": {"coordinates":[4.585851,52.01239],"type":"Point"}
}