{
  "id": 253500239,
  "type": "Feature",
  "properties": {
    "edtf:cessation":"u",
    "edtf:inception":"u",
    "geom:area":0.0,
    "geom:bbox":"5.458726,51.352127,5.458726,51.352127",
    "geom:latitude":51.352127,
    "geom:longitude":5.458726,
    "iso:country":"NL",
    "sg:address":"Passage 12",
    "sg:city":"Valkenswaard",
    "sg:classifiers":[],
    "sg:orig_category":"Parfumerie\u00c3\u00abn",
    "sg:owner":"simplegeo",
    "sg:phone":"+31 40 207 0827",
    "sg:postcode":"5554 AH",
    "sg:province":"Noord-Brabant",
    "src:geom":"simplegeo",
    "wof:belongsto":[
        85797043,
        85633337,
        85687035
    ],
    "wof:breaches":[],
    "wof:concordances":{
        "sg:id":"SG_0bMmAj8SfhzMkLwCUMDFnF_51.352127_5.458726@1306269950"
    },
    "wof:country":"NL",
    "wof:geomhash":"1e61421529d11cde5c5e686da66cf87e",
    "wof:hierarchy":[
        {
            "continent_id":-1,
            "country_id":85633337,
            "locality_id":-1,
            "neighbourhood_id":85797043,
            "region_id":85687035,
            "venue_id":253500239
        }
    ],
    "wof:id":253500239,
    "wof:lastmodified":1449063554,
    "wof:name":"Eurydice",
    "wof:parent_id":85797043,
    "wof:placetype":"venue",
    "wof:superseded_by":[],
    "wof:supersedes":[],
    "wof:tags":[]
},
  "bbox": [5.458726,51.352127,5.458726,51.352127],
  "geometry": {"coordinates":[5.458726,51.352127],"type":"Point"}
}