{
  "id": 320043469,
  "type": "Feature",
  "properties": {
    "edtf:cessation":"u",
    "edtf:inception":"u",
    "geom:area":0.0,
    "geom:bbox":"4.130618,51.826916,4.130618,51.826916",
    "geom:latitude":51.826916,
    "geom:longitude":4.130618,
    "iso:country":"NL",
    "sg:address":"Industriehaven 10B",
    "sg:city":"Hellevoetsluis",
    "sg:classifiers":[],
    "sg:orig_category":"Hypotheken",
    "sg:owner":"simplegeo",
    "sg:phone":"+31 181 317 193",
    "sg:postcode":"3221 AD",
    "sg:province":"South Holland",
    "sg:website":"http://www.pam-assurantiebemiddeling.nl",
    "src:geom":"simplegeo",
    "wof:belongsto":[
        85633337,
        101808501,
        85687041
    ],
    "wof:breaches":[],
    "wof:concordances":{
        "sg:id":"SG_3Bgto2FpRCvzPgCWBIjavT_51.826916_4.130618@1306269993"
    },
    "wof:country":"NL",
    "wof:geomhash":"82e942d0b8168376458011eed6761baa",
    "wof:hierarchy":[
        {
            "continent_id":-1,
            "country_id":85633337,
            "locality_id":101808501,
            "neighbourhood_id":-1,
            "region_id":85687041,
            "venue_id":320043469
        }
    ],
    "wof:id":320043469,
    "wof:lastmodified":1449014036,
    "wof:name":"Pam",
    "wof:parent_id":-1,
    "wof:placetype":"venue",
    "wof:superseded_by":[],
    "wof:supersedes":[],
    "wof:tags":[]
},
  "bbox": [4.130618,51.826916,4.130618,51.826916],
  "geometry": {"coordinates":[4.130618,51.826916],"type":"Point"}
}