{
  "id": 220045453,
  "type": "Feature",
  "properties": {
    "edtf:cessation":"u",
    "edtf:inception":"u",
    "geom:area":0.0,
    "geom:bbox":"5.1695,52.228565,5.1695,52.228565",
    "geom:latitude":52.228565,
    "geom:longitude":5.1695,
    "iso:country":"NL",
    "sg:address":"Steynln 14",
    "sg:city":"Hilversum",
    "sg:classifiers":[],
    "sg:orig_category":"Adviesbureaus Financieel",
    "sg:owner":"simplegeo",
    "sg:phone":"+31 35 629 4591",
    "sg:postcode":"1217 JS",
    "sg:province":"Noord-Holland",
    "src:geom":"simplegeo",
    "wof:belongsto":[
        85798083,
        85633337,
        101751905,
        85687053
    ],
    "wof:breaches":[],
    "wof:concordances":{
        "sg:id":"SG_57einK82enF7VyPdlxnfeZ_52.228565_5.169500@1306269931"
    },
    "wof:country":"NL",
    "wof:geomhash":"b9ac07d90c7b247c1d4d6bff4b815dee",
    "wof:hierarchy":[
        {
            "continent_id":-1,
            "country_id":85633337,
            "locality_id":101751905,
            "neighbourhood_id":85798083,
            "region_id":85687053,
            "venue_id":220045453
        }
    ],
    "wof:id":220045453,
    "wof:lastmodified":1449074780,
    "wof:name":"Fides",
    "wof:parent_id":85798083,
    "wof:placetype":"venue",
    "wof:superseded_by":[],
    "wof:supersedes":[],
    "wof:tags":[]
},
  "bbox": [5.1695,52.228565,5.1695,52.228565],
  "geometry": {"coordinates":[5.1695,52.228565],"type":"Point"}
}