{
  "id": 236295983,
  "type": "Feature",
  "properties": {
    "edtf:cessation":"u",
    "edtf:inception":"u",
    "geom:area":0.0,
    "geom:bbox":"5.647911,50.8395,5.647911,50.8395",
    "geom:latitude":50.8395,
    "geom:longitude":5.647911,
    "iso:country":"NL",
    "sg:address":"Penatenhof 90",
    "sg:city":"Maastricht",
    "sg:classifiers":[],
    "sg:orig_category":"Apotheken",
    "sg:owner":"simplegeo",
    "sg:phone":"+31 43 347 8986",
    "sg:postcode":"6215 BV",
    "sg:province":"Limburg",
    "src:geom":"simplegeo",
    "wof:belongsto":[
        85798317,
        85633337,
        101751803,
        85687033
    ],
    "wof:breaches":[],
    "wof:concordances":{
        "sg:id":"SG_3mUnap3DEZxShgxDekvSEr_50.839500_5.647911@1306269936"
    },
    "wof:country":"NL",
    "wof:geomhash":"6d43ba2dd15afefeb42c9bd1bae7f59b",
    "wof:hierarchy":[
        {
            "continent_id":-1,
            "country_id":85633337,
            "locality_id":101751803,
            "neighbourhood_id":85798317,
            "region_id":85687033,
            "venue_id":236295983
        }
    ],
    "wof:id":236295983,
    "wof:lastmodified":1449002905,
    "wof:name":"Thoor, E C M Van",
    "wof:parent_id":85798317,
    "wof:placetype":"venue",
    "wof:superseded_by":[],
    "wof:supersedes":[],
    "wof:tags":[]
},
  "bbox": [5.647911,50.8395,5.647911,50.8395],
  "geometry": {"coordinates":[5.647911,50.8395],"type":"Point"}
}