{
  "id": 253491679,
  "type": "Feature",
  "properties": {
    "edtf:cessation":"u",
    "edtf:inception":"u",
    "geom:area":0.0,
    "geom:bbox":"5.682873,51.248177,5.682873,51.248177",
    "geom:latitude":51.248177,
    "geom:longitude":5.682873,
    "iso:country":"NL",
    "sg:address":"Hoolstraat 25",
    "sg:city":"Weert",
    "sg:classifiers":[],
    "sg:orig_category":"Parfum And Cosmetica Gh",
    "sg:owner":"simplegeo",
    "sg:phone":"+31 495 547 409",
    "sg:postcode":"6006 SL",
    "sg:province":"Limburg",
    "src:geom":"simplegeo",
    "wof:belongsto":[
        85633337,
        101839205,
        85687033
    ],
    "wof:breaches":[],
    "wof:concordances":{
        "sg:id":"SG_4a0NFL6CUykhRCFCsUHC85_51.248177_5.682873@1306269950"
    },
    "wof:country":"NL",
    "wof:geomhash":"b01c6e546f22637a54f67e81db03cbc6",
    "wof:hierarchy":[
        {
            "continent_id":-1,
            "country_id":85633337,
            "locality_id":101839205,
            "neighbourhood_id":-1,
            "region_id":85687033,
            "venue_id":253491679
        }
    ],
    "wof:id":253491679,
    "wof:lastmodified":1449062778,
    "wof:name":"Cnc International",
    "wof:parent_id":-1,
    "wof:placetype":"venue",
    "wof:superseded_by":[],
    "wof:supersedes":[],
    "wof:tags":[]
},
  "bbox": [5.682873,51.248177,5.682873,51.248177],
  "geometry": {"coordinates":[5.682873,51.248177],"type":"Point"}
}