{
  "id": 253549331,
  "type": "Feature",
  "properties": {
    "edtf:cessation":"u",
    "edtf:inception":"u",
    "geom:area":0.0,
    "geom:bbox":"5.16908,52.218048,5.16908,52.218048",
    "geom:latitude":52.218048,
    "geom:longitude":5.16908,
    "iso:country":"NL",
    "sg:address":"Tulpstr 64",
    "sg:city":"Hilversum",
    "sg:classifiers":[
        {
            "category":"Personal",
            "subcategory":"Nail Salon",
            "type":"Services"
        }
    ],
    "sg:owner":"simplegeo",
    "sg:phone":"+31 35 623 5048",
    "sg:postcode":"1214 CE",
    "sg:province":"Noord-Holland",
    "sg:tags":[
        "pedicure"
    ],
    "src:geom":"simplegeo",
    "wof:belongsto":[
        85798083,
        85633337,
        101751905,
        85687053
    ],
    "wof:breaches":[],
    "wof:concordances":{
        "sg:id":"SG_1O6KqSo1p3dcYi1QCOe9Oq_52.218048_5.169080@1306269951"
    },
    "wof:country":"NL",
    "wof:geomhash":"edec1c749c824e1fb9583a74b936168e",
    "wof:hierarchy":[
        {
            "continent_id":-1,
            "country_id":85633337,
            "locality_id":101751905,
            "neighbourhood_id":85798083,
            "region_id":85687053,
            "venue_id":253549331
        }
    ],
    "wof:id":253549331,
    "wof:lastmodified":1449063628,
    "wof:name":"Henri\u00ebtte Salon",
    "wof:parent_id":85798083,
    "wof:placetype":"venue",
    "wof:superseded_by":[],
    "wof:supersedes":[],
    "wof:tags":[
        "pedicure"
    ]
},
  "bbox": [5.16908,52.218048,5.16908,52.218048],
  "geometry": {"coordinates":[5.16908,52.218048],"type":"Point"}
}