{
  "id": 236641053,
  "type": "Feature",
  "properties": {
    "edtf:cessation":"u",
    "edtf:inception":"u",
    "geom:area":0.0,
    "geom:bbox":"4.557179,51.911892,4.557179,51.911892",
    "geom:latitude":51.911892,
    "geom:longitude":4.557179,
    "iso:country":"NL",
    "sg:address":"Edelhertstraat 12",
    "sg:city":"Capelle A/D Ijssel",
    "sg:classifiers":[],
    "sg:orig_category":"Autokeuringen",
    "sg:owner":"simplegeo",
    "sg:phone":"+31 10 451 0364",
    "sg:postcode":"2901 BJ",
    "sg:province":"South Holland",
    "src:geom":"simplegeo",
    "wof:belongsto":[
        85797865,
        85633337,
        101754669,
        85687041
    ],
    "wof:breaches":[],
    "wof:concordances":{
        "sg:id":"SG_53f9l1pqCJwRw24P2lcBNX_51.911892_4.557179@1306269939"
    },
    "wof:country":"NL",
    "wof:geomhash":"d6dfc64606b250aebcee58f7e6b39931",
    "wof:hierarchy":[
        {
            "continent_id":-1,
            "country_id":85633337,
            "locality_id":101754669,
            "neighbourhood_id":85797865,
            "region_id":85687041,
            "venue_id":236641053
        }
    ],
    "wof:id":236641053,
    "wof:lastmodified":1449004292,
    "wof:name":"Spuitexpress Bv",
    "wof:parent_id":85797865,
    "wof:placetype":"venue",
    "wof:superseded_by":[],
    "wof:supersedes":[],
    "wof:tags":[]
},
  "bbox": [4.557179,51.911892,4.557179,51.911892],
  "geometry": {"coordinates":[4.557179,51.911892],"type":"Point"}
}