{
  "id": 253721443,
  "type": "Feature",
  "properties": {
    "edtf:cessation":"u",
    "edtf:inception":"u",
    "geom:area":0.0,
    "geom:bbox":"5.939345,51.651512,5.939345,51.651512",
    "geom:latitude":51.651512,
    "geom:longitude":5.939345,
    "iso:country":"NL",
    "sg:address":"Daniel Mijtenstraat 6",
    "sg:city":"Boxmeer",
    "sg:classifiers":[],
    "sg:orig_category":"Pleziervaartuigen And Reparatie",
    "sg:owner":"simplegeo",
    "sg:phone":"+31 485 574 409",
    "sg:postcode":"5831 BL",
    "sg:province":"North Brabant",
    "src:geom":"simplegeo",
    "wof:belongsto":[
        85633337,
        101839331,
        85687035
    ],
    "wof:breaches":[],
    "wof:concordances":{
        "sg:id":"SG_0XsNIFRiLXvY2UtCUZLXG1_51.651512_5.939345@1306269953"
    },
    "wof:country":"NL",
    "wof:geomhash":"92533f059e1d87421e2d38eeb9b6afd2",
    "wof:hierarchy":[
        {
            "continent_id":-1,
            "country_id":85633337,
            "locality_id":101839331,
            "neighbourhood_id":-1,
            "region_id":85687035,
            "venue_id":253721443
        }
    ],
    "wof:id":253721443,
    "wof:lastmodified":1449065796,
    "wof:name":"Watersportvereniging Boxmeer",
    "wof:parent_id":-1,
    "wof:placetype":"venue",
    "wof:superseded_by":[],
    "wof:supersedes":[],
    "wof:tags":[]
},
  "bbox": [5.939345,51.651512,5.939345,51.651512],
  "geometry": {"coordinates":[5.939345,51.651512],"type":"Point"}
}