{
  "id": 270505835,
  "type": "Feature",
  "properties": {
    "edtf:cessation":"u",
    "edtf:inception":"u",
    "geom:area":0.0,
    "geom:bbox":"4.935177,52.351994,4.935177,52.351994",
    "geom:latitude":52.351994,
    "geom:longitude":4.935177,
    "iso:country":"NL",
    "sg:address":"Linaeushof 46",
    "sg:city":"Amsterdam",
    "sg:classifiers":[
        {
            "category":"Education",
            "subcategory":"Preschool",
            "type":"Public Place"
        }
    ],
    "sg:owner":"simplegeo",
    "sg:phone":"+31 20 668 5387",
    "sg:postcode":"1098 KM",
    "sg:province":"North Holland",
    "sg:tags":[
        "kleuteronderwijs",
        "basis-"
    ],
    "src:geom":"simplegeo",
    "wof:belongsto":[
        85798627,
        85633337,
        101751893,
        85687053
    ],
    "wof:breaches":[],
    "wof:concordances":{
        "sg:id":"SG_6EHUf3rcYGNMK9ES6JsNM9_52.351994_4.935177@1306269966"
    },
    "wof:country":"NL",
    "wof:geomhash":"d8e7893dee752af6895ebe193c3ac0a3",
    "wof:hierarchy":[
        {
            "continent_id":-1,
            "country_id":85633337,
            "locality_id":101751893,
            "neighbourhood_id":85798627,
            "region_id":85687053,
            "venue_id":270505835
        }
    ],
    "wof:id":270505835,
    "wof:lastmodified":1449010675,
    "wof:name":"De Meer",
    "wof:parent_id":85798627,
    "wof:placetype":"venue",
    "wof:superseded_by":[],
    "wof:supersedes":[],
    "wof:tags":[
        "kleuteronderwijs",
        "basis-"
    ]
},
  "bbox": [4.935177,52.351994,4.935177,52.351994],
  "geometry": {"coordinates":[4.935177,52.351994],"type":"Point"}
}