{
  "id": 219424319,
  "type": "Feature",
  "properties": {
    "edtf:cessation":"u",
    "edtf:inception":"u",
    "geom:area":0.0,
    "geom:bbox":"6.562139,53.220833,6.562139,53.220833",
    "geom:latitude":53.220833,
    "geom:longitude":6.562139,
    "iso:country":"NL",
    "sg:address":"Lopendediep 10",
    "sg:city":"Groningen",
    "sg:classifiers":[],
    "sg:orig_category":"Loodgieterswerk, Verwarming And Sanitaire Installaties",
    "sg:owner":"simplegeo",
    "sg:phone":"+31 50 312 8773",
    "sg:postcode":"9712 NW",
    "sg:province":"Groningen",
    "src:geom":"simplegeo",
    "wof:belongsto":[
        85797835,
        85633337,
        85687059
    ],
    "wof:breaches":[],
    "wof:concordances":{
        "sg:id":"SG_5QIOgI9RVbsf8FK06zZA5S_53.220833_6.562139@1306269926"
    },
    "wof:country":"NL",
    "wof:geomhash":"774b27361bb913336c42a402cebe1c40",
    "wof:hierarchy":[
        {
            "continent_id":-1,
            "country_id":85633337,
            "locality_id":-1,
            "neighbourhood_id":85797835,
            "region_id":85687059,
            "venue_id":219424319
        }
    ],
    "wof:id":219424319,
    "wof:lastmodified":1449073686,
    "wof:name":"R J Sharples",
    "wof:parent_id":85797835,
    "wof:placetype":"venue",
    "wof:superseded_by":[],
    "wof:supersedes":[],
    "wof:tags":[]
},
  "bbox": [6.562139,53.220833,6.562139,53.220833],
  "geometry": {"coordinates":[6.562139,53.220833],"type":"Point"}
}