{
  "id": 286304455,
  "type": "Feature",
  "properties": {
    "edtf:cessation":"u",
    "edtf:inception":"u",
    "geom:area":0.0,
    "geom:bbox":"5.676337,51.605797,5.676337,51.605797",
    "geom:latitude":51.605797,
    "geom:longitude":5.676337,
    "iso:country":"NL",
    "sg:address":"Parkweg 8",
    "sg:city":"Boekel",
    "sg:classifiers":[
        {
            "category":"Education",
            "subcategory":"Preschool",
            "type":"Public Place"
        }
    ],
    "sg:owner":"simplegeo",
    "sg:phone":"+31 492 322 163",
    "sg:postcode":"5427 AL",
    "sg:province":"North Brabant",
    "sg:tags":[
        "kleuteronderwijs",
        "basis-"
    ],
    "src:geom":"simplegeo",
    "wof:belongsto":[
        85633337,
        101808169,
        85687035
    ],
    "wof:breaches":[],
    "wof:concordances":{
        "sg:id":"SG_3LpbjzG1xcpTEkhN0pJnKR_51.605797_5.676337@1306269967"
    },
    "wof:country":"NL",
    "wof:geomhash":"08768483c093182dd393608f76580f22",
    "wof:hierarchy":[
        {
            "continent_id":-1,
            "country_id":85633337,
            "locality_id":101808169,
            "neighbourhood_id":-1,
            "region_id":85687035,
            "venue_id":286304455
        }
    ],
    "wof:id":286304455,
    "wof:lastmodified":1449017372,
    "wof:name":"Peuterspeelzaal De Mieren",
    "wof:parent_id":-1,
    "wof:placetype":"venue",
    "wof:superseded_by":[],
    "wof:supersedes":[],
    "wof:tags":[
        "kleuteronderwijs",
        "basis-"
    ]
},
  "bbox": [5.676337,51.605797,5.676337,51.605797],
  "geometry": {"coordinates":[5.676337,51.605797],"type":"Point"}
}