{
  "id": 269839981,
  "type": "Feature",
  "properties": {
    "edtf:cessation":"u",
    "edtf:inception":"u",
    "geom:area":0.0,
    "geom:bbox":"4.636558,52.263554,4.636558,52.263554",
    "geom:latitude":52.263554,
    "geom:longitude":4.636558,
    "iso:country":"NL",
    "sg:address":"Venneperweg 457",
    "sg:city":"Nieuw Vennep",
    "sg:classifiers":[
        {
            "category":"Fast Food",
            "subcategory":"",
            "type":"Food & Drink"
        }
    ],
    "sg:owner":"simplegeo",
    "sg:phone":"+31 252 689 568",
    "sg:postcode":"2153 AD",
    "sg:province":"North Holland",
    "sg:tags":[
        "afhaal",
        "restaurant"
    ],
    "src:geom":"simplegeo",
    "wof:belongsto":[
        85797085,
        85633337,
        85687053
    ],
    "wof:breaches":[],
    "wof:concordances":{
        "sg:id":"SG_0rPWKPF4ocZDoM8bH7Clnj_52.263554_4.636558@1306269958"
    },
    "wof:country":"NL",
    "wof:geomhash":"bd2c7306c625623b9140f36cd0ae7445",
    "wof:hierarchy":[
        {
            "continent_id":-1,
            "country_id":85633337,
            "locality_id":-1,
            "neighbourhood_id":85797085,
            "region_id":85687053,
            "venue_id":269839981
        }
    ],
    "wof:id":269839981,
    "wof:lastmodified":1449037598,
    "wof:name":"Pizzeria Shoarma Mamma Mia",
    "wof:parent_id":85797085,
    "wof:placetype":"venue",
    "wof:superseded_by":[],
    "wof:supersedes":[],
    "wof:tags":[
        "afhaal",
        "restaurant"
    ]
},
  "bbox": [4.636558,52.263554,4.636558,52.263554],
  "geometry": {"coordinates":[4.636558,52.263554],"type":"Point"}
}