{
  "id": 320561705,
  "type": "Feature",
  "properties": {
    "edtf:cessation":"u",
    "edtf:inception":"u",
    "geom:area":0.0,
    "geom:bbox":"4.215821,52.012032,4.215821,52.012032",
    "geom:latitude":52.012032,
    "geom:longitude":4.215821,
    "iso:country":"NL",
    "sg:address":"Nieuweweg 78",
    "sg:city":"Honselersdijk",
    "sg:classifiers":[
        {
            "category":"Food & Beverages",
            "subcategory":"Fruits & Vegetables",
            "type":"Retail Goods"
        }
    ],
    "sg:owner":"simplegeo",
    "sg:phone":"+31 174 626 497",
    "sg:postcode":"2675 BJ",
    "sg:province":"Zuid-Holland",
    "sg:tags":[
        "groenten"
    ],
    "src:geom":"simplegeo",
    "wof:belongsto":[
        85859557,
        85633337,
        85687041
    ],
    "wof:breaches":[],
    "wof:concordances":{
        "sg:id":"SG_30KsUgPZrpu5xLPFRqsimO_52.012032_4.215821@1306270000"
    },
    "wof:country":"NL",
    "wof:geomhash":"86db4db1b7a11aa988786a12c658a06a",
    "wof:hierarchy":[
        {
            "continent_id":-1,
            "country_id":85633337,
            "locality_id":-1,
            "neighbourhood_id":85859557,
            "region_id":85687041,
            "venue_id":320561705
        }
    ],
    "wof:id":320561705,
    "wof:lastmodified":1449013913,
    "wof:name":"J S A Gregoire",
    "wof:parent_id":85859557,
    "wof:placetype":"venue",
    "wof:superseded_by":[],
    "wof:supersedes":[],
    "wof:tags":[
        "groenten"
    ]
},
  "bbox": [4.215821,52.012032,4.215821,52.012032],
  "geometry": {"coordinates":[4.215821,52.012032],"type":"Point"}
}