{
  "id": 303151097,
  "type": "Feature",
  "properties": {
    "edtf:cessation":"u",
    "edtf:inception":"u",
    "geom:area":0.0,
    "geom:bbox":"4.499093,52.120205,4.499093,52.120205",
    "geom:latitude":52.120205,
    "geom:longitude":4.499093,
    "iso:country":"NL",
    "sg:address":"Watertje 19",
    "sg:city":"Zoeterwoude",
    "sg:classifiers":[
        {
            "category":"Food & Beverages",
            "subcategory":"Bakery",
            "type":"Retail Goods"
        }
    ],
    "sg:owner":"simplegeo",
    "sg:phone":"+31 71 580 1229",
    "sg:postcode":"2381 EG",
    "sg:province":"Zuid-Holland",
    "sg:tags":[
        "brood",
        "en",
        "banket"
    ],
    "src:geom":"simplegeo",
    "wof:belongsto":[
        85798589,
        85633337,
        85687041
    ],
    "wof:breaches":[],
    "wof:concordances":{
        "sg:id":"SG_6MgPl6zL6RlfECzRbVqPVs_52.120205_4.499093@1306269980"
    },
    "wof:country":"NL",
    "wof:geomhash":"09d2523c754432f8a65e43841995b954",
    "wof:hierarchy":[
        {
            "continent_id":-1,
            "country_id":85633337,
            "locality_id":-1,
            "neighbourhood_id":85798589,
            "region_id":85687041,
            "venue_id":303151097
        }
    ],
    "wof:id":303151097,
    "wof:lastmodified":1448998142,
    "wof:name":"Watertje, 'T",
    "wof:parent_id":85798589,
    "wof:placetype":"venue",
    "wof:superseded_by":[],
    "wof:supersedes":[],
    "wof:tags":[
        "brood",
        "en",
        "banket"
    ]
},
  "bbox": [4.499093,52.120205,4.499093,52.120205],
  "geometry": {"coordinates":[4.499093,52.120205],"type":"Point"}
}