{
  "id": 202519667,
  "type": "Feature",
  "properties": {
    "edtf:cessation":"u",
    "edtf:inception":"u",
    "geom:area":0.0,
    "geom:bbox":"5.165889,52.215168,5.165889,52.215168",
    "geom:latitude":52.215168,
    "geom:longitude":5.165889,
    "iso:country":"NL",
    "sg:address":"Gijsbrecht Van Amstelstraat 225",
    "sg:city":"Hilversum",
    "sg:classifiers":[
        {
            "category":"Communications",
            "subcategory":"Television Station",
            "type":"Services"
        }
    ],
    "sg:owner":"simplegeo",
    "sg:phone":"+31 35 624 5878",
    "sg:postcode":"1214 BA",
    "sg:province":"North Holland",
    "sg:tags":[
        "video",
        "audio",
        "verhuur"
    ],
    "src:geom":"simplegeo",
    "wof:belongsto":[
        85797793,
        85633337,
        85687053
    ],
    "wof:breaches":[],
    "wof:concordances":{
        "sg:id":"SG_0DUXZhZQ1yKvFcrrzZvPfb_52.215168_5.165889@1306269915"
    },
    "wof:country":"NL",
    "wof:geomhash":"42a842d8cfe281fb26ef1e2515162919",
    "wof:hierarchy":[
        {
            "continent_id":-1,
            "country_id":85633337,
            "locality_id":-1,
            "neighbourhood_id":85797793,
            "region_id":85687053,
            "venue_id":202519667
        }
    ],
    "wof:id":202519667,
    "wof:lastmodified":1449062475,
    "wof:name":"Filmclub Videotheek Hilversum",
    "wof:parent_id":85797793,
    "wof:placetype":"venue",
    "wof:superseded_by":[],
    "wof:supersedes":[],
    "wof:tags":[
        "video",
        "audio",
        "verhuur"
    ]
},
  "bbox": [5.165889,52.215168,5.165889,52.215168],
  "geometry": {"coordinates":[5.165889,52.215168],"type":"Point"}
}