{
  "id": 253144451,
  "type": "Feature",
  "properties": {
    "edtf:cessation":"u",
    "edtf:inception":"u",
    "geom:area":0.0,
    "geom:bbox":"6.755755,53.163406,6.755755,53.163406",
    "geom:latitude":53.163406,
    "geom:longitude":6.755755,
    "iso:country":"NL",
    "sg:address":"Kerkstr 10",
    "sg:city":"Hoogezand",
    "sg:classifiers":[],
    "sg:orig_category":"Meubelen",
    "sg:owner":"simplegeo",
    "sg:phone":"+31 598 393 677",
    "sg:postcode":"9601 AK",
    "sg:province":"Groningen",
    "src:geom":"simplegeo",
    "wof:belongsto":[
        85797767,
        85633337,
        85687059
    ],
    "wof:breaches":[],
    "wof:concordances":{
        "sg:id":"SG_5bWAPNmBtR04IFEXomp6KE_53.163406_6.755755@1306269946"
    },
    "wof:country":"NL",
    "wof:geomhash":"6a60515584abf4eb6d866f9937e17145",
    "wof:hierarchy":[
        {
            "continent_id":-1,
            "country_id":85633337,
            "locality_id":-1,
            "neighbourhood_id":85797767,
            "region_id":85687059,
            "venue_id":253144451
        }
    ],
    "wof:id":253144451,
    "wof:lastmodified":1449064993,
    "wof:name":"Nijburg",
    "wof:parent_id":85797767,
    "wof:placetype":"venue",
    "wof:superseded_by":[],
    "wof:supersedes":[],
    "wof:tags":[]
},
  "bbox": [6.755755,53.163406,6.755755,53.163406],
  "geometry": {"coordinates":[6.755755,53.163406],"type":"Point"}
}