{
  "id": 320120403,
  "type": "Feature",
  "properties": {
    "edtf:cessation":"u",
    "edtf:inception":"u",
    "geom:area":0.0,
    "geom:bbox":"5.707615,52.844349,5.707615,52.844349",
    "geom:latitude":52.844349,
    "geom:longitude":5.707615,
    "iso:country":"NL",
    "sg:address":"Nieuwedijk 59",
    "sg:city":"Lemmer",
    "sg:classifiers":[
        {
            "category":"Retail",
            "subcategory":"Auto Repair",
            "type":"Services"
        }
    ],
    "sg:owner":"simplegeo",
    "sg:phone":"+31 514 561 853",
    "sg:postcode":"8531 HL",
    "sg:province":"Friesland",
    "sg:tags":[
        "garage"
    ],
    "src:geom":"simplegeo",
    "wof:belongsto":[
        85633337,
        101807477,
        85687055
    ],
    "wof:breaches":[],
    "wof:concordances":{
        "sg:id":"SG_3UIPEXqB3jFkwaQdDZzsmN_52.844349_5.707615@1306269995"
    },
    "wof:country":"NL",
    "wof:geomhash":"4b4bd6c9395c8062e99758bdd33cd362",
    "wof:hierarchy":[
        {
            "continent_id":-1,
            "country_id":85633337,
            "locality_id":101807477,
            "neighbourhood_id":-1,
            "region_id":85687055,
            "venue_id":320120403
        }
    ],
    "wof:id":320120403,
    "wof:lastmodified":1449014440,
    "wof:name":"Weber",
    "wof:parent_id":-1,
    "wof:placetype":"venue",
    "wof:superseded_by":[],
    "wof:supersedes":[],
    "wof:tags":[
        "garage"
    ]
},
  "bbox": [5.707615,52.844349,5.707615,52.844349],
  "geometry": {"coordinates":[5.707615,52.844349],"type":"Point"}
}