{
  "id": 219651895,
  "type": "Feature",
  "properties": {
    "edtf:cessation":"u",
    "edtf:inception":"u",
    "geom:area":0.0,
    "geom:bbox":"4.57098,52.362644,4.57098,52.362644",
    "geom:latitude":52.362644,
    "geom:longitude":4.57098,
    "iso:country":"NL",
    "sg:address":"Teunisbloemln 20",
    "sg:city":"Bentveld",
    "sg:classifiers":[],
    "sg:orig_category":"Administratie- En Boekhoudkantoren",
    "sg:owner":"simplegeo",
    "sg:phone":"+31 23 544 1217",
    "sg:postcode":"2116 TD",
    "sg:province":"Noord-Holland",
    "src:geom":"simplegeo",
    "wof:belongsto":[
        85797103,
        85633337,
        101754813,
        85687053
    ],
    "wof:breaches":[],
    "wof:concordances":{
        "sg:id":"SG_1Gti8lae4nrZR2nAHSqwA5_52.362644_4.570980@1306269928"
    },
    "wof:country":"NL",
    "wof:geomhash":"1750e5f11b79b3788c2a7469708799b6",
    "wof:hierarchy":[
        {
            "continent_id":-1,
            "country_id":85633337,
            "locality_id":101754813,
            "neighbourhood_id":85797103,
            "region_id":85687053,
            "venue_id":219651895
        }
    ],
    "wof:id":219651895,
    "wof:lastmodified":1449071095,
    "wof:name":"Izelaar Bv",
    "wof:parent_id":85797103,
    "wof:placetype":"venue",
    "wof:superseded_by":[],
    "wof:supersedes":[],
    "wof:tags":[]
},
  "bbox": [4.57098,52.362644,4.57098,52.362644],
  "geometry": {"coordinates":[4.57098,52.362644],"type":"Point"}
}