{
  "id": 253343563,
  "type": "Feature",
  "properties": {
    "edtf:cessation":"u",
    "edtf:inception":"u",
    "geom:area":0.0,
    "geom:bbox":"6.289348,51.950981,6.289348,51.950981",
    "geom:latitude":51.950981,
    "geom:longitude":6.289348,
    "iso:country":"NL",
    "sg:address":"Havenstr 52",
    "sg:city":"Doetinchem",
    "sg:classifiers":[],
    "sg:orig_category":"Mobiele- En Autotelefoons",
    "sg:owner":"simplegeo",
    "sg:phone":"+31 314 344 000",
    "sg:postcode":"7005 AG",
    "sg:province":"Gelderland",
    "src:geom":"simplegeo",
    "wof:belongsto":[
        85797329,
        85633337,
        85687043
    ],
    "wof:breaches":[],
    "wof:concordances":{
        "sg:id":"SG_0gBqXIgpodtYMmFuqEVBOP_51.950981_6.289348@1306269948"
    },
    "wof:country":"NL",
    "wof:geomhash":"fbb6b12a64fd6588e351235cb8bad6f0",
    "wof:hierarchy":[
        {
            "continent_id":-1,
            "country_id":85633337,
            "locality_id":-1,
            "neighbourhood_id":85797329,
            "region_id":85687043,
            "venue_id":253343563
        }
    ],
    "wof:id":253343563,
    "wof:lastmodified":1449064931,
    "wof:name":"A&F Bv",
    "wof:parent_id":85797329,
    "wof:placetype":"venue",
    "wof:superseded_by":[],
    "wof:supersedes":[],
    "wof:tags":[]
},
  "bbox": [6.289348,51.950981,6.289348,51.950981],
  "geometry": {"coordinates":[6.289348,51.950981],"type":"Point"}
}