{
  "id": 253292941,
  "type": "Feature",
  "properties": {
    "edtf:cessation":"u",
    "edtf:inception":"u",
    "geom:area":0.0,
    "geom:bbox":"6.64226,52.341038,6.64226,52.341038",
    "geom:latitude":52.341038,
    "geom:longitude":6.64226,
    "iso:country":"NL",
    "sg:address":"Woonboulevard 12",
    "sg:city":"Almelo",
    "sg:classifiers":[],
    "sg:orig_category":"Meubelzaken, Woning- And Keukeninrichting",
    "sg:owner":"simplegeo",
    "sg:phone":"+31 546 824 930",
    "sg:postcode":"7606 JA",
    "sg:province":"Overijssel",
    "src:geom":"simplegeo",
    "wof:belongsto":[
        85633337,
        101751863,
        85687045
    ],
    "wof:breaches":[],
    "wof:concordances":{
        "sg:id":"SG_0qSI7VJfOif2355JzzHZHK_52.341038_6.642260@1306269948"
    },
    "wof:country":"NL",
    "wof:geomhash":"3d62c77b7e6db529f79d6d784273334a",
    "wof:hierarchy":[
        {
            "continent_id":-1,
            "country_id":85633337,
            "locality_id":101751863,
            "neighbourhood_id":-1,
            "region_id":85687045,
            "venue_id":253292941
        }
    ],
    "wof:id":253292941,
    "wof:lastmodified":1449063067,
    "wof:name":"Leenbakker",
    "wof:parent_id":-1,
    "wof:placetype":"venue",
    "wof:superseded_by":[],
    "wof:supersedes":[],
    "wof:tags":[]
},
  "bbox": [6.64226,52.341038,6.64226,52.341038],
  "geometry": {"coordinates":[6.64226,52.341038],"type":"Point"}
}