{
  "id": 320073945,
  "type": "Feature",
  "properties": {
    "edtf:cessation":"u",
    "edtf:inception":"u",
    "geom:area":0.0,
    "geom:bbox":"6.79992,53.244247,6.79992,53.244247",
    "geom:latitude":53.244247,
    "geom:longitude":6.79992,
    "iso:country":"NL",
    "sg:address":"Meentewg 100",
    "sg:city":"Schildwolde",
    "sg:classifiers":[
        {
            "category":"Retail",
            "subcategory":"Auto Repair",
            "type":"Services"
        }
    ],
    "sg:owner":"simplegeo",
    "sg:phone":"+31 598 421 751",
    "sg:postcode":"9626 BK",
    "sg:province":"Groningen",
    "sg:tags":[
        "garage"
    ],
    "src:geom":"simplegeo",
    "wof:belongsto":[
        85633337,
        85687059
    ],
    "wof:breaches":[],
    "wof:concordances":{
        "sg:id":"SG_4mdpHAsYhalH445rbM2pc3_53.244247_6.799920@1306269994"
    },
    "wof:country":"NL",
    "wof:geomhash":"d5f89b7a9c6eb11c9b266b81a3382114",
    "wof:hierarchy":[
        {
            "continent_id":-1,
            "country_id":85633337,
            "locality_id":-1,
            "neighbourhood_id":-1,
            "region_id":85687059,
            "venue_id":320073945
        }
    ],
    "wof:id":320073945,
    "wof:lastmodified":1449011767,
    "wof:name":"Hans Drent Autobedrijf",
    "wof:parent_id":-1,
    "wof:placetype":"venue",
    "wof:superseded_by":[],
    "wof:supersedes":[],
    "wof:tags":[
        "garage"
    ]
},
  "bbox": [6.79992,53.244247,6.79992,53.244247],
  "geometry": {"coordinates":[6.79992,53.244247],"type":"Point"}
}