{
  "id": 220173163,
  "type": "Feature",
  "properties": {
    "edtf:cessation":"u",
    "edtf:inception":"u",
    "geom:area":0.0,
    "geom:bbox":"4.660731,51.812099,4.660731,51.812099",
    "geom:latitude":51.812099,
    "geom:longitude":4.660731,
    "iso:country":"NL",
    "sg:address":"Spuiboulev 362",
    "sg:city":"Dordrecht",
    "sg:classifiers":[],
    "sg:orig_category":"Advocaten En Advocatenkantoren",
    "sg:owner":"simplegeo",
    "sg:phone":"+31 78 631 2366",
    "sg:postcode":"3311 GR",
    "sg:province":"Zuid-Holland",
    "src:geom":"simplegeo",
    "wof:belongsto":[
        85797875,
        85633337,
        101751841,
        85687041
    ],
    "wof:breaches":[],
    "wof:concordances":{
        "sg:id":"SG_0UXAPkXpZmWuLfM8kQ0R6f_51.812099_4.660731@1306269932"
    },
    "wof:country":"NL",
    "wof:geomhash":"706678ee803682223a6b7aff48d3258b",
    "wof:hierarchy":[
        {
            "continent_id":-1,
            "country_id":85633337,
            "locality_id":101751841,
            "neighbourhood_id":85797875,
            "region_id":85687041,
            "venue_id":220173163
        }
    ],
    "wof:id":220173163,
    "wof:lastmodified":1449074198,
    "wof:name":"Jong, Mr M A M De",
    "wof:parent_id":85797875,
    "wof:placetype":"venue",
    "wof:superseded_by":[],
    "wof:supersedes":[],
    "wof:tags":[]
},
  "bbox": [4.660731,51.812099,4.660731,51.812099],
  "geometry": {"coordinates":[4.660731,51.812099],"type":"Point"}
}