{
  "id": 202844355,
  "type": "Feature",
  "properties": {
    "edtf:cessation":"u",
    "edtf:inception":"u",
    "geom:area":0.0,
    "geom:bbox":"5.023665,52.73019,5.023665,52.73019",
    "geom:latitude":52.73019,
    "geom:longitude":5.023665,
    "iso:country":"NL",
    "sg:address":"Lindenstr 19",
    "sg:city":"Abbekerk",
    "sg:classifiers":[],
    "sg:orig_category":"Vertaalbureaus",
    "sg:owner":"simplegeo",
    "sg:phone":"+31 229 582 056",
    "sg:postcode":"1657 AS",
    "sg:province":"Noord-Holland",
    "src:geom":"simplegeo",
    "wof:belongsto":[
        85633337,
        101807323,
        85687053
    ],
    "wof:breaches":[],
    "wof:concordances":{
        "sg:id":"SG_0mTUmdXgfEOx3JMChvv0bs_52.730190_5.023665@1306269918"
    },
    "wof:country":"NL",
    "wof:geomhash":"85b6ae5d69d239022b777423973bb576",
    "wof:hierarchy":[
        {
            "continent_id":-1,
            "country_id":85633337,
            "locality_id":101807323,
            "neighbourhood_id":-1,
            "region_id":85687053,
            "venue_id":202844355
        }
    ],
    "wof:id":202844355,
    "wof:lastmodified":1449061196,
    "wof:name":"Polonia",
    "wof:parent_id":-1,
    "wof:placetype":"venue",
    "wof:superseded_by":[],
    "wof:supersedes":[],
    "wof:tags":[]
},
  "bbox": [5.023665,52.73019,5.023665,52.73019],
  "geometry": {"coordinates":[5.023665,52.73019],"type":"Point"}
}