{
  "id": 253631101,
  "type": "Feature",
  "properties": {
    "edtf:cessation":"u",
    "edtf:inception":"u",
    "geom:area":0.0,
    "geom:bbox":"5.546611,53.185993,5.546611,53.185993",
    "geom:latitude":53.185993,
    "geom:longitude":5.546611,
    "iso:country":"NL",
    "sg:address":"Godsacker 15",
    "sg:city":"Franeker",
    "sg:classifiers":[],
    "sg:orig_category":"Peuterspeelzalen",
    "sg:owner":"simplegeo",
    "sg:phone":"+31 517 395 080",
    "sg:postcode":"8801 LM",
    "sg:province":"Friesland",
    "src:geom":"simplegeo",
    "wof:belongsto":[
        85633337,
        101806163,
        85687055
    ],
    "wof:breaches":[],
    "wof:concordances":{
        "sg:id":"SG_4AbhSVNE64BPh9PtPmNMIy_53.185993_5.546611@1306269952"
    },
    "wof:country":"NL",
    "wof:geomhash":"84f7d52ed452910b6b12ace0cb6c4286",
    "wof:hierarchy":[
        {
            "continent_id":-1,
            "country_id":85633337,
            "locality_id":101806163,
            "neighbourhood_id":-1,
            "region_id":85687055,
            "venue_id":253631101
        }
    ],
    "wof:id":253631101,
    "wof:lastmodified":1449063734,
    "wof:name":"Krobbeh\u00fbs, 'T",
    "wof:parent_id":-1,
    "wof:placetype":"venue",
    "wof:superseded_by":[],
    "wof:supersedes":[],
    "wof:tags":[]
},
  "bbox": [5.546611,53.185993,5.546611,53.185993],
  "geometry": {"coordinates":[5.546611,53.185993],"type":"Point"}
}