{
  "id": 320237983,
  "type": "Feature",
  "properties": {
    "edtf:cessation":"u",
    "edtf:inception":"u",
    "geom:area":0.0,
    "geom:bbox":"6.818073,52.216324,6.818073,52.216324",
    "geom:latitude":52.216324,
    "geom:longitude":6.818073,
    "iso:country":"NL",
    "sg:address":"Masstede 128",
    "sg:city":"Enschede",
    "sg:classifiers":[],
    "sg:orig_category":"Gespecialiseerde Bouw",
    "sg:owner":"simplegeo",
    "sg:phone":"+31 53 434 8900",
    "sg:postcode":"7547 TD",
    "sg:province":"NL.08",
    "src:geom":"simplegeo",
    "wof:belongsto":[
        85797203,
        85633337,
        85687045
    ],
    "wof:breaches":[],
    "wof:concordances":{
        "sg:id":"SG_02DOakk4pEibtVZCdazOKX_52.216324_6.818073@1306269996"
    },
    "wof:country":"NL",
    "wof:geomhash":"3764ac5611ac88cb79c75a233afbb5a0",
    "wof:hierarchy":[
        {
            "continent_id":-1,
            "country_id":85633337,
            "locality_id":-1,
            "neighbourhood_id":85797203,
            "region_id":85687045,
            "venue_id":320237983
        }
    ],
    "wof:id":320237983,
    "wof:lastmodified":1449011352,
    "wof:name":"Dikkerboom Betonboringen Bv",
    "wof:parent_id":85797203,
    "wof:placetype":"venue",
    "wof:superseded_by":[],
    "wof:supersedes":[],
    "wof:tags":[]
},
  "bbox": [6.818073,52.216324,6.818073,52.216324],
  "geometry": {"coordinates":[6.818073,52.216324],"type":"Point"}
}