{
  "id": 219500195,
  "type": "Feature",
  "properties": {
    "edtf:cessation":"u",
    "edtf:inception":"u",
    "geom:area":0.0,
    "geom:bbox":"5.698828,50.852573,5.698828,50.852573",
    "geom:latitude":50.852573,
    "geom:longitude":5.698828,
    "iso:country":"NL",
    "sg:address":"F Romanuswg 60",
    "sg:city":"Maastricht",
    "sg:classifiers":[],
    "sg:orig_category":"Loopbaanbegeleiding",
    "sg:owner":"simplegeo",
    "sg:phone":"+31 43 321 6516",
    "sg:postcode":"6221 AH",
    "sg:province":"Limburg",
    "src:geom":"simplegeo",
    "wof:belongsto":[
        85798687,
        85633337,
        101751803,
        85687033
    ],
    "wof:breaches":[],
    "wof:concordances":{
        "sg:id":"SG_61kcmcLzlXPAr6z4bJS5NC_50.852573_5.698828@1306269926"
    },
    "wof:country":"NL",
    "wof:geomhash":"4e7fd524e28a3007cd8491c6fb374a8b",
    "wof:hierarchy":[
        {
            "continent_id":-1,
            "country_id":85633337,
            "locality_id":101751803,
            "neighbourhood_id":85798687,
            "region_id":85687033,
            "venue_id":219500195
        }
    ],
    "wof:id":219500195,
    "wof:lastmodified":1449071282,
    "wof:name":"Life Style",
    "wof:parent_id":85798687,
    "wof:placetype":"venue",
    "wof:superseded_by":[],
    "wof:supersedes":[],
    "wof:tags":[]
},
  "bbox": [5.698828,50.852573,5.698828,50.852573],
  "geometry": {"coordinates":[5.698828,50.852573],"type":"Point"}
}