{
  "id": 320472237,
  "type": "Feature",
  "properties": {
    "edtf:cessation":"u",
    "edtf:inception":"u",
    "geom:area":0.0,
    "geom:bbox":"6.00028,53.326015,6.00028,53.326015",
    "geom:latitude":53.326015,
    "geom:longitude":6.00028,
    "iso:country":"NL",
    "sg:address":"Kl Oosterstr 8",
    "sg:city":"Dokkum",
    "sg:classifiers":[],
    "sg:orig_category":"Grafisch Ontwerpers",
    "sg:owner":"simplegeo",
    "sg:phone":"+31 519 297 121",
    "sg:postcode":"9101 KK",
    "sg:province":"Provincie Friesland",
    "sg:website":"http://www.byfrank.nl",
    "src:geom":"simplegeo",
    "wof:belongsto":[
        85633337,
        101806131,
        85687055
    ],
    "wof:breaches":[],
    "wof:concordances":{
        "sg:id":"SG_0XBDPAqDaTk5Oek7jqQalS_53.326015_6.000280@1306269998"
    },
    "wof:country":"NL",
    "wof:geomhash":"bf10bae7b47154c78a5d331ab84a4eaa",
    "wof:hierarchy":[
        {
            "continent_id":-1,
            "country_id":85633337,
            "locality_id":101806131,
            "neighbourhood_id":-1,
            "region_id":85687055,
            "venue_id":320472237
        }
    ],
    "wof:id":320472237,
    "wof:lastmodified":1449011537,
    "wof:name":"By Frank",
    "wof:parent_id":-1,
    "wof:placetype":"venue",
    "wof:superseded_by":[],
    "wof:supersedes":[],
    "wof:tags":[]
},
  "bbox": [6.00028,53.326015,6.00028,53.326015],
  "geometry": {"coordinates":[6.00028,53.326015],"type":"Point"}
}