{
  "id": 303089581,
  "type": "Feature",
  "properties": {
    "edtf:cessation":"u",
    "edtf:inception":"u",
    "geom:area":0.0,
    "geom:bbox":"6.988435,53.145714,6.988435,53.145714",
    "geom:latitude":53.145714,
    "geom:longitude":6.988435,
    "iso:country":"NL",
    "sg:address":"2E Garsteln 1",
    "sg:city":"Westerlee Gn",
    "sg:classifiers":[],
    "sg:orig_category":"Bouwbureaus",
    "sg:owner":"simplegeo",
    "sg:phone":"+31 597 414 052",
    "sg:postcode":"9678 RW",
    "sg:province":"Groningen",
    "src:geom":"simplegeo",
    "wof:belongsto":[
        85633337,
        101807533,
        85687059
    ],
    "wof:breaches":[],
    "wof:concordances":{
        "sg:id":"SG_6K2pmq6xJaIyRGNK1Ok2oD_53.145714_6.988435@1306269979"
    },
    "wof:country":"NL",
    "wof:geomhash":"6b669b11f440644ff263f1b72b55a1fb",
    "wof:hierarchy":[
        {
            "continent_id":-1,
            "country_id":85633337,
            "locality_id":101807533,
            "neighbourhood_id":-1,
            "region_id":85687059,
            "venue_id":303089581
        }
    ],
    "wof:id":303089581,
    "wof:lastmodified":1448998611,
    "wof:name":"Bnc",
    "wof:parent_id":-1,
    "wof:placetype":"venue",
    "wof:superseded_by":[],
    "wof:supersedes":[],
    "wof:tags":[]
},
  "bbox": [6.988435,53.145714,6.988435,53.145714],
  "geometry": {"coordinates":[6.988435,53.145714],"type":"Point"}
}