{
  "id": 185625525,
  "type": "Feature",
  "properties": {
    "edtf:cessation":"u",
    "edtf:inception":"u",
    "geom:area":0.0,
    "geom:bbox":"5.164521,52.274323,5.164521,52.274323",
    "geom:latitude":52.274323,
    "geom:longitude":5.164521,
    "iso:country":"NL",
    "sg:address":"Kapelstr 20",
    "sg:city":"Bussum",
    "sg:classifiers":[],
    "sg:orig_category":"Kappers",
    "sg:owner":"simplegeo",
    "sg:phone":"+31 35 693 8017",
    "sg:postcode":"1404 HX",
    "sg:province":"North Holland",
    "src:geom":"simplegeo",
    "wof:belongsto":[
        85798667,
        85633337,
        85687053
    ],
    "wof:breaches":[],
    "wof:concordances":{
        "sg:id":"SG_6AzyZV1CKJGQc0OcqqHF4g_52.274323_5.164521@1306269906"
    },
    "wof:country":"NL",
    "wof:geomhash":"05f4c280f2a7758825101bad015960ba",
    "wof:hierarchy":[
        {
            "continent_id":-1,
            "country_id":85633337,
            "locality_id":-1,
            "neighbourhood_id":85798667,
            "region_id":85687053,
            "venue_id":185625525
        }
    ],
    "wof:id":185625525,
    "wof:lastmodified":1449008240,
    "wof:name":"Uysal",
    "wof:parent_id":85798667,
    "wof:placetype":"venue",
    "wof:superseded_by":[],
    "wof:supersedes":[],
    "wof:tags":[]
},
  "bbox": [5.164521,52.274323,5.164521,52.274323],
  "geometry": {"coordinates":[5.164521,52.274323],"type":"Point"}
}