{
  "id": 253273925,
  "type": "Feature",
  "properties": {
    "edtf:cessation":"u",
    "edtf:inception":"u",
    "geom:area":0.0,
    "geom:bbox":"6.52313,53.327442,6.52313,53.327442",
    "geom:latitude":53.327442,
    "geom:longitude":6.52313,
    "iso:country":"NL",
    "sg:address":"Wolkammerij 7",
    "sg:city":"Winsum Gn",
    "sg:classifiers":[],
    "sg:orig_category":"Meubelzaken, Woning- And Keukeninrichting",
    "sg:owner":"simplegeo",
    "sg:phone":"+31 595 443 576",
    "sg:postcode":"9951 KG",
    "sg:province":"Groningen",
    "src:geom":"simplegeo",
    "wof:belongsto":[
        85633337,
        101807535,
        85687059
    ],
    "wof:breaches":[],
    "wof:concordances":{
        "sg:id":"SG_1CLAQgTpPfgi0hGHKpdRyq_53.327442_6.523130@1306269948"
    },
    "wof:country":"NL",
    "wof:geomhash":"bcc70b63049188bec499c4fe44203626",
    "wof:hierarchy":[
        {
            "continent_id":-1,
            "country_id":85633337,
            "locality_id":101807535,
            "neighbourhood_id":-1,
            "region_id":85687059,
            "venue_id":253273925
        }
    ],
    "wof:id":253273925,
    "wof:lastmodified":1449064354,
    "wof:name":"Export Noord Nederland (E.N.N.)",
    "wof:parent_id":-1,
    "wof:placetype":"venue",
    "wof:superseded_by":[],
    "wof:supersedes":[],
    "wof:tags":[]
},
  "bbox": [6.52313,53.327442,6.52313,53.327442],
  "geometry": {"coordinates":[6.52313,53.327442],"type":"Point"}
}