{
  "id": 303891355,
  "type": "Feature",
  "properties": {
    "edtf:cessation":"u",
    "edtf:inception":"u",
    "geom:area":0.0,
    "geom:bbox":"4.468242,52.176617,4.468242,52.176617",
    "geom:latitude":52.176617,
    "geom:longitude":4.468242,
    "iso:country":"NL",
    "sg:address":"Irisln 53",
    "sg:city":"Oegstgeest",
    "sg:classifiers":[],
    "sg:orig_category":"Herenkleding",
    "sg:owner":"simplegeo",
    "sg:phone":"+31 71 523 7120",
    "sg:postcode":"2343 CG",
    "sg:province":"South Holland",
    "src:geom":"simplegeo",
    "wof:belongsto":[
        85798025,
        85633337,
        101754717,
        85687041
    ],
    "wof:breaches":[],
    "wof:concordances":{
        "sg:id":"SG_7GMFjYZqoHHOImvEvztXQd_52.176617_4.468242@1306269989"
    },
    "wof:country":"NL",
    "wof:geomhash":"8bfe8f9fc3ccef85e3cf4779bf34ce70",
    "wof:hierarchy":[
        {
            "continent_id":-1,
            "country_id":85633337,
            "locality_id":101754717,
            "neighbourhood_id":85798025,
            "region_id":85687041,
            "venue_id":303891355
        }
    ],
    "wof:id":303891355,
    "wof:lastmodified":1448999593,
    "wof:name":"Klaver",
    "wof:parent_id":85798025,
    "wof:placetype":"venue",
    "wof:superseded_by":[],
    "wof:supersedes":[],
    "wof:tags":[]
},
  "bbox": [4.468242,52.176617,4.468242,52.176617],
  "geometry": {"coordinates":[4.468242,52.176617],"type":"Point"}
}