{
  "id": 220069117,
  "type": "Feature",
  "properties": {
    "edtf:cessation":"u",
    "edtf:inception":"u",
    "geom:area":0.0,
    "geom:bbox":"4.733368,52.377567,4.733368,52.377567",
    "geom:latitude":52.377567,
    "geom:longitude":4.733368,
    "iso:country":"NL",
    "sg:address":"Kerspel 13",
    "sg:city":"Zwanenburg",
    "sg:classifiers":[],
    "sg:orig_category":"Adviesbureaus Marketing",
    "sg:owner":"simplegeo",
    "sg:phone":"+31 20 497 3439",
    "sg:postcode":"1161 BL",
    "sg:province":"Noord-Holland",
    "src:geom":"simplegeo",
    "wof:belongsto":[
        85798675,
        85633337,
        85687053
    ],
    "wof:breaches":[],
    "wof:concordances":{
        "sg:id":"SG_5iYg3feFKwn2ts3WeBODLG_52.377567_4.733368@1306269931"
    },
    "wof:country":"NL",
    "wof:geomhash":"e718f955aae8fa20341155de4ea35db4",
    "wof:hierarchy":[
        {
            "continent_id":-1,
            "country_id":85633337,
            "locality_id":-1,
            "neighbourhood_id":85798675,
            "region_id":85687053,
            "venue_id":220069117
        }
    ],
    "wof:id":220069117,
    "wof:lastmodified":1449074560,
    "wof:name":"Dijk En D Kwadraat, Van",
    "wof:parent_id":85798675,
    "wof:placetype":"venue",
    "wof:superseded_by":[],
    "wof:supersedes":[],
    "wof:tags":[]
},
  "bbox": [4.733368,52.377567,4.733368,52.377567],
  "geometry": {"coordinates":[4.733368,52.377567],"type":"Point"}
}