{
  "id": 320541861,
  "type": "Feature",
  "properties": {
    "edtf:cessation":"u",
    "edtf:inception":"u",
    "geom:area":0.0,
    "geom:bbox":"4.73757,51.504395,4.73757,51.504395",
    "geom:latitude":51.504395,
    "geom:longitude":4.73757,
    "iso:country":"NL",
    "sg:address":"Hazeldonksestraat 17",
    "sg:city":"Rijsbergen",
    "sg:classifiers":[
        {
            "category":"Sports & Exercise",
            "subcategory":"Skate Park",
            "type":"Entertainment"
        }
    ],
    "sg:owner":"simplegeo",
    "sg:phone":"+31 76 596 1985",
    "sg:postcode":"4891 PT",
    "sg:province":"North Brabant",
    "sg:tags":[
        "zandwinning",
        "grind-"
    ],
    "src:geom":"simplegeo",
    "wof:belongsto":[
        85633337,
        85687035
    ],
    "wof:breaches":[],
    "wof:concordances":{
        "sg:id":"SG_5zelVEMlqGPZNnRpigPaZw_51.504395_4.737570@1306269999"
    },
    "wof:country":"NL",
    "wof:geomhash":"af98ba1b5a6deb6ed6ae33d5b3c8dcb6",
    "wof:hierarchy":[
        {
            "continent_id":-1,
            "country_id":85633337,
            "locality_id":-1,
            "neighbourhood_id":-1,
            "region_id":85687035,
            "venue_id":320541861
        }
    ],
    "wof:id":320541861,
    "wof:lastmodified":1449011659,
    "wof:name":"A.J. De Bruijn",
    "wof:parent_id":-1,
    "wof:placetype":"venue",
    "wof:superseded_by":[],
    "wof:supersedes":[],
    "wof:tags":[
        "zandwinning",
        "grind-"
    ]
},
  "bbox": [4.73757,51.504395,4.73757,51.504395],
  "geometry": {"coordinates":[4.73757,51.504395],"type":"Point"}
}