{
  "id": 202639055,
  "type": "Feature",
  "properties": {
    "edtf:cessation":"u",
    "edtf:inception":"u",
    "geom:area":0.0,
    "geom:bbox":"4.352171,52.079346,4.352171,52.079346",
    "geom:latitude":52.079346,
    "geom:longitude":4.352171,
    "iso:country":"NL",
    "sg:address":"Bruijnings Ingenhoeslaan 26",
    "sg:city":"Voorburg",
    "sg:classifiers":[],
    "sg:orig_category":"Verlichting And Huishoudartikelen",
    "sg:owner":"simplegeo",
    "sg:phone":"+31 70 386 8782",
    "sg:postcode":"2273 KR",
    "sg:province":"South Holland",
    "src:geom":"simplegeo",
    "wof:belongsto":[
        85859643,
        85633337,
        101754709,
        85687041
    ],
    "wof:breaches":[],
    "wof:concordances":{
        "sg:id":"SG_6diJpcQTgQ0ewnMaxnMKWD_52.079346_4.352171@1306269917"
    },
    "wof:country":"NL",
    "wof:geomhash":"d83fb0491d1cf3620ee998a7fcffd062",
    "wof:hierarchy":[
        {
            "continent_id":-1,
            "country_id":85633337,
            "locality_id":101754709,
            "neighbourhood_id":85859643,
            "region_id":85687041,
            "venue_id":202639055
        }
    ],
    "wof:id":202639055,
    "wof:lastmodified":1449062633,
    "wof:name":"Tanelle Interieurverzorging",
    "wof:parent_id":85859643,
    "wof:placetype":"venue",
    "wof:superseded_by":[],
    "wof:supersedes":[],
    "wof:tags":[]
},
  "bbox": [4.352171,52.079346,4.352171,52.079346],
  "geometry": {"coordinates":[4.352171,52.079346],"type":"Point"}
}