{
  "id": 320625867,
  "type": "Feature",
  "properties": {
    "edtf:cessation":"u",
    "edtf:inception":"u",
    "geom:area":0.0,
    "geom:bbox":"5.986855,50.96891,5.986855,50.96891",
    "geom:latitude":50.96891,
    "geom:longitude":5.986855,
    "iso:country":"NL",
    "sg:address":"Kem 14",
    "sg:city":"Schinveld",
    "sg:classifiers":[],
    "sg:orig_category":"Grondwerken",
    "sg:owner":"simplegeo",
    "sg:phone":"+31 45 525 3499",
    "sg:postcode":"6451 GD",
    "sg:province":"Limburg",
    "src:geom":"simplegeo",
    "wof:belongsto":[
        85797679,
        85633337,
        101839207,
        85687033
    ],
    "wof:breaches":[],
    "wof:concordances":{
        "sg:id":"SG_2FiCAdUTQAURtFUAVJC7Q9_50.968910_5.986855@1306270000"
    },
    "wof:country":"NL",
    "wof:geomhash":"5960c091a7b1980ac9d2178dc40551a1",
    "wof:hierarchy":[
        {
            "continent_id":-1,
            "country_id":85633337,
            "locality_id":101839207,
            "neighbourhood_id":85797679,
            "region_id":85687033,
            "venue_id":320625867
        }
    ],
    "wof:id":320625867,
    "wof:lastmodified":1449015023,
    "wof:name":"Scheren, J",
    "wof:parent_id":85797679,
    "wof:placetype":"venue",
    "wof:superseded_by":[],
    "wof:supersedes":[],
    "wof:tags":[]
},
  "bbox": [5.986855,50.96891,5.986855,50.96891],
  "geometry": {"coordinates":[5.986855,50.96891],"type":"Point"}
}