{
  "id": 186032769,
  "type": "Feature",
  "properties": {
    "edtf:cessation":"u",
    "edtf:inception":"u",
    "geom:area":0.0,
    "geom:bbox":"5.082581,51.591831,5.082581,51.591831",
    "geom:latitude":51.591831,
    "geom:longitude":5.082581,
    "iso:country":"NL",
    "sg:address":"Sibeliusstr 739",
    "sg:city":"Tilburg",
    "sg:classifiers":[],
    "sg:orig_category":"Koeriersdiensten",
    "sg:owner":"simplegeo",
    "sg:phone":"+31 13 456 0312",
    "sg:postcode":"5011 JR",
    "sg:province":"North Brabant",
    "src:geom":"simplegeo",
    "wof:belongsto":[
        85797655,
        85633337,
        85687035
    ],
    "wof:breaches":[],
    "wof:concordances":{
        "sg:id":"SG_6pG8NUI9ra1nt9WaQAgZA3_51.591831_5.082581@1306269909"
    },
    "wof:country":"NL",
    "wof:geomhash":"03a7a55258e914f05224bd8526c29bdf",
    "wof:hierarchy":[
        {
            "continent_id":-1,
            "country_id":85633337,
            "locality_id":-1,
            "neighbourhood_id":85797655,
            "region_id":85687035,
            "venue_id":186032769
        }
    ],
    "wof:id":186032769,
    "wof:lastmodified":1449051688,
    "wof:name":"Automo Drive",
    "wof:parent_id":85797655,
    "wof:placetype":"venue",
    "wof:superseded_by":[],
    "wof:supersedes":[],
    "wof:tags":[]
},
  "bbox": [5.082581,51.591831,5.082581,51.591831],
  "geometry": {"coordinates":[5.082581,51.591831],"type":"Point"}
}