{
  "id": 186475947,
  "type": "Feature",
  "properties": {
    "edtf:cessation":"u",
    "edtf:inception":"u",
    "geom:area":0.0,
    "geom:bbox":"5.805143,53.200092,5.805143,53.200092",
    "geom:latitude":53.200092,
    "geom:longitude":5.805143,
    "iso:country":"NL",
    "sg:address":"M De Heerstr 2",
    "sg:city":"Leeuwarden",
    "sg:classifiers":[],
    "sg:orig_category":"Verenigingen En Stichtingen",
    "sg:owner":"simplegeo",
    "sg:phone":"+31 58 213 0350",
    "sg:postcode":"8921 AK",
    "sg:province":"Provincie Friesland",
    "sg:website":"http://www.pcbolw.nl",
    "src:geom":"simplegeo",
    "wof:belongsto":[
        85797735,
        85633337,
        101751907,
        85687055
    ],
    "wof:breaches":[],
    "wof:concordances":{
        "sg:id":"SG_380L06lTIAvCWBAZVkbgio_53.200092_5.805143@1306269913"
    },
    "wof:country":"NL",
    "wof:geomhash":"af323eebda960b816b89fdcb51597155",
    "wof:hierarchy":[
        {
            "continent_id":-1,
            "country_id":85633337,
            "locality_id":101751907,
            "neighbourhood_id":85797735,
            "region_id":85687055,
            "venue_id":186475947
        }
    ],
    "wof:id":186475947,
    "wof:lastmodified":1449051492,
    "wof:name":"Pcbo Leeuwarden En Wirdum",
    "wof:parent_id":85797735,
    "wof:placetype":"venue",
    "wof:superseded_by":[],
    "wof:supersedes":[],
    "wof:tags":[]
},
  "bbox": [5.805143,53.200092,5.805143,53.200092],
  "geometry": {"coordinates":[5.805143,53.200092],"type":"Point"}
}