{
  "id": 253736687,
  "type": "Feature",
  "properties": {
    "edtf:cessation":"u",
    "edtf:inception":"u",
    "geom:area":0.0,
    "geom:bbox":"6.530145,52.718552,6.530145,52.718552",
    "geom:latitude":52.718552,
    "geom:longitude":6.530145,
    "iso:country":"NL",
    "sg:address":"Krakeel 53",
    "sg:city":"Noordscheschut",
    "sg:classifiers":[],
    "sg:orig_category":"Pluimveebedrijven En -Handelaren",
    "sg:owner":"simplegeo",
    "sg:phone":"+31 528 341 700",
    "sg:postcode":"7914 TH",
    "sg:province":"Drenthe",
    "src:geom":"simplegeo",
    "wof:belongsto":[
        85797859,
        85633337,
        85687051
    ],
    "wof:breaches":[],
    "wof:concordances":{
        "sg:id":"SG_683rHCgUd1ebO378grQ6X6_52.718552_6.530145@1306269953"
    },
    "wof:country":"NL",
    "wof:geomhash":"3d4abbc7c6bc032d6374eb0a12511d1e",
    "wof:hierarchy":[
        {
            "continent_id":-1,
            "country_id":85633337,
            "locality_id":-1,
            "neighbourhood_id":85797859,
            "region_id":85687051,
            "venue_id":253736687
        }
    ],
    "wof:id":253736687,
    "wof:lastmodified":1449065781,
    "wof:name":"Vinne, H Van Der",
    "wof:parent_id":85797859,
    "wof:placetype":"venue",
    "wof:superseded_by":[],
    "wof:supersedes":[],
    "wof:tags":[]
},
  "bbox": [6.530145,52.718552,6.530145,52.718552],
  "geometry": {"coordinates":[6.530145,52.718552],"type":"Point"}
}