{
  "id": 253752541,
  "type": "Feature",
  "properties": {
    "edtf:cessation":"u",
    "edtf:inception":"u",
    "geom:area":0.0,
    "geom:bbox":"6.621842,51.94656,6.621842,51.94656",
    "geom:latitude":51.94656,
    "geom:longitude":6.621842,
    "iso:country":"NL",
    "sg:address":"Kruittorenstr 7",
    "sg:city":"Bredevoort",
    "sg:classifiers":[],
    "sg:orig_category":"Pluimveeslachterijen",
    "sg:owner":"simplegeo",
    "sg:phone":"+31 543 451 369",
    "sg:postcode":"7126 BH",
    "sg:province":"Gelderland",
    "src:geom":"simplegeo",
    "wof:belongsto":[
        85633337,
        85687043
    ],
    "wof:breaches":[],
    "wof:concordances":{
        "sg:id":"SG_29O3upKbFLfUdVvzSUp7hn_51.946560_6.621842@1306269953"
    },
    "wof:country":"NL",
    "wof:geomhash":"de99140cb33e3f6f2046e5f7ee35e4b7",
    "wof:hierarchy":[
        {
            "continent_id":-1,
            "country_id":85633337,
            "locality_id":-1,
            "neighbourhood_id":-1,
            "region_id":85687043,
            "venue_id":253752541
        }
    ],
    "wof:id":253752541,
    "wof:lastmodified":1449063310,
    "wof:name":"Bredevoort Slachterij Bv",
    "wof:parent_id":-1,
    "wof:placetype":"venue",
    "wof:superseded_by":[],
    "wof:supersedes":[],
    "wof:tags":[]
},
  "bbox": [6.621842,51.94656,6.621842,51.94656],
  "geometry": {"coordinates":[6.621842,51.94656],"type":"Point"}
}