{
  "id": 286481731,
  "type": "Feature",
  "properties": {
    "edtf:cessation":"u",
    "edtf:inception":"u",
    "geom:area":0.0,
    "geom:bbox":"5.442694,52.508293,5.442694,52.508293",
    "geom:latitude":52.508293,
    "geom:longitude":5.442694,
    "iso:country":"NL",
    "sg:address":"Jol 1629",
    "sg:city":"Lelystad",
    "sg:classifiers":[],
    "sg:orig_category":"Beeldende Kunstenaars",
    "sg:owner":"simplegeo",
    "sg:phone":"+31 320 241 312",
    "sg:postcode":"8243 EB",
    "sg:province":"Flevoland",
    "src:geom":"simplegeo",
    "wof:belongsto":[
        85859951,
        85633337,
        101751873,
        85687049
    ],
    "wof:breaches":[],
    "wof:concordances":{
        "sg:id":"SG_6bhu3tiwk9fJJeazDBNcK4_52.508293_5.442694@1306269969"
    },
    "wof:country":"NL",
    "wof:geomhash":"fcc4364a89ba6284e2c868819b9d980e",
    "wof:hierarchy":[
        {
            "continent_id":-1,
            "country_id":85633337,
            "locality_id":101751873,
            "neighbourhood_id":85859951,
            "region_id":85687049,
            "venue_id":286481731
        }
    ],
    "wof:id":286481731,
    "wof:lastmodified":1449017730,
    "wof:name":"Ijzerman, Action Art",
    "wof:parent_id":85859951,
    "wof:placetype":"venue",
    "wof:superseded_by":[],
    "wof:supersedes":[],
    "wof:tags":[]
},
  "bbox": [5.442694,52.508293,5.442694,52.508293],
  "geometry": {"coordinates":[5.442694,52.508293],"type":"Point"}
}