{
  "id": 219990801,
  "type": "Feature",
  "properties": {
    "edtf:cessation":"u",
    "edtf:inception":"u",
    "geom:area":0.0,
    "geom:bbox":"4.881413,51.987576,4.881413,51.987576",
    "geom:latitude":51.987576,
    "geom:longitude":4.881413,
    "iso:country":"NL",
    "sg:address":"Zuidzydsewg 156",
    "sg:city":"Polsbroek",
    "sg:classifiers":[],
    "sg:orig_category":"Adviesbureaus Bouwkunde",
    "sg:owner":"simplegeo",
    "sg:phone":"+31 182 309 791",
    "sg:postcode":"3415 PS",
    "sg:province":"Utrecht",
    "src:geom":"simplegeo",
    "wof:belongsto":[
        85633337,
        101754609,
        85687039
    ],
    "wof:breaches":[],
    "wof:concordances":{
        "sg:id":"SG_1bTBRa8pLqGScTM5SoLClW_51.987576_4.881413@1306269931"
    },
    "wof:country":"NL",
    "wof:geomhash":"117156b3dff33164465ded02d914c141",
    "wof:hierarchy":[
        {
            "continent_id":-1,
            "country_id":85633337,
            "locality_id":101754609,
            "neighbourhood_id":-1,
            "region_id":85687039,
            "venue_id":219990801
        }
    ],
    "wof:id":219990801,
    "wof:lastmodified":1449072752,
    "wof:name":"Ham, Van Der",
    "wof:parent_id":-1,
    "wof:placetype":"venue",
    "wof:superseded_by":[],
    "wof:supersedes":[],
    "wof:tags":[]
},
  "bbox": [4.881413,51.987576,4.881413,51.987576],
  "geometry": {"coordinates":[4.881413,51.987576],"type":"Point"}
}