{
  "id": 252760083,
  "type": "Feature",
  "properties": {
    "edtf:cessation":"u",
    "edtf:inception":"u",
    "geom:area":0.0,
    "geom:bbox":"6.625844,53.150684,6.625844,53.150684",
    "geom:latitude":53.150684,
    "geom:longitude":6.625844,
    "iso:country":"NL",
    "sg:address":"Viaductwg 8",
    "sg:city":"Haren Gn",
    "sg:classifiers":[
        {
            "category":"Sports & Exercise",
            "subcategory":"Stables",
            "type":"Entertainment"
        }
    ],
    "sg:owner":"simplegeo",
    "sg:phone":"+31 50 406 1305",
    "sg:postcode":"9751 HR",
    "sg:province":"Groningen",
    "sg:tags":[
        "maneges"
    ],
    "src:geom":"simplegeo",
    "wof:belongsto":[
        85798527,
        85633337,
        85687059
    ],
    "wof:breaches":[],
    "wof:concordances":{
        "sg:id":"SG_3TOgJ13V3U9Ff595in5Hk2_53.150684_6.625844@1306269943"
    },
    "wof:country":"NL",
    "wof:geomhash":"8160007be988d8cc7365ff6f6c22e3f1",
    "wof:hierarchy":[
        {
            "continent_id":-1,
            "country_id":85633337,
            "locality_id":-1,
            "neighbourhood_id":85798527,
            "region_id":85687059,
            "venue_id":252760083
        }
    ],
    "wof:id":252760083,
    "wof:lastmodified":1449006456,
    "wof:name":"Harenermolen",
    "wof:parent_id":85798527,
    "wof:placetype":"venue",
    "wof:superseded_by":[],
    "wof:supersedes":[],
    "wof:tags":[
        "maneges"
    ]
},
  "bbox": [6.625844,53.150684,6.625844,53.150684],
  "geometry": {"coordinates":[6.625844,53.150684],"type":"Point"}
}