{
  "id": 270508281,
  "type": "Feature",
  "properties": {
    "edtf:cessation":"u",
    "edtf:inception":"u",
    "geom:area":0.0,
    "geom:bbox":"4.596925,52.13382,4.596925,52.13382",
    "geom:latitude":52.13382,
    "geom:longitude":4.596925,
    "iso:country":"NL",
    "sg:address":"Artesiaplantsoen 9",
    "sg:city":"Koudekerk A/D Rijn",
    "sg:classifiers":[
        {
            "category":"Education",
            "subcategory":"Preschool",
            "type":"Public Place"
        }
    ],
    "sg:owner":"simplegeo",
    "sg:phone":"+31 71 341 2812",
    "sg:postcode":"2396 XJ",
    "sg:province":"Zuid-Holland",
    "sg:tags":[
        "kleuteronderwijs",
        "basis-"
    ],
    "src:geom":"simplegeo",
    "wof:belongsto":[
        85633337,
        101754667,
        85687041
    ],
    "wof:breaches":[],
    "wof:concordances":{
        "sg:id":"SG_6OaREAtxmqzSOwElyWVPYT_52.133820_4.596925@1306269966"
    },
    "wof:country":"NL",
    "wof:geomhash":"dcf81f9118e518f90e8243f919ccd93d",
    "wof:hierarchy":[
        {
            "continent_id":-1,
            "country_id":85633337,
            "locality_id":101754667,
            "neighbourhood_id":-1,
            "region_id":85687041,
            "venue_id":270508281
        }
    ],
    "wof:id":270508281,
    "wof:lastmodified":1449010025,
    "wof:name":"De Rank",
    "wof:parent_id":-1,
    "wof:placetype":"venue",
    "wof:superseded_by":[],
    "wof:supersedes":[],
    "wof:tags":[
        "kleuteronderwijs",
        "basis-"
    ]
},
  "bbox": [4.596925,52.13382,4.596925,52.13382],
  "geometry": {"coordinates":[4.596925,52.13382],"type":"Point"}
}