{
  "id": 253100533,
  "type": "Feature",
  "properties": {
    "edtf:cessation":"u",
    "edtf:inception":"u",
    "geom:area":0.0,
    "geom:bbox":"5.432941,52.013802,5.432941,52.013802",
    "geom:latitude":52.013802,
    "geom:longitude":5.432941,
    "iso:country":"NL",
    "sg:address":"M C Verloopwg 15",
    "sg:city":"Leersum",
    "sg:classifiers":[],
    "sg:orig_category":"Metselwerken",
    "sg:owner":"simplegeo",
    "sg:phone":"+31 343 461 172",
    "sg:postcode":"3956 BM",
    "sg:province":"Utrecht",
    "src:geom":"simplegeo",
    "wof:belongsto":[
        85633337,
        101808455,
        85687039
    ],
    "wof:breaches":[],
    "wof:concordances":{
        "sg:id":"SG_2JS3ydAZ3JEjogToqAID47_52.013802_5.432941@1306269946"
    },
    "wof:country":"NL",
    "wof:geomhash":"715b5316be8e3ae26a88538576700e67",
    "wof:hierarchy":[
        {
            "continent_id":-1,
            "country_id":85633337,
            "locality_id":101808455,
            "neighbourhood_id":-1,
            "region_id":85687039,
            "venue_id":253100533
        }
    ],
    "wof:id":253100533,
    "wof:lastmodified":1449065012,
    "wof:name":"Nell, J J",
    "wof:parent_id":-1,
    "wof:placetype":"venue",
    "wof:superseded_by":[],
    "wof:supersedes":[],
    "wof:tags":[]
},
  "bbox": [5.432941,52.013802,5.432941,52.013802],
  "geometry": {"coordinates":[5.432941,52.013802],"type":"Point"}
}