{
  "id": 219877825,
  "type": "Feature",
  "properties": {
    "edtf:cessation":"u",
    "edtf:inception":"u",
    "geom:area":0.0,
    "geom:bbox":"6.118625,51.314514,6.118625,51.314514",
    "geom:latitude":51.314514,
    "geom:longitude":6.118625,
    "iso:country":"NL",
    "sg:address":"Ireneln 2",
    "sg:city":"Belfeld",
    "sg:classifiers":[],
    "sg:orig_category":"Adviesbureaus Bedrijfsorganisatie",
    "sg:owner":"simplegeo",
    "sg:phone":"+31 77 475 2037",
    "sg:postcode":"5951 EK",
    "sg:province":"Limburg",
    "src:geom":"simplegeo",
    "wof:belongsto":[
        85798465,
        85633337,
        85687033
    ],
    "wof:breaches":[],
    "wof:concordances":{
        "sg:id":"SG_4dKSUSbmAxENYKeSFiWg4a_51.314514_6.118625@1306269930"
    },
    "wof:country":"NL",
    "wof:geomhash":"e96aa52b47edd6de2cb13f67d87bef00",
    "wof:hierarchy":[
        {
            "continent_id":-1,
            "country_id":85633337,
            "locality_id":-1,
            "neighbourhood_id":85798465,
            "region_id":85687033,
            "venue_id":219877825
        }
    ],
    "wof:id":219877825,
    "wof:lastmodified":1449072873,
    "wof:name":"Miata",
    "wof:parent_id":85798465,
    "wof:placetype":"venue",
    "wof:superseded_by":[],
    "wof:supersedes":[],
    "wof:tags":[]
},
  "bbox": [6.118625,51.314514,6.118625,51.314514],
  "geometry": {"coordinates":[6.118625,51.314514],"type":"Point"}
}