{
  "id": 286748461,
  "type": "Feature",
  "properties": {
    "edtf:cessation":"u",
    "edtf:inception":"u",
    "geom:area":0.0,
    "geom:bbox":"5.597037,52.665543,5.597037,52.665543",
    "geom:latitude":52.665543,
    "geom:longitude":5.597037,
    "iso:country":"NL",
    "sg:address":"Bonairestr 1A",
    "sg:city":"Urk",
    "sg:classifiers":[],
    "sg:orig_category":"Bijouterie?n",
    "sg:owner":"simplegeo",
    "sg:phone":"+31 527 685 202",
    "sg:postcode":"8321 HA",
    "sg:province":"Flevoland",
    "src:geom":"simplegeo",
    "wof:belongsto":[
        85633337,
        101807251,
        85687049
    ],
    "wof:breaches":[],
    "wof:concordances":{
        "sg:id":"SG_4t0qewBtEGGjPeIrDTug5s_52.665543_5.597037@1306269972"
    },
    "wof:country":"NL",
    "wof:geomhash":"a44f2de4d7ebd28f71c3b3264a2c0924",
    "wof:hierarchy":[
        {
            "continent_id":-1,
            "country_id":85633337,
            "locality_id":101807251,
            "neighbourhood_id":-1,
            "region_id":85687049,
            "venue_id":286748461
        }
    ],
    "wof:id":286748461,
    "wof:lastmodified":1449017388,
    "wof:name":"Bedstee, De",
    "wof:parent_id":-1,
    "wof:placetype":"venue",
    "wof:superseded_by":[],
    "wof:supersedes":[],
    "wof:tags":[]
},
  "bbox": [5.597037,52.665543,5.597037,52.665543],
  "geometry": {"coordinates":[5.597037,52.665543],"type":"Point"}
}