{
  "id": 252975035,
  "type": "Feature",
  "properties": {
    "edtf:cessation":"u",
    "edtf:inception":"u",
    "geom:area":0.0,
    "geom:bbox":"6.617439,52.382378,6.617439,52.382378",
    "geom:latitude":52.382378,
    "geom:longitude":6.617439,
    "iso:country":"NL",
    "sg:address":"Bedryvenpk Twente 53",
    "sg:city":"Almelo",
    "sg:classifiers":[],
    "sg:orig_category":"Metaalbewerking",
    "sg:owner":"simplegeo",
    "sg:phone":"+31 546 576 955",
    "sg:postcode":"7602 KC",
    "sg:province":"NL.08",
    "src:geom":"simplegeo",
    "wof:belongsto":[
        85633337,
        101754769,
        85687045
    ],
    "wof:breaches":[],
    "wof:concordances":{
        "sg:id":"SG_3qK7PchxH5twkEP243eSnw_52.382378_6.617439@1306269945"
    },
    "wof:country":"NL",
    "wof:geomhash":"e58e937bc4bd412e2fb9befa0bba2ea5",
    "wof:hierarchy":[
        {
            "continent_id":-1,
            "country_id":85633337,
            "locality_id":101754769,
            "neighbourhood_id":-1,
            "region_id":85687045,
            "venue_id":252975035
        }
    ],
    "wof:id":252975035,
    "wof:lastmodified":1449006364,
    "wof:name":"Benefit Almelo Bv",
    "wof:parent_id":-1,
    "wof:placetype":"venue",
    "wof:superseded_by":[],
    "wof:supersedes":[],
    "wof:tags":[]
},
  "bbox": [6.617439,52.382378,6.617439,52.382378],
  "geometry": {"coordinates":[6.617439,52.382378],"type":"Point"}
}