{
  "id": 286977759,
  "type": "Feature",
  "properties": {
    "edtf:cessation":"u",
    "edtf:inception":"u",
    "geom:area":0.0,
    "geom:bbox":"9.51668,56.2757,9.51668,56.2757",
    "geom:latitude":56.2757,
    "geom:longitude":9.51668,
    "iso:country":"NL",
    "sg:address":"Kinkelenburg 21",
    "sg:city":"Ugchelen",
    "sg:classifiers":[],
    "sg:orig_category":"Bloemen En Planten - Decoratie",
    "sg:owner":"simplegeo",
    "sg:phone":"+31 55 533 4721",
    "sg:postcode":"7339 DK",
    "sg:province":"Viborg",
    "src:geom":"simplegeo",
    "wof:belongsto":[
        85633121,
        85682597
    ],
    "wof:breaches":[],
    "wof:concordances":{
        "sg:id":"SG_7TNfHJhZLyEgNO0TSRPeME_56.275700_9.516680@1306269975"
    },
    "wof:country":"NL",
    "wof:geomhash":"afe6d3a316af47e204b699ba18368339",
    "wof:hierarchy":[
        {
            "continent_id":-1,
            "country_id":85633121,
            "locality_id":-1,
            "neighbourhood_id":-1,
            "region_id":85682597,
            "venue_id":286977759
        }
    ],
    "wof:id":286977759,
    "wof:lastmodified":1449018161,
    "wof:name":"Binderij, De",
    "wof:parent_id":-1,
    "wof:placetype":"venue",
    "wof:superseded_by":[],
    "wof:supersedes":[],
    "wof:tags":[]
},
  "bbox": [9.51668,56.2757,9.51668,56.2757],
  "geometry": {"coordinates":[9.51668,56.2757],"type":"Point"}
}