{
  "id": 287232907,
  "type": "Feature",
  "properties": {
    "edtf:cessation":"u",
    "edtf:inception":"u",
    "geom:area":0.0,
    "geom:bbox":"5.08669,51.556961,5.08669,51.556961",
    "geom:latitude":51.556961,
    "geom:longitude":5.08669,
    "iso:country":"NL",
    "sg:address":"Girostraat 22",
    "sg:city":"Tilburg",
    "sg:classifiers":[],
    "sg:orig_category":"Boekhouders",
    "sg:owner":"simplegeo",
    "sg:phone":"+31 13 455 0678",
    "sg:postcode":"5038 DN",
    "sg:province":"North Brabant",
    "src:geom":"simplegeo",
    "wof:belongsto":[
        85797033,
        85633337,
        101751817,
        85687035
    ],
    "wof:breaches":[],
    "wof:concordances":{
        "sg:id":"SG_4G98KQS3sLZkHHaewtiHsx_51.556961_5.086690@1306269978"
    },
    "wof:country":"NL",
    "wof:geomhash":"88e72ddd50e6e3bc4a028430681ba85b",
    "wof:hierarchy":[
        {
            "continent_id":-1,
            "country_id":85633337,
            "locality_id":101751817,
            "neighbourhood_id":85797033,
            "region_id":85687035,
            "venue_id":287232907
        }
    ],
    "wof:id":287232907,
    "wof:lastmodified":1449000940,
    "wof:name":"Administratie En Incassobureau Plata",
    "wof:parent_id":85797033,
    "wof:placetype":"venue",
    "wof:superseded_by":[],
    "wof:supersedes":[],
    "wof:tags":[]
},
  "bbox": [5.08669,51.556961,5.08669,51.556961],
  "geometry": {"coordinates":[5.08669,51.556961],"type":"Point"}
}