{
  "id": 186459349,
  "type": "Feature",
  "properties": {
    "edtf:cessation":"u",
    "edtf:inception":"u",
    "geom:area":0.0,
    "geom:bbox":"3.573785,51.519073,3.573785,51.519073",
    "geom:latitude":51.519073,
    "geom:longitude":3.573785,
    "iso:country":"NL",
    "sg:address":"G Wissestr 7",
    "sg:city":"Grypskerke",
    "sg:classifiers":[],
    "sg:orig_category":"Verenigingen En Stichtingen",
    "sg:owner":"simplegeo",
    "sg:phone":"+31 118 592 056",
    "sg:postcode":"4364 BE",
    "sg:province":"Zeeland",
    "src:geom":"simplegeo",
    "wof:belongsto":[
        85633337,
        85687037
    ],
    "wof:breaches":[],
    "wof:concordances":{
        "sg:id":"SG_6Tmw1sQHkfvcjPdFRTAFNs_51.519073_3.573785@1306269913"
    },
    "wof:country":"NL",
    "wof:geomhash":"9f4784fa0293928b1bd0a70005d528be",
    "wof:hierarchy":[
        {
            "continent_id":-1,
            "country_id":85633337,
            "locality_id":-1,
            "neighbourhood_id":-1,
            "region_id":85687037,
            "venue_id":186459349
        }
    ],
    "wof:id":186459349,
    "wof:lastmodified":1449051462,
    "wof:name":"Nhdb",
    "wof:parent_id":-1,
    "wof:placetype":"venue",
    "wof:superseded_by":[],
    "wof:supersedes":[],
    "wof:tags":[]
},
  "bbox": [3.573785,51.519073,3.573785,51.519073],
  "geometry": {"coordinates":[3.573785,51.519073],"type":"Point"}
}