{
  "id": 236588575,
  "type": "Feature",
  "properties": {
    "edtf:cessation":"u",
    "edtf:inception":"u",
    "geom:area":0.0,
    "geom:bbox":"5.895288,52.122478,5.895288,52.122478",
    "geom:latitude":52.122478,
    "geom:longitude":5.895288,
    "iso:country":"NL",
    "sg:address":"Miggelenbergweg 20",
    "sg:city":"Hoenderloo",
    "sg:classifiers":[],
    "sg:orig_category":"Autokeuringen",
    "sg:owner":"simplegeo",
    "sg:phone":"+31 55 378 2676",
    "sg:postcode":"7351 BR",
    "sg:province":"Gelderland",
    "src:geom":"simplegeo",
    "wof:belongsto":[
        85633337,
        85687043
    ],
    "wof:breaches":[],
    "wof:concordances":{
        "sg:id":"SG_5qFCrvH1FKrbnm4ZRJowSz_52.122478_5.895288@1306269939"
    },
    "wof:country":"NL",
    "wof:geomhash":"f9bd2bce8315b2df39f550f51c3fe62d",
    "wof:hierarchy":[
        {
            "continent_id":-1,
            "country_id":85633337,
            "locality_id":-1,
            "neighbourhood_id":-1,
            "region_id":85687043,
            "venue_id":236588575
        }
    ],
    "wof:id":236588575,
    "wof:lastmodified":1449004464,
    "wof:name":"Glasgarage Hoenderloo",
    "wof:parent_id":-1,
    "wof:placetype":"venue",
    "wof:superseded_by":[],
    "wof:supersedes":[],
    "wof:tags":[]
},
  "bbox": [5.895288,52.122478,5.895288,52.122478],
  "geometry": {"coordinates":[5.895288,52.122478],"type":"Point"}
}