{
  "id": 286405963,
  "type": "Feature",
  "properties": {
    "edtf:cessation":"u",
    "edtf:inception":"u",
    "geom:area":0.0,
    "geom:bbox":"5.455757,51.349407,5.455757,51.349407",
    "geom:latitude":51.349407,
    "geom:longitude":5.455757,
    "iso:country":"NL",
    "sg:address":"Dommelsewg 10",
    "sg:city":"Valkenswaard",
    "sg:classifiers":[],
    "sg:orig_category":"Bedrijfskleding",
    "sg:owner":"simplegeo",
    "sg:phone":"+31 40 204 3813",
    "sg:postcode":"5554 NR",
    "sg:province":"Noord-Brabant",
    "src:geom":"simplegeo",
    "wof:belongsto":[
        85797043,
        85633337,
        85687035
    ],
    "wof:breaches":[],
    "wof:concordances":{
        "sg:id":"SG_2D4iPfIAXqVjy9RG8vrJKj_51.349407_5.455757@1306269968"
    },
    "wof:country":"NL",
    "wof:geomhash":"f87740d1d7fd9eb47a9745b0e3af8284",
    "wof:hierarchy":[
        {
            "continent_id":-1,
            "country_id":85633337,
            "locality_id":-1,
            "neighbourhood_id":85797043,
            "region_id":85687035,
            "venue_id":286405963
        }
    ],
    "wof:id":286405963,
    "wof:lastmodified":1449017854,
    "wof:name":"Eekels",
    "wof:parent_id":85797043,
    "wof:placetype":"venue",
    "wof:superseded_by":[],
    "wof:supersedes":[],
    "wof:tags":[]
},
  "bbox": [5.455757,51.349407,5.455757,51.349407],
  "geometry": {"coordinates":[5.455757,51.349407],"type":"Point"}
}