{
  "id": 286805899,
  "type": "Feature",
  "properties": {
    "edtf:cessation":"u",
    "edtf:inception":"u",
    "geom:area":0.0,
    "geom:bbox":"-68.740181,-32.959919,-68.740181,-32.959919",
    "geom:latitude":-32.959919,
    "geom:longitude":-68.740181,
    "iso:country":"NL",
    "sg:address":"Akkerwg 15",
    "sg:city":"Wintelre",
    "sg:classifiers":[],
    "sg:orig_category":"Binnenhuisarchitectuur",
    "sg:owner":"simplegeo",
    "sg:phone":"+31 40 205 2132",
    "sg:postcode":"5513 AR",
    "sg:province":"Noord-Brabant",
    "src:geom":"simplegeo",
    "wof:belongsto":[
        "102191577",
        "85632505"
    ],
    "wof:breaches":[],
    "wof:concordances":{
        "sg:id":"SG_5Q54uOavHjCBCA3QSdbHT6_-32.959919_-68.740181@1306269973"
    },
    "wof:country":"NL",
    "wof:geomhash":"cf0e1a815f120e5d9aab288eb15f53a3",
    "wof:hierarchy":[
        {
            "continent_id":"102191577",
            "country_id":"85632505",
            "locality_id":-1,
            "neighbourhood_id":-1,
            "region_id":-1,
            "venue_id":286805899
        }
    ],
    "wof:id":286805899,
    "wof:lastmodified":1449016168,
    "wof:name":"Kruit, Carla",
    "wof:parent_id":-1,
    "wof:placetype":"venue",
    "wof:superseded_by":[],
    "wof:supersedes":[],
    "wof:tags":[]
},
  "bbox": [-68.740181,-32.959919,-68.740181,-32.959919],
  "geometry": {"coordinates":[-68.740181,-32.959919],"type":"Point"}
}