{
  "id": 319932565,
  "type": "Feature",
  "properties": {
    "edtf:cessation":"u",
    "edtf:inception":"u",
    "geom:area":0.0,
    "geom:bbox":"5.991504,53.189011,5.991504,53.189011",
    "geom:latitude":53.189011,
    "geom:longitude":5.991504,
    "iso:country":"NL",
    "sg:address":"Bergumerdam 3",
    "sg:city":"Burgum",
    "sg:classifiers":[],
    "sg:orig_category":"Huishoudapparatuur, Televisies And Radio'S",
    "sg:owner":"simplegeo",
    "sg:phone":"+31 511 464 142",
    "sg:postcode":"9251 GB",
    "sg:province":"Friesland",
    "src:geom":"simplegeo",
    "wof:belongsto":[
        85633337,
        101837955,
        85687055
    ],
    "wof:breaches":[],
    "wof:concordances":{
        "sg:id":"SG_6l9G3btOaOgsT2ZFbr9Hb1_53.189011_5.991504@1306269992"
    },
    "wof:country":"NL",
    "wof:geomhash":"dacae89aaf07909b642e70cf62aaf124",
    "wof:hierarchy":[
        {
            "continent_id":-1,
            "country_id":85633337,
            "locality_id":101837955,
            "neighbourhood_id":-1,
            "region_id":85687055,
            "venue_id":319932565
        }
    ],
    "wof:id":319932565,
    "wof:lastmodified":1449024366,
    "wof:name":"Vof Visser",
    "wof:parent_id":-1,
    "wof:placetype":"venue",
    "wof:superseded_by":[],
    "wof:supersedes":[],
    "wof:tags":[]
},
  "bbox": [5.991504,53.189011,5.991504,53.189011],
  "geometry": {"coordinates":[5.991504,53.189011],"type":"Point"}
}