{
  "id": 303564845,
  "type": "Feature",
  "properties": {
    "edtf:cessation":"u",
    "edtf:inception":"u",
    "geom:area":0.0,
    "geom:bbox":"4.975154,51.830463,4.975154,51.830463",
    "geom:latitude":51.830463,
    "geom:longitude":4.975154,
    "iso:country":"NL",
    "sg:address":"Arkelstraat 7",
    "sg:city":"Gorinchem",
    "sg:classifiers":[],
    "sg:orig_category":"Damesmodezaken",
    "sg:owner":"simplegeo",
    "sg:phone":"+31 183 631 654",
    "sg:postcode":"4201 KA",
    "sg:province":"Zuid-Holland",
    "src:geom":"simplegeo",
    "wof:belongsto":[
        85633337,
        101808515,
        85687041
    ],
    "wof:breaches":[],
    "wof:concordances":{
        "sg:id":"SG_558HnzyENxygSI8u07StFq_51.830463_4.975154@1306269985"
    },
    "wof:country":"NL",
    "wof:geomhash":"a1fc9ed543b60c4834447c8236df026a",
    "wof:hierarchy":[
        {
            "continent_id":-1,
            "country_id":85633337,
            "locality_id":101808515,
            "neighbourhood_id":-1,
            "region_id":85687041,
            "venue_id":303564845
        }
    ],
    "wof:id":303564845,
    "wof:lastmodified":1449000420,
    "wof:name":"Modehuis Landgraaf",
    "wof:parent_id":-1,
    "wof:placetype":"venue",
    "wof:superseded_by":[],
    "wof:supersedes":[],
    "wof:tags":[]
},
  "bbox": [4.975154,51.830463,4.975154,51.830463],
  "geometry": {"coordinates":[4.975154,51.830463],"type":"Point"}
}