{
  "id": 236540335,
  "type": "Feature",
  "properties": {
    "edtf:cessation":"u",
    "edtf:inception":"u",
    "geom:area":0.0,
    "geom:bbox":"6.191658,52.244598,6.191658,52.244598",
    "geom:latitude":52.244598,
    "geom:longitude":6.191658,
    "iso:country":"NL",
    "sg:address":"Zweedsestraat 19",
    "sg:city":"Deventer",
    "sg:classifiers":[],
    "sg:orig_category":"Autokeuringen",
    "sg:owner":"simplegeo",
    "sg:phone":"+31 570 637 122",
    "sg:postcode":"7418 BG",
    "sg:province":"Overijssel",
    "src:geom":"simplegeo",
    "wof:belongsto":[
        85798365,
        85633337,
        85687043
    ],
    "wof:breaches":[],
    "wof:concordances":{
        "sg:id":"SG_0ig60zcfg4ZZEKcDDMgoeO_52.244598_6.191658@1306269938"
    },
    "wof:country":"NL",
    "wof:geomhash":"13d08ae676797c526169eadc3dfa842f",
    "wof:hierarchy":[
        {
            "continent_id":-1,
            "country_id":85633337,
            "locality_id":-1,
            "neighbourhood_id":85798365,
            "region_id":85687043,
            "venue_id":236540335
        }
    ],
    "wof:id":236540335,
    "wof:lastmodified":1449002857,
    "wof:name":"Akd Autoschade",
    "wof:parent_id":85798365,
    "wof:placetype":"venue",
    "wof:superseded_by":[],
    "wof:supersedes":[],
    "wof:tags":[]
},
  "bbox": [6.191658,52.244598,6.191658,52.244598],
  "geometry": {"coordinates":[6.191658,52.244598],"type":"Point"}
}