{
  "id": 336769599,
  "type": "Feature",
  "properties": {
    "edtf:cessation":"u",
    "edtf:inception":"u",
    "geom:area":0.0,
    "geom:bbox":"6.375861,53.2388,6.375861,53.2388",
    "geom:latitude":53.2388,
    "geom:longitude":6.375861,
    "iso:country":"NL",
    "sg:address":"Niekerkerdiep Nz 13",
    "sg:city":"Briltil",
    "sg:classifiers":[],
    "sg:orig_category":"Acupunctuur",
    "sg:owner":"simplegeo",
    "sg:phone":"+31 594 500 179",
    "sg:postcode":"9805 TG",
    "sg:province":"Groningen",
    "src:geom":"simplegeo",
    "wof:belongsto":[
        85633337,
        85687059
    ],
    "wof:breaches":[],
    "wof:concordances":{
        "sg:id":"SG_2eh3eutBP4hvihnAL0Uztp_53.238800_6.375861@1306270005"
    },
    "wof:country":"NL",
    "wof:geomhash":"387330fd299f96f3eaa7a27938ebfd61",
    "wof:hierarchy":[
        {
            "continent_id":-1,
            "country_id":85633337,
            "locality_id":-1,
            "neighbourhood_id":-1,
            "region_id":85687059,
            "venue_id":336769599
        }
    ],
    "wof:id":336769599,
    "wof:lastmodified":1448997291,
    "wof:name":"Tesselaar, R J F",
    "wof:parent_id":-1,
    "wof:placetype":"venue",
    "wof:superseded_by":[],
    "wof:supersedes":[],
    "wof:tags":[]
},
  "bbox": [6.375861,53.2388,6.375861,53.2388],
  "geometry": {"coordinates":[6.375861,53.2388],"type":"Point"}
}