{
  "id": 320064157,
  "type": "Feature",
  "properties": {
    "edtf:cessation":"u",
    "edtf:inception":"u",
    "geom:area":0.0,
    "geom:bbox":"4.424158,51.925816,4.424158,51.925816",
    "geom:latitude":51.925816,
    "geom:longitude":4.424158,
    "iso:country":"NL",
    "sg:address":"Giessenwg 37",
    "sg:city":"Rotterdam",
    "sg:classifiers":[
        {
            "category":"Retail",
            "subcategory":"Auto Repair",
            "type":"Services"
        }
    ],
    "sg:owner":"simplegeo",
    "sg:phone":"+31 10 415 2840",
    "sg:postcode":"3044 AK",
    "sg:province":"Zuid-Holland",
    "sg:tags":[
        "garage"
    ],
    "src:geom":"simplegeo",
    "wof:belongsto":[
        85859747,
        85633337,
        101751843,
        85687041
    ],
    "wof:breaches":[],
    "wof:concordances":{
        "sg:id":"SG_6vg0jLe8fWQP4nzY3vdFdU_51.925816_4.424158@1306269994"
    },
    "wof:country":"NL",
    "wof:geomhash":"898876e20212e1fdb930367c6972a144",
    "wof:hierarchy":[
        {
            "continent_id":-1,
            "country_id":85633337,
            "locality_id":101751843,
            "neighbourhood_id":85859747,
            "region_id":85687041,
            "venue_id":320064157
        }
    ],
    "wof:id":320064157,
    "wof:lastmodified":1449012589,
    "wof:name":"Dhz Top Service",
    "wof:parent_id":85859747,
    "wof:placetype":"venue",
    "wof:superseded_by":[],
    "wof:supersedes":[],
    "wof:tags":[
        "garage"
    ]
},
  "bbox": [4.424158,51.925816,4.424158,51.925816],
  "geometry": {"coordinates":[4.424158,51.925816],"type":"Point"}
}