{
  "id": 320284497,
  "type": "Feature",
  "properties": {
    "edtf:cessation":"u",
    "edtf:inception":"u",
    "geom:area":0.0,
    "geom:bbox":"5.980365,52.229168,5.980365,52.229168",
    "geom:latitude":52.229168,
    "geom:longitude":5.980365,
    "iso:country":"NL",
    "sg:address":"Gentiaanstr 634",
    "sg:city":"Apeldoorn",
    "sg:classifiers":[],
    "sg:orig_category":"Glazenwasserijen",
    "sg:owner":"simplegeo",
    "sg:phone":"+31 6 11188611",
    "sg:postcode":"7322 CS",
    "sg:province":"Gelderland",
    "src:geom":"simplegeo",
    "wof:belongsto":[
        85797409,
        85633337,
        85687043
    ],
    "wof:breaches":[],
    "wof:concordances":{
        "sg:id":"SG_0dDAPN40JxQ351bRc1cuuk_52.229168_5.980365@1306269997"
    },
    "wof:country":"NL",
    "wof:geomhash":"0212d7920dc725ab8db35367e68620a6",
    "wof:hierarchy":[
        {
            "continent_id":-1,
            "country_id":85633337,
            "locality_id":-1,
            "neighbourhood_id":85797409,
            "region_id":85687043,
            "venue_id":320284497
        }
    ],
    "wof:id":320284497,
    "wof:lastmodified":1449013574,
    "wof:name":"Brienne",
    "wof:parent_id":85797409,
    "wof:placetype":"venue",
    "wof:superseded_by":[],
    "wof:supersedes":[],
    "wof:tags":[]
},
  "bbox": [5.980365,52.229168,5.980365,52.229168],
  "geometry": {"coordinates":[5.980365,52.229168],"type":"Point"}
}