{
  "id": 270102401,
  "type": "Feature",
  "properties": {
    "edtf:cessation":"u",
    "edtf:inception":"u",
    "geom:area":0.0,
    "geom:bbox":"4.477576,51.890221,4.477576,51.890221",
    "geom:latitude":51.890221,
    "geom:longitude":4.477576,
    "iso:country":"NL",
    "sg:address":"Klaverstraat 4",
    "sg:city":"Rotterdam",
    "sg:classifiers":[
        {
            "category":"Retail",
            "subcategory":"Photofinishing",
            "type":"Services"
        }
    ],
    "sg:owner":"simplegeo",
    "sg:phone":"+31 10 481 5428",
    "sg:postcode":"3083 VH",
    "sg:province":"Zuid-Holland",
    "sg:tags":[
        "foto",
        "film"
    ],
    "src:geom":"simplegeo",
    "wof:belongsto":[
        85797257,
        85633337,
        101751843,
        85687041
    ],
    "wof:breaches":[],
    "wof:concordances":{
        "sg:id":"SG_1YfmgRZldXckngBMHjw9uK_51.890221_4.477576@1306269961"
    },
    "wof:country":"NL",
    "wof:geomhash":"1d02fb561dea5cd9b1f11eb5cabc9adb",
    "wof:hierarchy":[
        {
            "continent_id":-1,
            "country_id":85633337,
            "locality_id":101751843,
            "neighbourhood_id":85797257,
            "region_id":85687041,
            "venue_id":270102401
        }
    ],
    "wof:id":270102401,
    "wof:lastmodified":1449010923,
    "wof:name":"Foto Rinus Van Heel",
    "wof:parent_id":85797257,
    "wof:placetype":"venue",
    "wof:superseded_by":[],
    "wof:supersedes":[],
    "wof:tags":[
        "foto",
        "film"
    ]
},
  "bbox": [4.477576,51.890221,4.477576,51.890221],
  "geometry": {"coordinates":[4.477576,51.890221],"type":"Point"}
}