{
  "id": 320351943,
  "type": "Feature",
  "properties": {
    "edtf:cessation":"u",
    "edtf:inception":"u",
    "geom:area":0.0,
    "geom:bbox":"6.30236,53.338303,6.30236,53.338303",
    "geom:latitude":53.338303,
    "geom:longitude":6.30236,
    "iso:country":"NL",
    "sg:address":"Grachtstraat 1",
    "sg:city":"Zoutkamp",
    "sg:classifiers":[],
    "sg:orig_category":"Goederenvervoer Over De Weg",
    "sg:owner":"simplegeo",
    "sg:phone":"+31 595 402 313",
    "sg:postcode":"9974 RC",
    "sg:province":"Groningen",
    "src:geom":"simplegeo",
    "wof:belongsto":[
        85633337,
        101807499,
        85687059
    ],
    "wof:breaches":[],
    "wof:concordances":{
        "sg:id":"SG_2kzZG3xr3mniCSoWz5tzLK_53.338303_6.302360@1306269997"
    },
    "wof:country":"NL",
    "wof:geomhash":"bc1a7dd55ae57ae21ee139663d429615",
    "wof:hierarchy":[
        {
            "continent_id":-1,
            "country_id":85633337,
            "locality_id":101807499,
            "neighbourhood_id":-1,
            "region_id":85687059,
            "venue_id":320351943
        }
    ],
    "wof:id":320351943,
    "wof:lastmodified":1449014415,
    "wof:name":"J. Boerema Int. Transport",
    "wof:parent_id":-1,
    "wof:placetype":"venue",
    "wof:superseded_by":[],
    "wof:supersedes":[],
    "wof:tags":[]
},
  "bbox": [6.30236,53.338303,6.30236,53.338303],
  "geometry": {"coordinates":[6.30236,53.338303],"type":"Point"}
}