{
  "id": 219576185,
  "type": "Feature",
  "properties": {
    "edtf:cessation":"u",
    "edtf:inception":"u",
    "geom:area":0.0,
    "geom:bbox":"5.658284,51.482239,5.658284,51.482239",
    "geom:latitude":51.482239,
    "geom:longitude":5.658284,
    "iso:country":"NL",
    "sg:address":"Mr Rietkerkln 5",
    "sg:city":"Helmond",
    "sg:classifiers":[],
    "sg:orig_category":"Administratie- En Boekhoudkantoren",
    "sg:owner":"simplegeo",
    "sg:phone":"+31 492 510 242",
    "sg:postcode":"5707 KM",
    "sg:province":"North Brabant",
    "src:geom":"simplegeo",
    "wof:belongsto":[
        85798473,
        85633337,
        85687035
    ],
    "wof:breaches":[],
    "wof:concordances":{
        "sg:id":"SG_0TzDPr2UWbSFu605FR2Nkd_51.482239_5.658284@1306269927"
    },
    "wof:country":"NL",
    "wof:geomhash":"797534aba2848efffaf26cbcb1efc1df",
    "wof:hierarchy":[
        {
            "continent_id":-1,
            "country_id":85633337,
            "locality_id":-1,
            "neighbourhood_id":85798473,
            "region_id":85687035,
            "venue_id":219576185
        }
    ],
    "wof:id":219576185,
    "wof:lastmodified":1449073117,
    "wof:name":"Berendsen Vof",
    "wof:parent_id":85798473,
    "wof:placetype":"venue",
    "wof:superseded_by":[],
    "wof:supersedes":[],
    "wof:tags":[]
},
  "bbox": [5.658284,51.482239,5.658284,51.482239],
  "geometry": {"coordinates":[5.658284,51.482239],"type":"Point"}
}