{
  "id": 252900907,
  "type": "Feature",
  "properties": {
    "edtf:cessation":"u",
    "edtf:inception":"u",
    "geom:area":0.0,
    "geom:bbox":"5.726013,50.82896,5.726013,50.82896",
    "geom:latitude":50.82896,
    "geom:longitude":5.726013,
    "iso:country":"NL",
    "sg:address":"Geyaartsborg 2",
    "sg:city":"Maastricht",
    "sg:classifiers":[],
    "sg:orig_category":"Mensendieck - Oefentherapeuten",
    "sg:owner":"simplegeo",
    "sg:phone":"+31 43 361 0241",
    "sg:postcode":"6228 AE",
    "sg:province":"Limburg",
    "src:geom":"simplegeo",
    "wof:belongsto":[
        85797317,
        85633337,
        85687033
    ],
    "wof:breaches":[],
    "wof:concordances":{
        "sg:id":"SG_7QwgPMiknLNwDlh9HcOXH9_50.828960_5.726013@1306269944"
    },
    "wof:country":"NL",
    "wof:geomhash":"d5ec3f382f74f06a12fe5ae332a29422",
    "wof:hierarchy":[
        {
            "continent_id":-1,
            "country_id":85633337,
            "locality_id":-1,
            "neighbourhood_id":85797317,
            "region_id":85687033,
            "venue_id":252900907
        }
    ],
    "wof:id":252900907,
    "wof:lastmodified":1449005885,
    "wof:name":"Overtoom M",
    "wof:parent_id":85797317,
    "wof:placetype":"venue",
    "wof:superseded_by":[],
    "wof:supersedes":[],
    "wof:tags":[]
},
  "bbox": [5.726013,50.82896,5.726013,50.82896],
  "geometry": {"coordinates":[5.726013,50.82896],"type":"Point"}
}