{
  "id": 287082501,
  "type": "Feature",
  "properties": {
    "edtf:cessation":"u",
    "edtf:inception":"u",
    "geom:area":0.0,
    "geom:bbox":"5.970233,50.943302,5.970233,50.943302",
    "geom:latitude":50.943302,
    "geom:longitude":5.970233,
    "iso:country":"NL",
    "sg:address":"Wyenwg 151",
    "sg:city":"Brunssum",
    "sg:classifiers":[],
    "sg:orig_category":"Bloemen En Planten",
    "sg:owner":"simplegeo",
    "sg:phone":"+31 45 521 3081",
    "sg:postcode":"6446 AK",
    "sg:province":"Limburg",
    "src:geom":"simplegeo",
    "wof:belongsto":[
        85797679,
        85633337,
        101839207,
        85687033
    ],
    "wof:breaches":[],
    "wof:concordances":{
        "sg:id":"SG_49Gj2HojvjFjFZ5ofuezan_50.943302_5.970233@1306269976"
    },
    "wof:country":"NL",
    "wof:geomhash":"c69b994e0030666a5919af08e333d4ed",
    "wof:hierarchy":[
        {
            "continent_id":-1,
            "country_id":85633337,
            "locality_id":101839207,
            "neighbourhood_id":85797679,
            "region_id":85687033,
            "venue_id":287082501
        }
    ],
    "wof:id":287082501,
    "wof:lastmodified":1449000695,
    "wof:name":"Mimosa",
    "wof:parent_id":85797679,
    "wof:placetype":"venue",
    "wof:superseded_by":[],
    "wof:supersedes":[],
    "wof:tags":[]
},
  "bbox": [5.970233,50.943302,5.970233,50.943302],
  "geometry": {"coordinates":[5.970233,50.943302],"type":"Point"}
}