{
  "id": 286309543,
  "type": "Feature",
  "properties": {
    "edtf:cessation":"u",
    "edtf:inception":"u",
    "geom:area":0.0,
    "geom:bbox":"4.904268,52.196098,4.904268,52.196098",
    "geom:latitude":52.196098,
    "geom:longitude":4.904268,
    "iso:country":"NL",
    "sg:address":"Stationsweg 7",
    "sg:city":"Wilnis",
    "sg:classifiers":[
        {
            "category":"Education",
            "subcategory":"Preschool",
            "type":"Public Place"
        }
    ],
    "sg:owner":"simplegeo",
    "sg:phone":"+31 297 281 614",
    "sg:postcode":"3648 AN",
    "sg:province":"Utrecht",
    "sg:tags":[
        "kleuteronderwijs",
        "basis-"
    ],
    "src:geom":"simplegeo",
    "wof:belongsto":[
        85633337,
        101837677,
        85687039
    ],
    "wof:breaches":[],
    "wof:concordances":{
        "sg:id":"SG_7VBdVaufy2YR4Nezg7VIOC_52.196098_4.904268@1306269967"
    },
    "wof:country":"NL",
    "wof:geomhash":"1bc3e60c1e98f329e2baba7135d5f27c",
    "wof:hierarchy":[
        {
            "continent_id":-1,
            "country_id":85633337,
            "locality_id":101837677,
            "neighbourhood_id":-1,
            "region_id":85687039,
            "venue_id":286309543
        }
    ],
    "wof:id":286309543,
    "wof:lastmodified":1449015825,
    "wof:name":"Prot Chr Basisschool Koningin Juliana",
    "wof:parent_id":-1,
    "wof:placetype":"venue",
    "wof:superseded_by":[],
    "wof:supersedes":[],
    "wof:tags":[
        "kleuteronderwijs",
        "basis-"
    ]
},
  "bbox": [4.904268,52.196098,4.904268,52.196098],
  "geometry": {"coordinates":[4.904268,52.196098],"type":"Point"}
}