{
  "id": 169711287,
  "type": "Feature",
  "properties": {
    "edtf:cessation":"u",
    "edtf:inception":"u",
    "geom:area":0.0,
    "geom:bbox":"6.596745,53.018749,6.596745,53.018749",
    "geom:latitude":53.018749,
    "geom:longitude":6.596745,
    "iso:country":"NL",
    "sg:address":"Beekeerdhamel 17",
    "sg:city":"Assen",
    "sg:classifiers":[],
    "sg:orig_category":"Kappers",
    "sg:owner":"simplegeo",
    "sg:phone":"+31 592 409 056",
    "sg:postcode":"9403 XA",
    "sg:province":"Provincie Drenthe",
    "src:geom":"simplegeo",
    "wof:belongsto":[
        85798101,
        85633337,
        101751879,
        85687051
    ],
    "wof:breaches":[],
    "wof:concordances":{
        "sg:id":"SG_2yocaJMqoxka2yqNt17hlj_53.018749_6.596745@1306269905"
    },
    "wof:country":"NL",
    "wof:geomhash":"134b6a6aa5d62b34a16136714c24d14a",
    "wof:hierarchy":[
        {
            "continent_id":-1,
            "country_id":85633337,
            "locality_id":101751879,
            "neighbourhood_id":85798101,
            "region_id":85687051,
            "venue_id":169711287
        }
    ],
    "wof:id":169711287,
    "wof:lastmodified":1449035351,
    "wof:name":"Kniptiek",
    "wof:parent_id":85798101,
    "wof:placetype":"venue",
    "wof:superseded_by":[],
    "wof:supersedes":[],
    "wof:tags":[]
},
  "bbox": [6.596745,53.018749,6.596745,53.018749],
  "geometry": {"coordinates":[6.596745,53.018749],"type":"Point"}
}