{
  "id": 320122995,
  "type": "Feature",
  "properties": {
    "edtf:cessation":"u",
    "edtf:inception":"u",
    "geom:area":0.0,
    "geom:bbox":"4.41701,51.823044,4.41701,51.823044",
    "geom:latitude":51.823044,
    "geom:longitude":4.41701,
    "iso:country":"NL",
    "sg:address":"A Tasmanstr 4",
    "sg:city":"Oud Beyerland",
    "sg:classifiers":[
        {
            "category":"Retail",
            "subcategory":"Auto Repair",
            "type":"Services"
        }
    ],
    "sg:owner":"simplegeo",
    "sg:phone":"+31 186 612 400",
    "sg:postcode":"3262 XA",
    "sg:province":"Zuid-Holland",
    "sg:tags":[
        "garage"
    ],
    "src:geom":"simplegeo",
    "wof:belongsto":[
        85798725,
        85633337,
        85687041
    ],
    "wof:breaches":[],
    "wof:concordances":{
        "sg:id":"SG_5lh6ubUZrgtZ256C6ruRlF_51.823044_4.417010@1306269995"
    },
    "wof:country":"NL",
    "wof:geomhash":"e1753e2e9581edaecfd365552b90c8ce",
    "wof:hierarchy":[
        {
            "continent_id":-1,
            "country_id":85633337,
            "locality_id":-1,
            "neighbourhood_id":85798725,
            "region_id":85687041,
            "venue_id":320122995
        }
    ],
    "wof:id":320122995,
    "wof:lastmodified":1449013379,
    "wof:name":"Wust",
    "wof:parent_id":85798725,
    "wof:placetype":"venue",
    "wof:superseded_by":[],
    "wof:supersedes":[],
    "wof:tags":[
        "garage"
    ]
},
  "bbox": [4.41701,51.823044,4.41701,51.823044],
  "geometry": {"coordinates":[4.41701,51.823044],"type":"Point"}
}