{
  "id": 286597037,
  "type": "Feature",
  "properties": {
    "edtf:cessation":"u",
    "edtf:inception":"u",
    "geom:area":0.0,
    "geom:bbox":"5.840523,51.994946,5.840523,51.994946",
    "geom:latitude":51.994946,
    "geom:longitude":5.840523,
    "iso:country":"NL",
    "sg:address":"Johannahoeve 4",
    "sg:city":"Oosterbeek",
    "sg:classifiers":[],
    "sg:orig_category":"Bejaarden - Verzorgingstehuizen",
    "sg:owner":"simplegeo",
    "sg:phone":"+31 26 339 8082",
    "sg:postcode":"6861 WJ",
    "sg:province":"Gelderland",
    "src:geom":"simplegeo",
    "wof:belongsto":[
        85797075,
        85633337,
        85687043
    ],
    "wof:breaches":[],
    "wof:concordances":{
        "sg:id":"SG_2XDlZGpkdh7RZ0b5I4yMtG_51.994946_5.840523@1306269971"
    },
    "wof:country":"NL",
    "wof:geomhash":"464c1c43c47af5be10cbdbc0ec60df50",
    "wof:hierarchy":[
        {
            "continent_id":-1,
            "country_id":85633337,
            "locality_id":-1,
            "neighbourhood_id":85797075,
            "region_id":85687043,
            "venue_id":286597037
        }
    ],
    "wof:id":286597037,
    "wof:lastmodified":1449018046,
    "wof:name":"Mill Hill Procuur",
    "wof:parent_id":85797075,
    "wof:placetype":"venue",
    "wof:superseded_by":[],
    "wof:supersedes":[],
    "wof:tags":[]
},
  "bbox": [5.840523,51.994946,5.840523,51.994946],
  "geometry": {"coordinates":[5.840523,51.994946],"type":"Point"}
}