{
  "id": 253584623,
  "type": "Feature",
  "properties": {
    "edtf:cessation":"u",
    "edtf:inception":"u",
    "geom:area":0.0,
    "geom:bbox":"5.492671,51.397858,5.492671,51.397858",
    "geom:latitude":51.397858,
    "geom:longitude":5.492671,
    "iso:country":"NL",
    "sg:address":"Varendonk 33",
    "sg:city":"Waalre",
    "sg:classifiers":[
        {
            "category":"Personal",
            "subcategory":"Nail Salon",
            "type":"Services"
        }
    ],
    "sg:owner":"simplegeo",
    "sg:phone":"+31 6 12400876",
    "sg:postcode":"5583 GR",
    "sg:province":"Noord-Brabant",
    "sg:tags":[
        "pedicure"
    ],
    "src:geom":"simplegeo",
    "wof:belongsto":[
        85797043,
        85633337,
        85687035
    ],
    "wof:breaches":[],
    "wof:concordances":{
        "sg:id":"SG_0yR5cNTZi4FV8gJmNEuW2D_51.397858_5.492671@1306269951"
    },
    "wof:country":"NL",
    "wof:geomhash":"1a18d7875ba177d62a66768ed0481ace",
    "wof:hierarchy":[
        {
            "continent_id":-1,
            "country_id":85633337,
            "locality_id":-1,
            "neighbourhood_id":85797043,
            "region_id":85687035,
            "venue_id":253584623
        }
    ],
    "wof:id":253584623,
    "wof:lastmodified":1449063138,
    "wof:name":"Voetbalans",
    "wof:parent_id":85797043,
    "wof:placetype":"venue",
    "wof:superseded_by":[],
    "wof:supersedes":[],
    "wof:tags":[
        "pedicure"
    ]
},
  "bbox": [5.492671,51.397858,5.492671,51.397858],
  "geometry": {"coordinates":[5.492671,51.397858],"type":"Point"}
}