{
  "id": 270463549,
  "type": "Feature",
  "properties": {
    "edtf:cessation":"u",
    "edtf:inception":"u",
    "geom:area":0.0,
    "geom:bbox":"4.481744,51.920403,4.481744,51.920403",
    "geom:latitude":51.920403,
    "geom:longitude":4.481744,
    "iso:country":"NL",
    "sg:address":"Rodezand 15",
    "sg:city":"Rotterdam",
    "sg:classifiers":[
        {
            "category":"Bars & Pubs",
            "subcategory":"",
            "type":"Food & Drink"
        }
    ],
    "sg:owner":"simplegeo",
    "sg:phone":"+31 10 411 0078",
    "sg:postcode":"3011 AM",
    "sg:province":"Zuid-Holland",
    "src:geom":"simplegeo",
    "wof:belongsto":[
        85797053,
        85633337,
        101751843,
        85687041
    ],
    "wof:breaches":[],
    "wof:concordances":{
        "sg:id":"SG_3PV6EgO6LIvh9DvzQFTSeB_51.920403_4.481744@1306269965"
    },
    "wof:country":"NL",
    "wof:geomhash":"b23a628d607ea2fd052a312dcb62d9d1",
    "wof:hierarchy":[
        {
            "continent_id":-1,
            "country_id":85633337,
            "locality_id":101751843,
            "neighbourhood_id":85797053,
            "region_id":85687041,
            "venue_id":270463549
        }
    ],
    "wof:id":270463549,
    "wof:lastmodified":1449010359,
    "wof:name":"Paddy Murphy'S",
    "wof:parent_id":85797053,
    "wof:placetype":"venue",
    "wof:superseded_by":[],
    "wof:supersedes":[],
    "wof:tags":[]
},
  "bbox": [4.481744,51.920403,4.481744,51.920403],
  "geometry": {"coordinates":[4.481744,51.920403],"type":"Point"}
}