{
  "id": 219377499,
  "type": "Feature",
  "properties": {
    "edtf:cessation":"u",
    "edtf:inception":"u",
    "geom:area":0.0,
    "geom:bbox":"4.88343,52.332214,4.88343,52.332214",
    "geom:latitude":52.332214,
    "geom:longitude":4.88343,
    "iso:country":"NL",
    "sg:address":"Oldengaarde 73",
    "sg:city":"Amsterdam",
    "sg:classifiers":[],
    "sg:orig_category":"Loodgieterswerk, Verwarming And Sanitaire Installaties",
    "sg:owner":"simplegeo",
    "sg:phone":"+31 20 404 2697",
    "sg:postcode":"1083 TD",
    "sg:province":"Noord-Holland",
    "src:geom":"simplegeo",
    "wof:belongsto":[
        85797223,
        85633337,
        101751893,
        85687053
    ],
    "wof:breaches":[],
    "wof:concordances":{
        "sg:id":"SG_6etX4sfwstzBedvqftFNvG_52.332214_4.883430@1306269925"
    },
    "wof:country":"NL",
    "wof:geomhash":"df23377fdf273ea688a5af093e90c989",
    "wof:hierarchy":[
        {
            "continent_id":-1,
            "country_id":85633337,
            "locality_id":101751893,
            "neighbourhood_id":85797223,
            "region_id":85687053,
            "venue_id":219377499
        }
    ],
    "wof:id":219377499,
    "wof:lastmodified":1449071712,
    "wof:name":"J.M. Van Goolen",
    "wof:parent_id":85797223,
    "wof:placetype":"venue",
    "wof:superseded_by":[],
    "wof:supersedes":[],
    "wof:tags":[]
},
  "bbox": [4.88343,52.332214,4.88343,52.332214],
  "geometry": {"coordinates":[4.88343,52.332214],"type":"Point"}
}