{
  "id": 319868193,
  "type": "Feature",
  "properties": {
    "edtf:cessation":"u",
    "edtf:inception":"u",
    "geom:area":0.0,
    "geom:bbox":"5.697029,51.954105,5.697029,51.954105",
    "geom:latitude":51.954105,
    "geom:longitude":5.697029,
    "iso:country":"NL",
    "sg:address":"Knoppersweg 4",
    "sg:city":"Randwijk",
    "sg:classifiers":[],
    "sg:orig_category":"Houten Verpakkingen Fab",
    "sg:owner":"simplegeo",
    "sg:phone":"+31 488 491 286",
    "sg:postcode":"6668 AT",
    "sg:province":"Gelderland",
    "src:geom":"simplegeo",
    "wof:belongsto":[
        85633337,
        85687043
    ],
    "wof:breaches":[],
    "wof:concordances":{
        "sg:id":"SG_1APAmm9y5zXAMBEoEpQjhM_51.954105_5.697029@1306269992"
    },
    "wof:country":"NL",
    "wof:geomhash":"96a6d7c938fcf39f7d0e9e9886be0f9a",
    "wof:hierarchy":[
        {
            "continent_id":-1,
            "country_id":85633337,
            "locality_id":-1,
            "neighbourhood_id":-1,
            "region_id":85687043,
            "venue_id":319868193
        }
    ],
    "wof:id":319868193,
    "wof:lastmodified":1449024129,
    "wof:name":"Houtzagerij De Vree Bv",
    "wof:parent_id":-1,
    "wof:placetype":"venue",
    "wof:superseded_by":[],
    "wof:supersedes":[],
    "wof:tags":[]
},
  "bbox": [5.697029,51.954105,5.697029,51.954105],
  "geometry": {"coordinates":[5.697029,51.954105],"type":"Point"}
}