{
  "id": 320273529,
  "type": "Feature",
  "properties": {
    "edtf:cessation":"u",
    "edtf:inception":"u",
    "geom:area":0.0,
    "geom:bbox":"5.066312,51.523685,5.066312,51.523685",
    "geom:latitude":51.523685,
    "geom:longitude":5.066312,
    "iso:country":"NL",
    "sg:address":"Tilburgseweg 105",
    "sg:city":"Goirle",
    "sg:classifiers":[],
    "sg:orig_category":"Glaszetten",
    "sg:owner":"simplegeo",
    "sg:phone":"+31 13 534 2920",
    "sg:postcode":"5051 AB",
    "sg:province":"Noord-Brabant",
    "src:geom":"simplegeo",
    "wof:belongsto":[
        85797199,
        85633337,
        85687035
    ],
    "wof:breaches":[],
    "wof:concordances":{
        "sg:id":"SG_01TbEqBA52k37gRHfjaU90_51.523685_5.066312@1306269996"
    },
    "wof:country":"NL",
    "wof:geomhash":"f448b9d79d46d9eda74fce9d65c2c38c",
    "wof:hierarchy":[
        {
            "continent_id":-1,
            "country_id":85633337,
            "locality_id":-1,
            "neighbourhood_id":85797199,
            "region_id":85687035,
            "venue_id":320273529
        }
    ],
    "wof:id":320273529,
    "wof:lastmodified":1449013196,
    "wof:name":"Glashandel H. Schraven Bv",
    "wof:parent_id":85797199,
    "wof:placetype":"venue",
    "wof:superseded_by":[],
    "wof:supersedes":[],
    "wof:tags":[]
},
  "bbox": [5.066312,51.523685,5.066312,51.523685],
  "geometry": {"coordinates":[5.066312,51.523685],"type":"Point"}
}