{
  "id": 269979013,
  "type": "Feature",
  "properties": {
    "edtf:cessation":"u",
    "edtf:inception":"u",
    "geom:area":0.0,
    "geom:bbox":"4.667188,52.132465,4.667188,52.132465",
    "geom:latitude":52.132465,
    "geom:longitude":4.667188,
    "iso:country":"NL",
    "sg:address":"Merelstraat 47",
    "sg:city":"Alphen A/D Rijn",
    "sg:classifiers":[],
    "sg:orig_category":"Film-, Tv- And Videoproductie",
    "sg:owner":"simplegeo",
    "sg:phone":"+31 172 473 878",
    "sg:postcode":"2406 CR",
    "sg:province":"Zuid-Holland",
    "src:geom":"simplegeo",
    "wof:belongsto":[
        85633337,
        101751837,
        85687041
    ],
    "wof:breaches":[],
    "wof:concordances":{
        "sg:id":"SG_4n8nUd5oQyxlvGiwSY0aGq_52.132465_4.667188@1306269960"
    },
    "wof:country":"NL",
    "wof:geomhash":"29f95d31035667891140924cf5cba950",
    "wof:hierarchy":[
        {
            "continent_id":-1,
            "country_id":85633337,
            "locality_id":101751837,
            "neighbourhood_id":-1,
            "region_id":85687041,
            "venue_id":269979013
        }
    ],
    "wof:id":269979013,
    "wof:lastmodified":1449037856,
    "wof:name":"Zoom Serv",
    "wof:parent_id":-1,
    "wof:placetype":"venue",
    "wof:superseded_by":[],
    "wof:supersedes":[],
    "wof:tags":[]
},
  "bbox": [4.667188,52.132465,4.667188,52.132465],
  "geometry": {"coordinates":[4.667188,52.132465],"type":"Point"}
}