{
  "id": 336713797,
  "type": "Feature",
  "properties": {
    "edtf:cessation":"u",
    "edtf:inception":"u",
    "geom:area":0.0,
    "geom:bbox":"6.601702,53.300083,6.601702,53.300083",
    "geom:latitude":53.300083,
    "geom:longitude":6.601702,
    "iso:country":"NL",
    "sg:address":"De Vlijt 2B",
    "sg:city":"Bedum",
    "sg:classifiers":[
        {
            "category":"Professional",
            "subcategory":"Accounting & Tax Preparation",
            "type":"Services"
        }
    ],
    "sg:owner":"simplegeo",
    "sg:phone":"+31 50 304 8090",
    "sg:postcode":"9780 AA",
    "sg:province":"Groningen",
    "sg:tags":[
        "accountant"
    ],
    "src:geom":"simplegeo",
    "wof:belongsto":[
        85633337,
        101806189,
        85687059
    ],
    "wof:breaches":[],
    "wof:concordances":{
        "sg:id":"SG_6gXaLvKkWDwihCYcgmOH8p_53.300083_6.601702@1306270005"
    },
    "wof:country":"NL",
    "wof:geomhash":"4ad457abb1a6653fb1dd617890272089",
    "wof:hierarchy":[
        {
            "continent_id":-1,
            "country_id":85633337,
            "locality_id":101806189,
            "neighbourhood_id":-1,
            "region_id":85687059,
            "venue_id":336713797
        }
    ],
    "wof:id":336713797,
    "wof:lastmodified":1448997920,
    "wof:name":"Accountantskantoor Groeneveld",
    "wof:parent_id":-1,
    "wof:placetype":"venue",
    "wof:superseded_by":[],
    "wof:supersedes":[],
    "wof:tags":[
        "accountant"
    ]
},
  "bbox": [6.601702,53.300083,6.601702,53.300083],
  "geometry": {"coordinates":[6.601702,53.300083],"type":"Point"}
}