{
  "id": 270457609,
  "type": "Feature",
  "properties": {
    "edtf:cessation":"u",
    "edtf:inception":"u",
    "geom:area":0.0,
    "geom:bbox":"4.599432,51.870884,4.599432,51.870884",
    "geom:latitude":51.870884,
    "geom:longitude":4.599432,
    "iso:country":"NL",
    "sg:address":"Raadhuispln 55B",
    "sg:city":"Ridderkerk",
    "sg:classifiers":[],
    "sg:orig_category":"Banket",
    "sg:owner":"simplegeo",
    "sg:phone":"+31 180 497 888",
    "sg:postcode":"2981 ER",
    "sg:province":"South Holland",
    "src:geom":"simplegeo",
    "wof:belongsto":[
        85797147,
        85633337,
        101754749,
        85687041
    ],
    "wof:breaches":[],
    "wof:concordances":{
        "sg:id":"SG_7i8EWRNI1ED0okvfFjITrG_51.870884_4.599432@1306269965"
    },
    "wof:country":"NL",
    "wof:geomhash":"fc95a159dea3945ad0d1b4c5e40a59c9",
    "wof:hierarchy":[
        {
            "continent_id":-1,
            "country_id":85633337,
            "locality_id":101754749,
            "neighbourhood_id":85797147,
            "region_id":85687041,
            "venue_id":270457609
        }
    ],
    "wof:id":270457609,
    "wof:lastmodified":1449010308,
    "wof:name":"Ridderke, 'T",
    "wof:parent_id":85797147,
    "wof:placetype":"venue",
    "wof:superseded_by":[],
    "wof:supersedes":[],
    "wof:tags":[]
},
  "bbox": [4.599432,51.870884,4.599432,51.870884],
  "geometry": {"coordinates":[4.599432,51.870884],"type":"Point"}
}