{
  "id": 270500041,
  "type": "Feature",
  "properties": {
    "edtf:cessation":"u",
    "edtf:inception":"u",
    "geom:area":0.0,
    "geom:bbox":"4.269274,52.056831,4.269274,52.056831",
    "geom:latitude":52.056831,
    "geom:longitude":4.269274,
    "iso:country":"NL",
    "sg:address":"Baambruggestraat 2",
    "sg:city":"'S Gravenhage",
    "sg:classifiers":[
        {
            "category":"Education",
            "subcategory":"Preschool",
            "type":"Public Place"
        }
    ],
    "sg:owner":"simplegeo",
    "sg:phone":"+31 70 366 4493",
    "sg:postcode":"2546 SK",
    "sg:province":"South Holland",
    "sg:tags":[
        "kleuteronderwijs",
        "basis-"
    ],
    "src:geom":"simplegeo",
    "wof:belongsto":[
        85798043,
        85633337,
        101752763,
        85687041
    ],
    "wof:breaches":[],
    "wof:concordances":{
        "sg:id":"SG_5P1W7L22O2NiCFRG38nMo5_52.056831_4.269274@1306269966"
    },
    "wof:country":"NL",
    "wof:geomhash":"ee235341a34ddc0b3fbf2e80c5bc2843",
    "wof:hierarchy":[
        {
            "continent_id":-1,
            "country_id":85633337,
            "locality_id":101752763,
            "neighbourhood_id":85798043,
            "region_id":85687041,
            "venue_id":270500041
        }
    ],
    "wof:id":270500041,
    "wof:lastmodified":1449009231,
    "wof:name":"Dalton Basisschool Helen Parkhurst",
    "wof:parent_id":85798043,
    "wof:placetype":"venue",
    "wof:superseded_by":[],
    "wof:supersedes":[],
    "wof:tags":[
        "kleuteronderwijs",
        "basis-"
    ]
},
  "bbox": [4.269274,52.056831,4.269274,52.056831],
  "geometry": {"coordinates":[4.269274,52.056831],"type":"Point"}
}