{
  "id": 253243561,
  "type": "Feature",
  "properties": {
    "edtf:cessation":"u",
    "edtf:inception":"u",
    "geom:area":0.0,
    "geom:bbox":"5.673141,53.046906,5.673141,53.046906",
    "geom:latitude":53.046906,
    "geom:longitude":5.673141,
    "iso:country":"NL",
    "sg:address":"Koeriersterswei 2",
    "sg:city":"Sneek",
    "sg:classifiers":[],
    "sg:orig_category":"Meubelstoffering",
    "sg:owner":"simplegeo",
    "sg:phone":"+31 515 430 654",
    "sg:postcode":"8603 EP",
    "sg:province":"Friesland",
    "src:geom":"simplegeo",
    "wof:belongsto":[
        85797295,
        85633337,
        85687055
    ],
    "wof:breaches":[],
    "wof:concordances":{
        "sg:id":"SG_5KkbTiLRwAIFyoDGyHT6F3_53.046906_5.673141@1306269947"
    },
    "wof:country":"NL",
    "wof:geomhash":"85e5a98a85ddc9bdd13e026de3f3cecb",
    "wof:hierarchy":[
        {
            "continent_id":-1,
            "country_id":85633337,
            "locality_id":-1,
            "neighbourhood_id":85797295,
            "region_id":85687055,
            "venue_id":253243561
        }
    ],
    "wof:id":253243561,
    "wof:lastmodified":1449063786,
    "wof:name":"Veen Stoffeerderij, Van Der",
    "wof:parent_id":85797295,
    "wof:placetype":"venue",
    "wof:superseded_by":[],
    "wof:supersedes":[],
    "wof:tags":[]
},
  "bbox": [5.673141,53.046906,5.673141,53.046906],
  "geometry": {"coordinates":[5.673141,53.046906],"type":"Point"}
}