{
  "id": 203216357,
  "type": "Feature",
  "properties": {
    "edtf:cessation":"u",
    "edtf:inception":"u",
    "geom:area":0.0,
    "geom:bbox":"5.614187,52.320366,5.614187,52.320366",
    "geom:latitude":52.320366,
    "geom:longitude":5.614187,
    "iso:country":"NL",
    "sg:address":"F Kortlangln 160",
    "sg:city":"Ermelo",
    "sg:classifiers":[],
    "sg:orig_category":"Vetsmelterijen",
    "sg:owner":"simplegeo",
    "sg:phone":"+31 341 355 760",
    "sg:postcode":"3851 SJ",
    "sg:province":"Gelderland",
    "src:geom":"simplegeo",
    "wof:belongsto":[
        85798397,
        85633337,
        101837779,
        85687043
    ],
    "wof:breaches":[],
    "wof:concordances":{
        "sg:id":"SG_2eEWlC9frdmV77EPLNSekk_52.320366_5.614187@1306269922"
    },
    "wof:country":"NL",
    "wof:geomhash":"5c011ff7764070ba0394852e408d6944",
    "wof:hierarchy":[
        {
            "continent_id":-1,
            "country_id":85633337,
            "locality_id":101837779,
            "neighbourhood_id":85798397,
            "region_id":85687043,
            "venue_id":203216357
        }
    ],
    "wof:id":203216357,
    "wof:lastmodified":1449026651,
    "wof:name":"Eurovet Bv",
    "wof:parent_id":85798397,
    "wof:placetype":"venue",
    "wof:superseded_by":[],
    "wof:supersedes":[],
    "wof:tags":[]
},
  "bbox": [5.614187,52.320366,5.614187,52.320366],
  "geometry": {"coordinates":[5.614187,52.320366],"type":"Point"}
}