{
  "id": 219992941,
  "type": "Feature",
  "properties": {
    "edtf:cessation":"u",
    "edtf:inception":"u",
    "geom:area":0.0,
    "geom:bbox":"6.310535,52.533569,6.310535,52.533569",
    "geom:latitude":52.533569,
    "geom:longitude":6.310535,
    "iso:country":"NL",
    "sg:address":"Schoolstr Oudleus 7",
    "sg:city":"Dalfsen",
    "sg:classifiers":[],
    "sg:orig_category":"Adviesbureaus Bouwkunde",
    "sg:owner":"simplegeo",
    "sg:phone":"+31 529 471 434",
    "sg:postcode":"7722 SZ",
    "sg:province":"NL.08",
    "src:geom":"simplegeo",
    "wof:belongsto":[
        85633337,
        85687045
    ],
    "wof:breaches":[],
    "wof:concordances":{
        "sg:id":"SG_6vUXxQSRZThwJP5imliE4R_52.533569_6.310535@1306269931"
    },
    "wof:country":"NL",
    "wof:geomhash":"25f26de5878006dfedd66a4e53aa53ab",
    "wof:hierarchy":[
        {
            "continent_id":-1,
            "country_id":85633337,
            "locality_id":-1,
            "neighbourhood_id":-1,
            "region_id":85687045,
            "venue_id":219992941
        }
    ],
    "wof:id":219992941,
    "wof:lastmodified":1449072055,
    "wof:name":"Hogenkamp, T",
    "wof:parent_id":-1,
    "wof:placetype":"venue",
    "wof:superseded_by":[],
    "wof:supersedes":[],
    "wof:tags":[]
},
  "bbox": [6.310535,52.533569,6.310535,52.533569],
  "geometry": {"coordinates":[6.310535,52.533569],"type":"Point"}
}