{
  "id": 320362265,
  "type": "Feature",
  "properties": {
    "edtf:cessation":"u",
    "edtf:inception":"u",
    "geom:area":0.0,
    "geom:bbox":"5.512286,51.615425,5.512286,51.615425",
    "geom:latitude":51.615425,
    "geom:longitude":5.512286,
    "iso:country":"NL",
    "sg:address":"Huygensweg 18",
    "sg:city":"Veghel",
    "sg:classifiers":[],
    "sg:orig_category":"Goederenvervoer Over De Weg",
    "sg:owner":"simplegeo",
    "sg:phone":"+31 413 363 939",
    "sg:postcode":"5466 AN",
    "sg:province":"Noord-Brabant",
    "src:geom":"simplegeo",
    "wof:belongsto":[
        85633337,
        101808329,
        85687035
    ],
    "wof:breaches":[],
    "wof:concordances":{
        "sg:id":"SG_0IsK9grQ3Dkd1I1F1V9yB2_51.615425_5.512286@1306269997"
    },
    "wof:country":"NL",
    "wof:geomhash":"69dfb168c39111cd5b5592a7ca5d6811",
    "wof:hierarchy":[
        {
            "continent_id":-1,
            "country_id":85633337,
            "locality_id":101808329,
            "neighbourhood_id":-1,
            "region_id":85687035,
            "venue_id":320362265
        }
    ],
    "wof:id":320362265,
    "wof:lastmodified":1449013679,
    "wof:name":"Kuijpers Transport Vof",
    "wof:parent_id":-1,
    "wof:placetype":"venue",
    "wof:superseded_by":[],
    "wof:supersedes":[],
    "wof:tags":[]
},
  "bbox": [5.512286,51.615425,5.512286,51.615425],
  "geometry": {"coordinates":[5.512286,51.615425],"type":"Point"}
}