{
  "id": 185600739,
  "type": "Feature",
  "properties": {
    "edtf:cessation":"u",
    "edtf:inception":"u",
    "geom:area":0.0,
    "geom:bbox":"4.657674,52.482086,4.657674,52.482086",
    "geom:latitude":52.482086,
    "geom:longitude":4.657674,
    "iso:country":"NL",
    "sg:address":"Begijnenstraat 5",
    "sg:city":"Beverwijk",
    "sg:classifiers":[],
    "sg:orig_category":"Kappers",
    "sg:owner":"simplegeo",
    "sg:phone":"+31 251 223 279",
    "sg:postcode":"1941 BR",
    "sg:province":"Noord-Holland",
    "src:geom":"simplegeo",
    "wof:belongsto":[
        85797997,
        85633337,
        101754793,
        85687053
    ],
    "wof:breaches":[],
    "wof:concordances":{
        "sg:id":"SG_27rPhOHoIT70o9thietwb5_52.482086_4.657674@1306269906"
    },
    "wof:country":"NL",
    "wof:geomhash":"1582cf2ee9c42ac9351711a6eee4e75e",
    "wof:hierarchy":[
        {
            "continent_id":-1,
            "country_id":85633337,
            "locality_id":101754793,
            "neighbourhood_id":85797997,
            "region_id":85687053,
            "venue_id":185600739
        }
    ],
    "wof:id":185600739,
    "wof:lastmodified":1449006759,
    "wof:name":"Stuifbergen",
    "wof:parent_id":85797997,
    "wof:placetype":"venue",
    "wof:superseded_by":[],
    "wof:supersedes":[],
    "wof:tags":[]
},
  "bbox": [4.657674,52.482086,4.657674,52.482086],
  "geometry": {"coordinates":[4.657674,52.482086],"type":"Point"}
}