{
  "id": 220189053,
  "type": "Feature",
  "properties": {
    "edtf:cessation":"u",
    "edtf:inception":"u",
    "geom:area":0.0,
    "geom:bbox":"90.104729,23.92539,90.104729,23.92539",
    "geom:latitude":23.92539,
    "geom:longitude":90.104729,
    "iso:country":"NL",
    "sg:address":"Hoorne 13",
    "sg:city":"Uitgeest",
    "sg:classifiers":[],
    "sg:orig_category":"Afslankinstituten",
    "sg:owner":"simplegeo",
    "sg:phone":"+31 251 312 079",
    "sg:postcode":"1911 BD",
    "sg:province":"Dhaka",
    "src:geom":"simplegeo",
    "wof:belongsto":[
        85632475,
        85669009
    ],
    "wof:breaches":[],
    "wof:concordances":{
        "sg:id":"SG_3SFJwSclAL3hAVfYJj1hZ3_23.925390_90.104729@1306269933"
    },
    "wof:country":"NL",
    "wof:geomhash":"5f43a22450ba9e5791408c4c5858bb48",
    "wof:hierarchy":[
        {
            "continent_id":-1,
            "country_id":85632475,
            "locality_id":-1,
            "neighbourhood_id":-1,
            "region_id":85669009,
            "venue_id":220189053
        }
    ],
    "wof:id":220189053,
    "wof:lastmodified":1449074614,
    "wof:name":"Slender You Uitgeest",
    "wof:parent_id":-1,
    "wof:placetype":"venue",
    "wof:superseded_by":[],
    "wof:supersedes":[],
    "wof:tags":[]
},
  "bbox": [90.104729,23.92539,90.104729,23.92539],
  "geometry": {"coordinates":[90.104729,23.92539],"type":"Point"}
}