{
  "id": 236544947,
  "type": "Feature",
  "properties": {
    "edtf:cessation":"u",
    "edtf:inception":"u",
    "geom:area":0.0,
    "geom:bbox":"5.19539,52.221809,5.19539,52.221809",
    "geom:latitude":52.221809,
    "geom:longitude":5.19539,
    "iso:country":"NL",
    "sg:address":"Liebergerweg 712",
    "sg:city":"Hilversum",
    "sg:classifiers":[],
    "sg:orig_category":"Autokeuringen",
    "sg:owner":"simplegeo",
    "sg:phone":"+31 35 685 4694",
    "sg:postcode":"1223 PZ",
    "sg:province":"Noord-Holland",
    "src:geom":"simplegeo",
    "wof:belongsto":[
        85633337,
        101751905,
        85687053
    ],
    "wof:breaches":[],
    "wof:concordances":{
        "sg:id":"SG_6KZdr0mH2wpr6Olvl9GT0M_52.221809_5.195390@1306269938"
    },
    "wof:country":"NL",
    "wof:geomhash":"2e128c1b64fad2649655328ad5833b01",
    "wof:hierarchy":[
        {
            "continent_id":-1,
            "country_id":85633337,
            "locality_id":101751905,
            "neighbourhood_id":-1,
            "region_id":85687053,
            "venue_id":236544947
        }
    ],
    "wof:id":236544947,
    "wof:lastmodified":1449005244,
    "wof:name":"Autobedrijf Zielman Bv",
    "wof:parent_id":-1,
    "wof:placetype":"venue",
    "wof:superseded_by":[],
    "wof:supersedes":[],
    "wof:tags":[]
},
  "bbox": [5.19539,52.221809,5.19539,52.221809],
  "geometry": {"coordinates":[5.19539,52.221809],"type":"Point"}
}