{
  "id": 319857425,
  "type": "Feature",
  "properties": {
    "edtf:cessation":"u",
    "edtf:inception":"u",
    "geom:area":0.0,
    "geom:bbox":"5.952431,52.338989,5.952431,52.338989",
    "geom:latitude":52.338989,
    "geom:longitude":5.952431,
    "iso:country":"NL",
    "sg:address":"Hazenwg 2",
    "sg:city":"Epe",
    "sg:classifiers":[
        {
            "category":"Home & Garden",
            "subcategory":"Hardware",
            "type":"Retail Goods"
        }
    ],
    "sg:owner":"simplegeo",
    "sg:phone":"+31 578 616 424",
    "sg:postcode":"8162 RH",
    "sg:province":"Gelderland",
    "sg:tags":[
        "machine",
        "houtbewerking",
        "-"
    ],
    "src:geom":"simplegeo",
    "wof:belongsto":[
        85797229,
        85633337,
        85687043
    ],
    "wof:breaches":[],
    "wof:concordances":{
        "sg:id":"SG_7LtB8DPL8RcszmLzlrds7l_52.338989_5.952431@1306269991"
    },
    "wof:country":"NL",
    "wof:geomhash":"49bff32e00f42a5e0bc0112954e237d5",
    "wof:hierarchy":[
        {
            "continent_id":-1,
            "country_id":85633337,
            "locality_id":-1,
            "neighbourhood_id":85797229,
            "region_id":85687043,
            "venue_id":319857425
        }
    ],
    "wof:id":319857425,
    "wof:lastmodified":1449024589,
    "wof:name":"Bosch",
    "wof:parent_id":85797229,
    "wof:placetype":"venue",
    "wof:superseded_by":[],
    "wof:supersedes":[],
    "wof:tags":[
        "machine",
        "houtbewerking",
        "-"
    ]
},
  "bbox": [5.952431,52.338989,5.952431,52.338989],
  "geometry": {"coordinates":[5.952431,52.338989],"type":"Point"}
}