{
  "id": 253285261,
  "type": "Feature",
  "properties": {
    "edtf:cessation":"u",
    "edtf:inception":"u",
    "geom:area":0.0,
    "geom:bbox":"5.801116,51.825123,5.801116,51.825123",
    "geom:latitude":51.825123,
    "geom:longitude":5.801116,
    "iso:country":"NL",
    "sg:address":"Wychenseweg 176",
    "sg:city":"Nijmegen",
    "sg:classifiers":[],
    "sg:orig_category":"Meubelzaken, Woning- And Keukeninrichting",
    "sg:owner":"simplegeo",
    "sg:phone":"+31 24 345 4647",
    "sg:postcode":"6538 SX",
    "sg:province":"Gelderland",
    "src:geom":"simplegeo",
    "wof:belongsto":[
        85797941,
        85633337,
        101751859,
        85687043
    ],
    "wof:breaches":[],
    "wof:concordances":{
        "sg:id":"SG_6NNJ7dznavtTASBUCFNiCq_51.825123_5.801116@1306269948"
    },
    "wof:country":"NL",
    "wof:geomhash":"8f53dd770a91a0791dd98800f29cdbe3",
    "wof:hierarchy":[
        {
            "continent_id":-1,
            "country_id":85633337,
            "locality_id":101751859,
            "neighbourhood_id":85797941,
            "region_id":85687043,
            "venue_id":253285261
        }
    ],
    "wof:id":253285261,
    "wof:lastmodified":1449062906,
    "wof:name":"Image Line",
    "wof:parent_id":85797941,
    "wof:placetype":"venue",
    "wof:superseded_by":[],
    "wof:supersedes":[],
    "wof:tags":[]
},
  "bbox": [5.801116,51.825123,5.801116,51.825123],
  "geometry": {"coordinates":[5.801116,51.825123],"type":"Point"}
}