{
  "id": 320127217,
  "type": "Feature",
  "properties": {
    "edtf:cessation":"u",
    "edtf:inception":"u",
    "geom:area":0.0,
    "geom:bbox":"5.361357,51.685097,5.361357,51.685097",
    "geom:latitude":51.685097,
    "geom:longitude":5.361357,
    "iso:country":"NL",
    "sg:address":"De Steenbok 20 , (Ind De Brand)",
    "sg:city":"S Hertogenbosch",
    "sg:classifiers":[],
    "sg:orig_category":"Gassen Industrieel En Medisch",
    "sg:owner":"simplegeo",
    "sg:phone":"+31 73 691 0303",
    "sg:postcode":"5215 ME",
    "sg:province":"Noord-Brabant",
    "src:geom":"simplegeo",
    "wof:belongsto":[
        85633337,
        101751809,
        85687035
    ],
    "wof:breaches":[],
    "wof:concordances":{
        "sg:id":"SG_0XXGzLpraTRdenkja6J70p_51.685097_5.361357@1306269995"
    },
    "wof:country":"NL",
    "wof:geomhash":"d4adffb6df371a2c4beb1c1627bb8821",
    "wof:hierarchy":[
        {
            "continent_id":-1,
            "country_id":85633337,
            "locality_id":101751809,
            "neighbourhood_id":-1,
            "region_id":85687035,
            "venue_id":320127217
        }
    ],
    "wof:id":320127217,
    "wof:lastmodified":1449014660,
    "wof:name":"Emgas Bv",
    "wof:parent_id":-1,
    "wof:placetype":"venue",
    "wof:superseded_by":[],
    "wof:supersedes":[],
    "wof:tags":[]
},
  "bbox": [5.361357,51.685097,5.361357,51.685097],
  "geometry": {"coordinates":[5.361357,51.685097],"type":"Point"}
}