{
  "id": 185892707,
  "type": "Feature",
  "properties": {
    "edtf:cessation":"u",
    "edtf:inception":"u",
    "geom:area":0.0,
    "geom:bbox":"5.101507,52.759861,5.101507,52.759861",
    "geom:latitude":52.759861,
    "geom:longitude":5.101507,
    "iso:country":"NL",
    "sg:address":"Schepenln 33",
    "sg:city":"Medemblik",
    "sg:classifiers":[],
    "sg:orig_category":"Kappers",
    "sg:owner":"simplegeo",
    "sg:phone":"+31 227 543 624",
    "sg:postcode":"1671 RJ",
    "sg:province":"Noord-Holland",
    "src:geom":"simplegeo",
    "wof:belongsto":[
        85633337,
        101837913,
        85687053
    ],
    "wof:breaches":[],
    "wof:concordances":{
        "sg:id":"SG_18DLxvZdIuQ4htBUjspZW8_52.759861_5.101507@1306269906"
    },
    "wof:country":"NL",
    "wof:geomhash":"cfb4d751bb027a481bd59bd2cbf23e90",
    "wof:hierarchy":[
        {
            "continent_id":-1,
            "country_id":85633337,
            "locality_id":101837913,
            "neighbourhood_id":-1,
            "region_id":85687053,
            "venue_id":185892707
        }
    ],
    "wof:id":185892707,
    "wof:lastmodified":1449006844,
    "wof:name":"Sandra",
    "wof:parent_id":-1,
    "wof:placetype":"venue",
    "wof:superseded_by":[],
    "wof:supersedes":[],
    "wof:tags":[]
},
  "bbox": [5.101507,52.759861,5.101507,52.759861],
  "geometry": {"coordinates":[5.101507,52.759861],"type":"Point"}
}