{
  "id": 303446845,
  "type": "Feature",
  "properties": {
    "edtf:cessation":"u",
    "edtf:inception":"u",
    "geom:area":0.0,
    "geom:bbox":"4.52479,52.368889,4.52479,52.368889",
    "geom:latitude":52.368889,
    "geom:longitude":4.52479,
    "iso:country":"NL",
    "sg:address":"Oosterparkstr 61",
    "sg:city":"Zandvoort",
    "sg:classifiers":[],
    "sg:orig_category":"Schoonheidsinstituten",
    "sg:owner":"simplegeo",
    "sg:phone":"+31 23 571 2381",
    "sg:postcode":"2042 AR",
    "sg:province":"Noord-Holland",
    "src:geom":"simplegeo",
    "wof:belongsto":[
        85633337,
        101808813,
        85687053
    ],
    "wof:breaches":[],
    "wof:concordances":{
        "sg:id":"SG_1x3Nx97CyV6AmbdDw7dom3_52.368889_4.524790@1306269984"
    },
    "wof:country":"NL",
    "wof:geomhash":"21d817906b7698eb9e4f2a1be30445ee",
    "wof:hierarchy":[
        {
            "continent_id":-1,
            "country_id":85633337,
            "locality_id":101808813,
            "neighbourhood_id":-1,
            "region_id":85687053,
            "venue_id":303446845
        }
    ],
    "wof:id":303446845,
    "wof:lastmodified":1449000357,
    "wof:name":"Face Facts",
    "wof:parent_id":-1,
    "wof:placetype":"venue",
    "wof:superseded_by":[],
    "wof:supersedes":[],
    "wof:tags":[]
},
  "bbox": [4.52479,52.368889,4.52479,52.368889],
  "geometry": {"coordinates":[4.52479,52.368889],"type":"Point"}
}