{
  "id": 320123983,
  "type": "Feature",
  "properties": {
    "edtf:cessation":"u",
    "edtf:inception":"u",
    "geom:area":0.0,
    "geom:bbox":"4.837962,52.396873,4.837962,52.396873",
    "geom:latitude":52.396873,
    "geom:longitude":4.837962,
    "iso:country":"NL",
    "sg:address":"Gyroscoopwg 3A",
    "sg:city":"Amsterdam",
    "sg:classifiers":[
        {
            "category":"Retail",
            "subcategory":"Auto Repair",
            "type":"Services"
        }
    ],
    "sg:owner":"simplegeo",
    "sg:phone":"+31 20 611 5386",
    "sg:postcode":"1042 AB",
    "sg:province":"Noord-Holland",
    "sg:tags":[
        "garage"
    ],
    "sg:website":"http://www.garagevanzuydam.nl",
    "src:geom":"simplegeo",
    "wof:belongsto":[
        85797161,
        85633337,
        101751893,
        85687053
    ],
    "wof:breaches":[],
    "wof:concordances":{
        "sg:id":"SG_3YaSrgEQKBwiqq1jyVtYW9_52.396873_4.837962@1306269995"
    },
    "wof:country":"NL",
    "wof:geomhash":"6a5da26346d3142257c35cd98f45cdb4",
    "wof:hierarchy":[
        {
            "continent_id":-1,
            "country_id":85633337,
            "locality_id":101751893,
            "neighbourhood_id":85797161,
            "region_id":85687053,
            "venue_id":320123983
        }
    ],
    "wof:id":320123983,
    "wof:lastmodified":1449012383,
    "wof:name":"Zuydam Bv, Garage Van",
    "wof:parent_id":85797161,
    "wof:placetype":"venue",
    "wof:superseded_by":[],
    "wof:supersedes":[],
    "wof:tags":[
        "garage"
    ]
},
  "bbox": [4.837962,52.396873,4.837962,52.396873],
  "geometry": {"coordinates":[4.837962,52.396873],"type":"Point"}
}