{
  "id": 186611221,
  "type": "Feature",
  "properties": {
    "edtf:cessation":"u",
    "edtf:inception":"u",
    "geom:area":0.0,
    "geom:bbox":"5.04738,51.992771,5.04738,51.992771",
    "geom:latitude":51.992771,
    "geom:longitude":5.04738,
    "iso:country":"NL",
    "sg:address":"Lopikerwg O 181",
    "sg:city":"Lopikerkapel",
    "sg:classifiers":[],
    "sg:orig_category":"Verenigingsgebouwen",
    "sg:owner":"simplegeo",
    "sg:phone":"+31 30 688 1045",
    "sg:postcode":"3412 KE",
    "sg:province":"Utrecht",
    "src:geom":"simplegeo",
    "wof:belongsto":[
        85633337,
        85687039
    ],
    "wof:breaches":[],
    "wof:concordances":{
        "sg:id":"SG_2sLRXOpP7lgiTaaIHdwSgl_51.992771_5.047380@1306269914"
    },
    "wof:country":"NL",
    "wof:geomhash":"e8e38321563b9e538ed02fe06d8a0872",
    "wof:hierarchy":[
        {
            "continent_id":-1,
            "country_id":85633337,
            "locality_id":-1,
            "neighbourhood_id":-1,
            "region_id":85687039,
            "venue_id":186611221
        }
    ],
    "wof:id":186611221,
    "wof:lastmodified":1449052442,
    "wof:name":"Ouwe School, D'",
    "wof:parent_id":-1,
    "wof:placetype":"venue",
    "wof:superseded_by":[],
    "wof:supersedes":[],
    "wof:tags":[]
},
  "bbox": [5.04738,51.992771,5.04738,51.992771],
  "geometry": {"coordinates":[5.04738,51.992771],"type":"Point"}
}