{
  "id": 287199955,
  "type": "Feature",
  "properties": {
    "edtf:cessation":"u",
    "edtf:inception":"u",
    "geom:area":0.0,
    "geom:bbox":"6.873928,53.106373,6.873928,53.106373",
    "geom:latitude":53.106373,
    "geom:longitude":6.873928,
    "iso:country":"NL",
    "sg:address":"Kerkstraat 70",
    "sg:city":"Veendam",
    "sg:classifiers":[],
    "sg:orig_category":"Boekhandels",
    "sg:owner":"simplegeo",
    "sg:phone":"+31 598 690 340",
    "sg:postcode":"9641 AV",
    "sg:province":"Groningen",
    "src:geom":"simplegeo",
    "wof:belongsto":[
        85633337,
        101838023,
        85687059
    ],
    "wof:breaches":[],
    "wof:concordances":{
        "sg:id":"SG_1etGiWldTLtbireioyqFny_53.106373_6.873928@1306269978"
    },
    "wof:country":"NL",
    "wof:geomhash":"bf41851db18063461975af4bd254ef7a",
    "wof:hierarchy":[
        {
            "continent_id":-1,
            "country_id":85633337,
            "locality_id":101838023,
            "neighbourhood_id":-1,
            "region_id":85687059,
            "venue_id":287199955
        }
    ],
    "wof:id":287199955,
    "wof:lastmodified":1449000743,
    "wof:name":"Bethel",
    "wof:parent_id":-1,
    "wof:placetype":"venue",
    "wof:superseded_by":[],
    "wof:supersedes":[],
    "wof:tags":[]
},
  "bbox": [6.873928,53.106373,6.873928,53.106373],
  "geometry": {"coordinates":[6.873928,53.106373],"type":"Point"}
}