{
  "id": 202945881,
  "type": "Feature",
  "properties": {
    "edtf:cessation":"u",
    "edtf:inception":"u",
    "geom:area":0.0,
    "geom:bbox":"5.269036,51.806843,5.269036,51.806843",
    "geom:latitude":51.806843,
    "geom:longitude":5.269036,
    "iso:country":"NL",
    "sg:address":"Ambacht 1A",
    "sg:city":"Zaltbommel",
    "sg:classifiers":[],
    "sg:orig_category":"Verzekeringen - Verzekeringskantoren",
    "sg:owner":"simplegeo",
    "sg:phone":"+31 418 541 388",
    "sg:postcode":"5301 KW",
    "sg:province":"Gelderland",
    "src:geom":"simplegeo",
    "wof:belongsto":[
        85633337,
        101809859,
        85687043
    ],
    "wof:breaches":[],
    "wof:concordances":{
        "sg:id":"SG_7MFtNUktSp1KIDvs77NdIo_51.806843_5.269036@1306269919"
    },
    "wof:country":"NL",
    "wof:geomhash":"93dc58f00d3345bea72e022b70642b7a",
    "wof:hierarchy":[
        {
            "continent_id":-1,
            "country_id":85633337,
            "locality_id":101809859,
            "neighbourhood_id":-1,
            "region_id":85687043,
            "venue_id":202945881
        }
    ],
    "wof:id":202945881,
    "wof:lastmodified":1449060331,
    "wof:name":"Graag Bv, De",
    "wof:parent_id":-1,
    "wof:placetype":"venue",
    "wof:superseded_by":[],
    "wof:supersedes":[],
    "wof:tags":[]
},
  "bbox": [5.269036,51.806843,5.269036,51.806843],
  "geometry": {"coordinates":[5.269036,51.806843],"type":"Point"}
}