{
  "id": 219894193,
  "type": "Feature",
  "properties": {
    "edtf:cessation":"u",
    "edtf:inception":"u",
    "geom:area":0.0,
    "geom:bbox":"6.276315,52.992718,6.276315,52.992718",
    "geom:latitude":52.992718,
    "geom:longitude":6.276315,
    "iso:country":"NL",
    "sg:address":"Langekamp 3",
    "sg:city":"Oosterwolde Fr",
    "sg:classifiers":[],
    "sg:orig_category":"Adviesbureaus Bedrijfsorganisatie",
    "sg:owner":"simplegeo",
    "sg:phone":"+31 516 491 891",
    "sg:postcode":"8431 PR",
    "sg:province":"Friesland",
    "src:geom":"simplegeo",
    "wof:belongsto":[
        85633337,
        85687055
    ],
    "wof:breaches":[],
    "wof:concordances":{
        "sg:id":"SG_57Ljy2bQEfwOf00dff6rb7_52.992718_6.276315@1306269930"
    },
    "wof:country":"NL",
    "wof:geomhash":"3c7f3808c2f3d7a6ef4cd0d2e767afa6",
    "wof:hierarchy":[
        {
            "continent_id":-1,
            "country_id":85633337,
            "locality_id":-1,
            "neighbourhood_id":-1,
            "region_id":85687055,
            "venue_id":219894193
        }
    ],
    "wof:id":219894193,
    "wof:lastmodified":1449071842,
    "wof:name":"Omta & Van Loenen",
    "wof:parent_id":-1,
    "wof:placetype":"venue",
    "wof:superseded_by":[],
    "wof:supersedes":[],
    "wof:tags":[]
},
  "bbox": [6.276315,52.992718,6.276315,52.992718],
  "geometry": {"coordinates":[6.276315,52.992718],"type":"Point"}
}