{
  "id": 219921871,
  "type": "Feature",
  "properties": {
    "edtf:cessation":"u",
    "edtf:inception":"u",
    "geom:area":0.0,
    "geom:bbox":"4.477779,52.180279,4.477779,52.180279",
    "geom:latitude":52.180279,
    "geom:longitude":4.477779,
    "iso:country":"NL",
    "sg:address":"Willinkln 3",
    "sg:city":"Oegstgeest",
    "sg:classifiers":[],
    "sg:orig_category":"Adviesbureaus Bedrijfsorganisatie",
    "sg:owner":"simplegeo",
    "sg:phone":"+31 71 517 0325",
    "sg:postcode":"2341 LV",
    "sg:province":"Zuid-Holland",
    "src:geom":"simplegeo",
    "wof:belongsto":[
        85798025,
        85633337,
        101754717,
        85687041
    ],
    "wof:breaches":[],
    "wof:concordances":{
        "sg:id":"SG_2nOjlwTJWPxXoJlYOCgz7I_52.180279_4.477779@1306269930"
    },
    "wof:country":"NL",
    "wof:geomhash":"6803db6be179ee4e1c470935352b9898",
    "wof:hierarchy":[
        {
            "continent_id":-1,
            "country_id":85633337,
            "locality_id":101754717,
            "neighbourhood_id":85798025,
            "region_id":85687041,
            "venue_id":219921871
        }
    ],
    "wof:id":219921871,
    "wof:lastmodified":1449072650,
    "wof:name":"Rots Bv",
    "wof:parent_id":85798025,
    "wof:placetype":"venue",
    "wof:superseded_by":[],
    "wof:supersedes":[],
    "wof:tags":[]
},
  "bbox": [4.477779,52.180279,4.477779,52.180279],
  "geometry": {"coordinates":[4.477779,52.180279],"type":"Point"}
}