{
  "id": 320758429,
  "type": "Feature",
  "properties": {
    "edtf:cessation":"u",
    "edtf:inception":"u",
    "geom:area":0.0,
    "geom:bbox":"5.968962,50.889858,5.968962,50.889858",
    "geom:latitude":50.889858,
    "geom:longitude":5.968962,
    "iso:country":"NL",
    "sg:address":"Stadhouderstraat 2",
    "sg:city":"Heerlen",
    "sg:classifiers":[],
    "sg:orig_category":"Zuivelproducten",
    "sg:owner":"simplegeo",
    "sg:phone":"+31 45 574 3550",
    "sg:postcode":"6411 TX",
    "sg:province":"Limburg",
    "src:geom":"simplegeo",
    "wof:belongsto":[
        85798243,
        85633337,
        85687033
    ],
    "wof:breaches":[],
    "wof:concordances":{
        "sg:id":"SG_0O61wAwXz0LwOUueDdkE14_50.889858_5.968962@1306270002"
    },
    "wof:country":"NL",
    "wof:geomhash":"6ca698a1cbf9a7aa06811d388f01360c",
    "wof:hierarchy":[
        {
            "continent_id":-1,
            "country_id":85633337,
            "locality_id":-1,
            "neighbourhood_id":85798243,
            "region_id":85687033,
            "venue_id":320758429
        }
    ],
    "wof:id":320758429,
    "wof:lastmodified":1449012398,
    "wof:name":"De Kaascorner",
    "wof:parent_id":85798243,
    "wof:placetype":"venue",
    "wof:superseded_by":[],
    "wof:supersedes":[],
    "wof:tags":[]
},
  "bbox": [5.968962,50.889858,5.968962,50.889858],
  "geometry": {"coordinates":[5.968962,50.889858],"type":"Point"}
}