{
  "id": 270479561,
  "type": "Feature",
  "properties": {
    "edtf:cessation":"u",
    "edtf:inception":"u",
    "geom:area":0.0,
    "geom:bbox":"5.723965,52.512424,5.723965,52.512424",
    "geom:latitude":52.512424,
    "geom:longitude":5.723965,
    "iso:country":"NL",
    "sg:address":"Langstraat 48",
    "sg:city":"Dronten",
    "sg:classifiers":[
        {
            "category":"Education",
            "subcategory":"Preschool",
            "type":"Public Place"
        }
    ],
    "sg:owner":"simplegeo",
    "sg:phone":"+31 321 315 943",
    "sg:postcode":"8251 VH",
    "sg:province":"NL.",
    "sg:tags":[
        "kleuteronderwijs",
        "basis-"
    ],
    "src:geom":"simplegeo",
    "wof:belongsto":[
        85633337,
        101803709,
        85687049
    ],
    "wof:breaches":[],
    "wof:concordances":{
        "sg:id":"SG_57nxIgZFbEJgwFJdE2Oc0C_52.512424_5.723965@1306269966"
    },
    "wof:country":"NL",
    "wof:geomhash":"94ab522d8c7d3f29e944cfe34ea11720",
    "wof:hierarchy":[
        {
            "continent_id":-1,
            "country_id":85633337,
            "locality_id":101803709,
            "neighbourhood_id":-1,
            "region_id":85687049,
            "venue_id":270479561
        }
    ],
    "wof:id":270479561,
    "wof:lastmodified":1449010344,
    "wof:name":"Basisschool Het Zuiderlicht",
    "wof:parent_id":-1,
    "wof:placetype":"venue",
    "wof:superseded_by":[],
    "wof:supersedes":[],
    "wof:tags":[
        "kleuteronderwijs",
        "basis-"
    ]
},
  "bbox": [5.723965,52.512424,5.723965,52.512424],
  "geometry": {"coordinates":[5.723965,52.512424],"type":"Point"}
}