{
  "id": 202620965,
  "type": "Feature",
  "properties": {
    "edtf:cessation":"u",
    "edtf:inception":"u",
    "geom:area":0.0,
    "geom:bbox":"6.56368,53.221481,6.56368,53.221481",
    "geom:latitude":53.221481,
    "geom:longitude":6.56368,
    "iso:country":"NL",
    "sg:address":"Oude Kijk In 'T Jatstr 8",
    "sg:city":"Groningen",
    "sg:classifiers":[],
    "sg:orig_category":"Verlichting And Huishoudartikelen",
    "sg:owner":"simplegeo",
    "sg:phone":"+31 50 318 4983",
    "sg:postcode":"9712 EG",
    "sg:province":"Groningen",
    "src:geom":"simplegeo",
    "wof:belongsto":[
        85797835,
        85633337,
        85687059
    ],
    "wof:breaches":[],
    "wof:concordances":{
        "sg:id":"SG_0z9EwjexQSLeEWliDL0MWZ_53.221481_6.563680@1306269916"
    },
    "wof:country":"NL",
    "wof:geomhash":"798d36fb7d9a8eb666dbc71bb7c9215f",
    "wof:hierarchy":[
        {
            "continent_id":-1,
            "country_id":85633337,
            "locality_id":-1,
            "neighbourhood_id":85797835,
            "region_id":85687059,
            "venue_id":202620965
        }
    ],
    "wof:id":202620965,
    "wof:lastmodified":1449062436,
    "wof:name":"Kastanje",
    "wof:parent_id":85797835,
    "wof:placetype":"venue",
    "wof:superseded_by":[],
    "wof:supersedes":[],
    "wof:tags":[]
},
  "bbox": [6.56368,53.221481,6.56368,53.221481],
  "geometry": {"coordinates":[6.56368,53.221481],"type":"Point"}
}