{
  "id": 269998979,
  "type": "Feature",
  "properties": {
    "edtf:cessation":"u",
    "edtf:inception":"u",
    "geom:area":0.0,
    "geom:bbox":"5.851679,51.984264,5.851679,51.984264",
    "geom:latitude":51.984264,
    "geom:longitude":5.851679,
    "iso:country":"NL",
    "sg:address":"Beukenlaan 26",
    "sg:city":"Oosterbeek",
    "sg:classifiers":[],
    "sg:orig_category":"Financi\u00c3\u00able Adviseurs",
    "sg:owner":"simplegeo",
    "sg:phone":"+31 26 333 6598",
    "sg:postcode":"6862 HV",
    "sg:province":"Gelderland",
    "src:geom":"simplegeo",
    "wof:belongsto":[
        85797665,
        85633337,
        85687043
    ],
    "wof:breaches":[],
    "wof:concordances":{
        "sg:id":"SG_1EclvIHa7PKXC4ShGscaQm_51.984264_5.851679@1306269960"
    },
    "wof:country":"NL",
    "wof:geomhash":"9a04d89d3b895012d940ba9edaa218d0",
    "wof:hierarchy":[
        {
            "continent_id":-1,
            "country_id":85633337,
            "locality_id":-1,
            "neighbourhood_id":85797665,
            "region_id":85687043,
            "venue_id":269998979
        }
    ],
    "wof:id":269998979,
    "wof:lastmodified":1449036941,
    "wof:name":"G.D. Koornneef",
    "wof:parent_id":85797665,
    "wof:placetype":"venue",
    "wof:superseded_by":[],
    "wof:supersedes":[],
    "wof:tags":[]
},
  "bbox": [5.851679,51.984264,5.851679,51.984264],
  "geometry": {"coordinates":[5.851679,51.984264],"type":"Point"}
}