{
  "id": 270283133,
  "type": "Feature",
  "properties": {
    "edtf:cessation":"u",
    "edtf:inception":"u",
    "geom:area":0.0,
    "geom:bbox":"4.590702,52.301617,4.590702,52.301617",
    "geom:latitude":52.301617,
    "geom:longitude":4.590702,
    "iso:country":"NL",
    "sg:address":"Voltstraat 3",
    "sg:city":"Hillegom",
    "sg:classifiers":[],
    "sg:orig_category":"Fruit And Groenten Gh",
    "sg:owner":"simplegeo",
    "sg:phone":"+31 252 535 500",
    "sg:postcode":"2181 HA",
    "sg:province":"Zuid-Holland",
    "src:geom":"simplegeo",
    "wof:belongsto":[
        85797085,
        85633337,
        85687053
    ],
    "wof:breaches":[],
    "wof:concordances":{
        "sg:id":"SG_3Wt3KbjIQoRmwePO8DSmLD_52.301617_4.590702@1306269964"
    },
    "wof:country":"NL",
    "wof:geomhash":"4c681c5b061a0513b44a8a1bcce354b3",
    "wof:hierarchy":[
        {
            "continent_id":-1,
            "country_id":85633337,
            "locality_id":-1,
            "neighbourhood_id":85797085,
            "region_id":85687053,
            "venue_id":270283133
        }
    ],
    "wof:id":270283133,
    "wof:lastmodified":1449009332,
    "wof:name":"Joh. Van Kampen Aardappelgroothandel Bv",
    "wof:parent_id":85797085,
    "wof:placetype":"venue",
    "wof:superseded_by":[],
    "wof:supersedes":[],
    "wof:tags":[]
},
  "bbox": [4.590702,52.301617,4.590702,52.301617],
  "geometry": {"coordinates":[4.590702,52.301617],"type":"Point"}
}