{
  "id": 236329319,
  "type": "Feature",
  "properties": {
    "edtf:cessation":"u",
    "edtf:inception":"u",
    "geom:area":0.0,
    "geom:bbox":"5.885507,50.843048,5.885507,50.843048",
    "geom:latitude":50.843048,
    "geom:longitude":5.885507,
    "iso:country":"NL",
    "sg:address":"Valkenburgerwg 105",
    "sg:city":"Wylre",
    "sg:classifiers":[],
    "sg:orig_category":"Architecten En Architectenbureaus",
    "sg:owner":"simplegeo",
    "sg:phone":"+31 43 407 2754",
    "sg:postcode":"6321 GC",
    "sg:province":"Limburg",
    "src:geom":"simplegeo",
    "wof:belongsto":[
        85633337,
        85687033
    ],
    "wof:breaches":[],
    "wof:concordances":{
        "sg:id":"SG_6BI10DH6ifzyAVNdnp23RY_50.843048_5.885507@1306269936"
    },
    "wof:country":"NL",
    "wof:geomhash":"92c6a37231373dd98f7c11fcc4c23fe6",
    "wof:hierarchy":[
        {
            "continent_id":-1,
            "country_id":85633337,
            "locality_id":-1,
            "neighbourhood_id":-1,
            "region_id":85687033,
            "venue_id":236329319
        }
    ],
    "wof:id":236329319,
    "wof:lastmodified":1449002382,
    "wof:name":"Ebus H A J Architekten",
    "wof:parent_id":-1,
    "wof:placetype":"venue",
    "wof:superseded_by":[],
    "wof:supersedes":[],
    "wof:tags":[]
},
  "bbox": [5.885507,50.843048,5.885507,50.843048],
  "geometry": {"coordinates":[5.885507,50.843048],"type":"Point"}
}