{
  "id": 252757039,
  "type": "Feature",
  "properties": {
    "edtf:cessation":"u",
    "edtf:inception":"u",
    "geom:area":0.0,
    "geom:bbox":"6.369344,52.827461,6.369344,52.827461",
    "geom:latitude":52.827461,
    "geom:longitude":6.369344,
    "iso:country":"NL",
    "sg:address":"Drift 12",
    "sg:city":"Dwingeloo",
    "sg:classifiers":[
        {
            "category":"Sports & Exercise",
            "subcategory":"Stables",
            "type":"Entertainment"
        }
    ],
    "sg:owner":"simplegeo",
    "sg:phone":"+31 521 592 625",
    "sg:postcode":"7991 AB",
    "sg:province":"Provincie Drenthe",
    "sg:tags":[
        "maneges"
    ],
    "sg:website":"http://www.paardencentrum_camping_drift12.waarnaartoe.nl",
    "src:geom":"simplegeo",
    "wof:belongsto":[
        85633337,
        85687051
    ],
    "wof:breaches":[],
    "wof:concordances":{
        "sg:id":"SG_78hp34sm0wGzuWzhuyWMzd_52.827461_6.369344@1306269943"
    },
    "wof:country":"NL",
    "wof:geomhash":"1d40f7c5344fe96b4e3d7c8d956c4225",
    "wof:hierarchy":[
        {
            "continent_id":-1,
            "country_id":85633337,
            "locality_id":-1,
            "neighbourhood_id":-1,
            "region_id":85687051,
            "venue_id":252757039
        }
    ],
    "wof:id":252757039,
    "wof:lastmodified":1449006026,
    "wof:name":"Drift 12",
    "wof:parent_id":-1,
    "wof:placetype":"venue",
    "wof:superseded_by":[],
    "wof:supersedes":[],
    "wof:tags":[
        "maneges"
    ]
},
  "bbox": [6.369344,52.827461,6.369344,52.827461],
  "geometry": {"coordinates":[6.369344,52.827461],"type":"Point"}
}