{
  "id": 303547735,
  "type": "Feature",
  "properties": {
    "edtf:cessation":"u",
    "edtf:inception":"u",
    "geom:area":0.0,
    "geom:bbox":"5.941013,51.73061,5.941013,51.73061",
    "geom:latitude":51.73061,
    "geom:longitude":5.941013,
    "iso:country":"NL",
    "sg:address":"Rozenbroek 4",
    "sg:city":"Milsbeek",
    "sg:classifiers":[],
    "sg:orig_category":"Ingenieursbureaus",
    "sg:owner":"simplegeo",
    "sg:phone":"+31 485 519 076",
    "sg:postcode":"6596 DA",
    "sg:province":"Limburg",
    "src:geom":"simplegeo",
    "wof:belongsto":[
        85633337,
        101808149,
        85687033
    ],
    "wof:breaches":[],
    "wof:concordances":{
        "sg:id":"SG_2BuBGlkqdJtV9ZWL5Tg9ge_51.730610_5.941013@1306269985"
    },
    "wof:country":"NL",
    "wof:geomhash":"fad99f041519e79116383ee392c39516",
    "wof:hierarchy":[
        {
            "continent_id":-1,
            "country_id":85633337,
            "locality_id":101808149,
            "neighbourhood_id":-1,
            "region_id":85687033,
            "venue_id":303547735
        }
    ],
    "wof:id":303547735,
    "wof:lastmodified":1448998372,
    "wof:name":"Gemert Bv, Van",
    "wof:parent_id":-1,
    "wof:placetype":"venue",
    "wof:superseded_by":[],
    "wof:supersedes":[],
    "wof:tags":[]
},
  "bbox": [5.941013,51.73061,5.941013,51.73061],
  "geometry": {"coordinates":[5.941013,51.73061],"type":"Point"}
}