{
  "id": 236175563,
  "type": "Feature",
  "properties": {
    "edtf:cessation":"u",
    "edtf:inception":"u",
    "geom:area":0.0,
    "geom:bbox":"4.922954,52.385906,4.922954,52.385906",
    "geom:latitude":52.385906,
    "geom:longitude":4.922954,
    "iso:country":"NL",
    "sg:address":"Schaafstraat 28",
    "sg:city":"Amsterdam",
    "sg:classifiers":[],
    "sg:orig_category":"Elektronische Bedrijfsinstallaties",
    "sg:owner":"simplegeo",
    "sg:phone":"+31 20 634 0043",
    "sg:postcode":"1021 KE",
    "sg:province":"Noord-Holland",
    "src:geom":"simplegeo",
    "wof:belongsto":[
        85798067,
        85633337,
        101751893,
        85687053
    ],
    "wof:breaches":[],
    "wof:concordances":{
        "sg:id":"SG_6cifcwKN8oOYTM4Xhddiyl_52.385906_4.922954@1306269935"
    },
    "wof:country":"NL",
    "wof:geomhash":"d3f8633d39052d264da323c155b19cf9",
    "wof:hierarchy":[
        {
            "continent_id":-1,
            "country_id":85633337,
            "locality_id":101751893,
            "neighbourhood_id":85798067,
            "region_id":85687053,
            "venue_id":236175563
        }
    ],
    "wof:id":236175563,
    "wof:lastmodified":1449004031,
    "wof:name":"Niefra Beveiligingen Vof",
    "wof:parent_id":85798067,
    "wof:placetype":"venue",
    "wof:superseded_by":[],
    "wof:supersedes":[],
    "wof:tags":[]
},
  "bbox": [4.922954,52.385906,4.922954,52.385906],
  "geometry": {"coordinates":[4.922954,52.385906],"type":"Point"}
}