{
  "id": 202671681,
  "type": "Feature",
  "properties": {
    "edtf:cessation":"u",
    "edtf:inception":"u",
    "geom:area":0.0,
    "geom:bbox":"5.430696,51.888096,5.430696,51.888096",
    "geom:latitude":51.888096,
    "geom:longitude":5.430696,
    "iso:country":"NL",
    "sg:address":"Kl Plantage 11",
    "sg:city":"Tiel",
    "sg:classifiers":[],
    "sg:orig_category":"Verlichting",
    "sg:owner":"simplegeo",
    "sg:phone":"+31 344 613 302",
    "sg:postcode":"4001 RP",
    "sg:province":"Gelderland",
    "src:geom":"simplegeo",
    "wof:belongsto":[
        85797481,
        85633337,
        101809879,
        85687043
    ],
    "wof:breaches":[],
    "wof:concordances":{
        "sg:id":"SG_41sWJYScoCc0AZT95mvRig_51.888096_5.430696@1306269917"
    },
    "wof:country":"NL",
    "wof:geomhash":"71f4b0a32db2b410e302de797084e686",
    "wof:hierarchy":[
        {
            "continent_id":-1,
            "country_id":85633337,
            "locality_id":101809879,
            "neighbourhood_id":85797481,
            "region_id":85687043,
            "venue_id":202671681
        }
    ],
    "wof:id":202671681,
    "wof:lastmodified":1449060692,
    "wof:name":"Rijksen",
    "wof:parent_id":85797481,
    "wof:placetype":"venue",
    "wof:superseded_by":[],
    "wof:supersedes":[],
    "wof:tags":[]
},
  "bbox": [5.430696,51.888096,5.430696,51.888096],
  "geometry": {"coordinates":[5.430696,51.888096],"type":"Point"}
}