{
  "id": 320645783,
  "type": "Feature",
  "properties": {
    "edtf:cessation":"u",
    "edtf:inception":"u",
    "geom:area":0.0,
    "geom:bbox":"5.487508,51.434025,5.487508,51.434025",
    "geom:latitude":51.434025,
    "geom:longitude":5.487508,
    "iso:country":"NL",
    "sg:address":"Willem Van Hornestraat 2",
    "sg:city":"Eindhoven",
    "sg:classifiers":[],
    "sg:orig_category":"Zalenexploitatie",
    "sg:owner":"simplegeo",
    "sg:phone":"+31 492 565 555",
    "sg:postcode":"5611 PV",
    "sg:province":"Noord-Brabant",
    "src:geom":"simplegeo",
    "wof:belongsto":[
        85798505,
        85633337,
        85687035
    ],
    "wof:breaches":[],
    "wof:concordances":{
        "sg:id":"SG_5deAWElYVgl5QkKruFyvSe_51.434025_5.487508@1306270001"
    },
    "wof:country":"NL",
    "wof:geomhash":"6e7cbaa61a2bf5d24ff9df7f344a8fa4",
    "wof:hierarchy":[
        {
            "continent_id":-1,
            "country_id":85633337,
            "locality_id":-1,
            "neighbourhood_id":85798505,
            "region_id":85687035,
            "venue_id":320645783
        }
    ],
    "wof:id":320645783,
    "wof:lastmodified":1449011613,
    "wof:name":"Horm",
    "wof:parent_id":85798505,
    "wof:placetype":"venue",
    "wof:superseded_by":[],
    "wof:supersedes":[],
    "wof:tags":[]
},
  "bbox": [5.487508,51.434025,5.487508,51.434025],
  "geometry": {"coordinates":[5.487508,51.434025],"type":"Point"}
}