{
  "id": 303303097,
  "type": "Feature",
  "properties": {
    "edtf:cessation":"u",
    "edtf:inception":"u",
    "geom:area":0.0,
    "geom:bbox":"5.17767,51.549671,5.17767,51.549671",
    "geom:latitude":51.549671,
    "geom:longitude":5.17767,
    "iso:country":"NL",
    "sg:address":"Industriewg 11",
    "sg:city":"Moergestel",
    "sg:classifiers":[],
    "sg:orig_category":"Schoenen - Fabrieken",
    "sg:owner":"simplegeo",
    "sg:phone":"+31 13 513 6980",
    "sg:postcode":"5066 XJ",
    "sg:province":"Noord-Brabant",
    "src:geom":"simplegeo",
    "wof:belongsto":[
        85798195,
        85633337,
        101808311,
        85687035
    ],
    "wof:breaches":[],
    "wof:concordances":{
        "sg:id":"SG_4gbMY75Vo0HlWUqsmNVeLK_51.549671_5.177670@1306269982"
    },
    "wof:country":"NL",
    "wof:geomhash":"929ded340d82b1a9606de4ad43eee997",
    "wof:hierarchy":[
        {
            "continent_id":-1,
            "country_id":85633337,
            "locality_id":101808311,
            "neighbourhood_id":85798195,
            "region_id":85687035,
            "venue_id":303303097
        }
    ],
    "wof:id":303303097,
    "wof:lastmodified":1448998141,
    "wof:name":"Avang Bv",
    "wof:parent_id":85798195,
    "wof:placetype":"venue",
    "wof:superseded_by":[],
    "wof:supersedes":[],
    "wof:tags":[]
},
  "bbox": [5.17767,51.549671,5.17767,51.549671],
  "geometry": {"coordinates":[5.17767,51.549671],"type":"Point"}
}