{
  "id": 185807549,
  "type": "Feature",
  "properties": {
    "edtf:cessation":"u",
    "edtf:inception":"u",
    "geom:area":0.0,
    "geom:bbox":"5.467288,51.477161,5.467288,51.477161",
    "geom:latitude":51.477161,
    "geom:longitude":5.467288,
    "iso:country":"NL",
    "sg:address":"Texelstr 31",
    "sg:city":"Eindhoven",
    "sg:classifiers":[],
    "sg:orig_category":"Kinderactiviteiten",
    "sg:owner":"simplegeo",
    "sg:phone":"+31 40 241 2181",
    "sg:postcode":"5628 KV",
    "sg:province":"Noord-Brabant",
    "src:geom":"simplegeo",
    "wof:belongsto":[
        85798699,
        85633337,
        85687035
    ],
    "wof:breaches":[],
    "wof:concordances":{
        "sg:id":"SG_65smPxXRiUUh2Iznk1aG89_51.477161_5.467288@1306269907"
    },
    "wof:country":"NL",
    "wof:geomhash":"68b81e529eb96a754a01d1cbd53b523e",
    "wof:hierarchy":[
        {
            "continent_id":-1,
            "country_id":85633337,
            "locality_id":-1,
            "neighbourhood_id":85798699,
            "region_id":85687035,
            "venue_id":185807549
        }
    ],
    "wof:id":185807549,
    "wof:lastmodified":1449007016,
    "wof:name":"Keil, D",
    "wof:parent_id":85798699,
    "wof:placetype":"venue",
    "wof:superseded_by":[],
    "wof:supersedes":[],
    "wof:tags":[]
},
  "bbox": [5.467288,51.477161,5.467288,51.477161],
  "geometry": {"coordinates":[5.467288,51.477161],"type":"Point"}
}