{
  "id": 186031937,
  "type": "Feature",
  "properties": {
    "edtf:cessation":"u",
    "edtf:inception":"u",
    "geom:area":0.0,
    "geom:bbox":"5.695384,50.840458,5.695384,50.840458",
    "geom:latitude":50.840458,
    "geom:longitude":5.695384,
    "iso:country":"NL",
    "sg:address":"St Pieterskd 26",
    "sg:city":"Maastricht",
    "sg:classifiers":[],
    "sg:orig_category":"Koeriersdiensten",
    "sg:owner":"simplegeo",
    "sg:phone":"+31 45 525 7847",
    "sg:postcode":"6212 AD",
    "sg:province":"Limburg",
    "src:geom":"simplegeo",
    "wof:belongsto":[
        85798687,
        85633337,
        101751803,
        85687033
    ],
    "wof:breaches":[],
    "wof:concordances":{
        "sg:id":"SG_6IftilTTkXoduVq58G8UTY_50.840458_5.695384@1306269909"
    },
    "wof:country":"NL",
    "wof:geomhash":"3bc2a932cee87eca4e8a74414e2df3b3",
    "wof:hierarchy":[
        {
            "continent_id":-1,
            "country_id":85633337,
            "locality_id":101751803,
            "neighbourhood_id":85798687,
            "region_id":85687033,
            "venue_id":186031937
        }
    ],
    "wof:id":186031937,
    "wof:lastmodified":1449051376,
    "wof:name":"Argonout Koeriers Service",
    "wof:parent_id":85798687,
    "wof:placetype":"venue",
    "wof:superseded_by":[],
    "wof:supersedes":[],
    "wof:tags":[]
},
  "bbox": [5.695384,50.840458,5.695384,50.840458],
  "geometry": {"coordinates":[5.695384,50.840458],"type":"Point"}
}