{
  "id": 185810255,
  "type": "Feature",
  "properties": {
    "edtf:cessation":"u",
    "edtf:inception":"u",
    "geom:area":0.0,
    "geom:bbox":"5.470446,51.88113,5.470446,51.88113",
    "geom:latitude":51.88113,
    "geom:longitude":5.470446,
    "iso:country":"NL",
    "sg:address":"Dorpsstr 20",
    "sg:city":"Wamel",
    "sg:classifiers":[],
    "sg:orig_category":"Kinderactiviteiten",
    "sg:owner":"simplegeo",
    "sg:phone":"+31 487 502 126",
    "sg:postcode":"6659 CD",
    "sg:province":"Gelderland",
    "src:geom":"simplegeo",
    "wof:belongsto":[
        85797481,
        85633337,
        101809879,
        85687043
    ],
    "wof:breaches":[],
    "wof:concordances":{
        "sg:id":"SG_3kXCMkiU88nL535dfzia4s_51.881130_5.470446@1306269907"
    },
    "wof:country":"NL",
    "wof:geomhash":"a1d88f0f1eee4f2df16cffb61c19c1b0",
    "wof:hierarchy":[
        {
            "continent_id":-1,
            "country_id":85633337,
            "locality_id":101809879,
            "neighbourhood_id":85797481,
            "region_id":85687043,
            "venue_id":185810255
        }
    ],
    "wof:id":185810255,
    "wof:lastmodified":1449007081,
    "wof:name":"Paars Met Groene Stippen",
    "wof:parent_id":85797481,
    "wof:placetype":"venue",
    "wof:superseded_by":[],
    "wof:supersedes":[],
    "wof:tags":[]
},
  "bbox": [5.470446,51.88113,5.470446,51.88113],
  "geometry": {"coordinates":[5.470446,51.88113],"type":"Point"}
}