{
  "id": 320058149,
  "type": "Feature",
  "properties": {
    "edtf:cessation":"u",
    "edtf:inception":"u",
    "geom:area":0.0,
    "geom:bbox":"-100.301712,47.467731,-100.301712,47.467731",
    "geom:latitude":47.467731,
    "geom:longitude":-100.301712,
    "iso:country":"NL",
    "sg:address":"Hoeve 15",
    "sg:city":"Gassel",
    "sg:classifiers":[
        {
            "category":"Retail",
            "subcategory":"Auto Repair",
            "type":"Services"
        }
    ],
    "sg:owner":"simplegeo",
    "sg:phone":"+31 486 472 105",
    "sg:postcode":"5438 ND",
    "sg:province":"Noord-Brabant",
    "sg:tags":[
        "garage"
    ],
    "src:geom":"simplegeo",
    "wof:belongsto":[
        85633793,
        85688525
    ],
    "wof:breaches":[],
    "wof:concordances":{
        "sg:id":"SG_4pMdpr0hS193MRPPjsaxx6_47.467731_-100.301712@1306269994"
    },
    "wof:country":"NL",
    "wof:geomhash":"3ccf6121946b926aae2660aa72f37204",
    "wof:hierarchy":[
        {
            "continent_id":-1,
            "country_id":85633793,
            "locality_id":-1,
            "neighbourhood_id":-1,
            "region_id":85688525,
            "venue_id":320058149
        }
    ],
    "wof:id":320058149,
    "wof:lastmodified":1449011802,
    "wof:name":"Broek, M J Van Den",
    "wof:parent_id":-1,
    "wof:placetype":"venue",
    "wof:superseded_by":[],
    "wof:supersedes":[],
    "wof:tags":[
        "garage"
    ]
},
  "bbox": [-100.301712,47.467731,-100.301712,47.467731],
  "geometry": {"coordinates":[-100.301712,47.467731],"type":"Point"}
}