{
  "id": 236028403,
  "type": "Feature",
  "properties": {
    "edtf:cessation":"u",
    "edtf:inception":"u",
    "geom:area":0.0,
    "geom:bbox":"3.919879,51.6507,3.919879,51.6507",
    "geom:latitude":51.6507,
    "geom:longitude":3.919879,
    "iso:country":"NL",
    "sg:address":"Schuithaven 6",
    "sg:city":"Zierikzee",
    "sg:classifiers":[],
    "sg:orig_category":"Caf\u00c3\u00a9s And Kroegen",
    "sg:owner":"simplegeo",
    "sg:phone":"+31 111 450 033",
    "sg:postcode":"4301 HC",
    "sg:province":"Zeeland",
    "src:geom":"simplegeo",
    "wof:belongsto":[
        85633337,
        101808413,
        85687037
    ],
    "wof:breaches":[],
    "wof:concordances":{
        "sg:id":"SG_0yQ6hgLn3rEVK4IyqCGvjV_51.650700_3.919879@1306269934"
    },
    "wof:country":"NL",
    "wof:geomhash":"deb386224d680854148f6115e9c1608a",
    "wof:hierarchy":[
        {
            "continent_id":-1,
            "country_id":85633337,
            "locality_id":101808413,
            "neighbourhood_id":-1,
            "region_id":85687037,
            "venue_id":236028403
        }
    ],
    "wof:id":236028403,
    "wof:lastmodified":1449003436,
    "wof:name":"Bistro 'T Schuitje",
    "wof:parent_id":-1,
    "wof:placetype":"venue",
    "wof:superseded_by":[],
    "wof:supersedes":[],
    "wof:tags":[]
},
  "bbox": [3.919879,51.6507,3.919879,51.6507],
  "geometry": {"coordinates":[3.919879,51.6507],"type":"Point"}
}