{
  "id": 320443761,
  "type": "Feature",
  "properties": {
    "edtf:cessation":"u",
    "edtf:inception":"u",
    "geom:area":0.0,
    "geom:bbox":"4.090815,51.660831,4.090815,51.660831",
    "geom:latitude":51.660831,
    "geom:longitude":4.090815,
    "iso:country":"NL",
    "sg:address":"Oudendk 1 En 3",
    "sg:city":"Bruinisse",
    "sg:classifiers":[],
    "sg:orig_category":"Golfbanen",
    "sg:owner":"simplegeo",
    "sg:phone":"+31 111 483 297",
    "sg:postcode":"4311 NA",
    "sg:province":"Zeeland",
    "src:geom":"simplegeo",
    "wof:belongsto":[
        85633337,
        101808355,
        85687037
    ],
    "wof:breaches":[],
    "wof:concordances":{
        "sg:id":"SG_6kk9udli2rmizPGGmpHIRE_51.660831_4.090815@1306269998"
    },
    "wof:country":"NL",
    "wof:geomhash":"f8ceb280f0ccd7a56275ac393f0df410",
    "wof:hierarchy":[
        {
            "continent_id":-1,
            "country_id":85633337,
            "locality_id":101808355,
            "neighbourhood_id":-1,
            "region_id":85687037,
            "venue_id":320443761
        }
    ],
    "wof:id":320443761,
    "wof:lastmodified":1449014279,
    "wof:name":"Grevelingenhout",
    "wof:parent_id":-1,
    "wof:placetype":"venue",
    "wof:superseded_by":[],
    "wof:supersedes":[],
    "wof:tags":[]
},
  "bbox": [4.090815,51.660831,4.090815,51.660831],
  "geometry": {"coordinates":[4.090815,51.660831],"type":"Point"}
}