{
  "id": 303143461,
  "type": "Feature",
  "properties": {
    "edtf:cessation":"u",
    "edtf:inception":"u",
    "geom:area":0.0,
    "geom:bbox":"6.640956,52.199501,6.640956,52.199501",
    "geom:latitude":52.199501,
    "geom:longitude":6.640956,
    "iso:country":"NL",
    "sg:address":"Goorsestr 9",
    "sg:city":"Hengevelde",
    "sg:classifiers":[
        {
            "category":"Food & Beverages",
            "subcategory":"Bakery",
            "type":"Retail Goods"
        }
    ],
    "sg:owner":"simplegeo",
    "sg:phone":"+31 547 333 204",
    "sg:postcode":"7496 AA",
    "sg:province":"NL.08",
    "sg:tags":[
        "brood",
        "en",
        "banket"
    ],
    "src:geom":"simplegeo",
    "wof:belongsto":[
        85633337,
        85687045
    ],
    "wof:breaches":[],
    "wof:concordances":{
        "sg:id":"SG_2nWyZSRx5tt7QnGxfz2Eiu_52.199501_6.640956@1306269980"
    },
    "wof:country":"NL",
    "wof:geomhash":"c08e809bac7c0a6b37aabc28945c0e21",
    "wof:hierarchy":[
        {
            "continent_id":-1,
            "country_id":85633337,
            "locality_id":-1,
            "neighbourhood_id":-1,
            "region_id":85687045,
            "venue_id":303143461
        }
    ],
    "wof:id":303143461,
    "wof:lastmodified":1449000147,
    "wof:name":"Nollen",
    "wof:parent_id":-1,
    "wof:placetype":"venue",
    "wof:superseded_by":[],
    "wof:supersedes":[],
    "wof:tags":[
        "brood",
        "en",
        "banket"
    ]
},
  "bbox": [6.640956,52.199501,6.640956,52.199501],
  "geometry": {"coordinates":[6.640956,52.199501],"type":"Point"}
}