{
  "id": 336750565,
  "type": "Feature",
  "properties": {
    "edtf:cessation":"u",
    "edtf:inception":"u",
    "geom:area":0.0,
    "geom:bbox":"5.523547,51.493244,5.523547,51.493244",
    "geom:latitude":51.493244,
    "geom:longitude":5.523547,
    "iso:country":"NL",
    "sg:address":"Bloemhoefstraat 17",
    "sg:city":"Nuenen",
    "sg:classifiers":[
        {
            "category":"Professional",
            "subcategory":"Accounting & Tax Preparation",
            "type":"Services"
        }
    ],
    "sg:owner":"simplegeo",
    "sg:phone":"+31 40 295 2976",
    "sg:postcode":"5674 NT",
    "sg:province":"Noord-Brabant",
    "sg:tags":[
        "accountant"
    ],
    "src:geom":"simplegeo",
    "wof:belongsto":[
        85797035,
        85633337,
        85687035
    ],
    "wof:breaches":[],
    "wof:concordances":{
        "sg:id":"SG_5uI6h6puZUPTDPdPqpCxBz_51.493244_5.523547@1306270005"
    },
    "wof:country":"NL",
    "wof:geomhash":"1c75ebe541aaa097900ec1cb252be3dd",
    "wof:hierarchy":[
        {
            "continent_id":-1,
            "country_id":85633337,
            "locality_id":-1,
            "neighbourhood_id":85797035,
            "region_id":85687035,
            "venue_id":336750565
        }
    ],
    "wof:id":336750565,
    "wof:lastmodified":1448997593,
    "wof:name":"Verbruggen Registeraccountant",
    "wof:parent_id":85797035,
    "wof:placetype":"venue",
    "wof:superseded_by":[],
    "wof:supersedes":[],
    "wof:tags":[
        "accountant"
    ]
},
  "bbox": [5.523547,51.493244,5.523547,51.493244],
  "geometry": {"coordinates":[5.523547,51.493244],"type":"Point"}
}