{
  "id": 286468707,
  "type": "Feature",
  "properties": {
    "edtf:cessation":"u",
    "edtf:inception":"u",
    "geom:area":0.0,
    "geom:bbox":"4.643164,52.331818,4.643164,52.331818",
    "geom:latitude":52.331818,
    "geom:longitude":4.643164,
    "iso:country":"NL",
    "sg:address":"Oude Kruiswg 78",
    "sg:city":"Cruquius",
    "sg:classifiers":[],
    "sg:orig_category":"Beeldende Kunstenaars",
    "sg:owner":"simplegeo",
    "sg:phone":"+31 23 528 3867",
    "sg:postcode":"2142 EH",
    "sg:province":"Noord-Holland",
    "src:geom":"simplegeo",
    "wof:belongsto":[
        85797103,
        85633337,
        101754813,
        85687053
    ],
    "wof:breaches":[],
    "wof:concordances":{
        "sg:id":"SG_51CSkLe2nLZG285f97EVbf_52.331818_4.643164@1306269969"
    },
    "wof:country":"NL",
    "wof:geomhash":"a7ed87008a53bfe947e2c182cc3cc9a6",
    "wof:hierarchy":[
        {
            "continent_id":-1,
            "country_id":85633337,
            "locality_id":101754813,
            "neighbourhood_id":85797103,
            "region_id":85687053,
            "venue_id":286468707
        }
    ],
    "wof:id":286468707,
    "wof:lastmodified":1449017294,
    "wof:name":"Box Design",
    "wof:parent_id":85797103,
    "wof:placetype":"venue",
    "wof:superseded_by":[],
    "wof:supersedes":[],
    "wof:tags":[]
},
  "bbox": [4.643164,52.331818,4.643164,52.331818],
  "geometry": {"coordinates":[4.643164,52.331818],"type":"Point"}
}