{
  "id": 236329021,
  "type": "Feature",
  "properties": {
    "edtf:cessation":"u",
    "edtf:inception":"u",
    "geom:area":0.0,
    "geom:bbox":"5.161472,52.227867,5.161472,52.227867",
    "geom:latitude":52.227867,
    "geom:longitude":5.161472,
    "iso:country":"NL",
    "sg:address":"Oranjeln 11",
    "sg:city":"Hilversum",
    "sg:classifiers":[],
    "sg:orig_category":"Architecten En Architectenbureaus",
    "sg:owner":"simplegeo",
    "sg:phone":"+31 35 640 0653",
    "sg:postcode":"1217 LV",
    "sg:province":"North Holland",
    "src:geom":"simplegeo",
    "wof:belongsto":[
        85798083,
        85633337,
        101751905,
        85687053
    ],
    "wof:breaches":[],
    "wof:concordances":{
        "sg:id":"SG_4WSx2xGVAmNFrPfbGnWCrW_52.227867_5.161472@1306269936"
    },
    "wof:country":"NL",
    "wof:geomhash":"5d3fe926aa6871207046e333e6467f0d",
    "wof:hierarchy":[
        {
            "continent_id":-1,
            "country_id":85633337,
            "locality_id":101751905,
            "neighbourhood_id":85798083,
            "region_id":85687053,
            "venue_id":236329021
        }
    ],
    "wof:id":236329021,
    "wof:lastmodified":1449002381,
    "wof:name":"Egberts, Bna Architectenbureau Rik",
    "wof:parent_id":85798083,
    "wof:placetype":"venue",
    "wof:superseded_by":[],
    "wof:supersedes":[],
    "wof:tags":[]
},
  "bbox": [5.161472,52.227867,5.161472,52.227867],
  "geometry": {"coordinates":[5.161472,52.227867],"type":"Point"}
}