{
  "id": 203383459,
  "type": "Feature",
  "properties": {
    "edtf:cessation":"u",
    "edtf:inception":"u",
    "geom:area":0.0,
    "geom:bbox":"5.844932,51.38327,5.844932,51.38327",
    "geom:latitude":51.38327,
    "geom:longitude":5.844932,
    "iso:country":"NL",
    "sg:address":"Kl Heitrak 17",
    "sg:city":"Asten",
    "sg:classifiers":[],
    "sg:orig_category":"Land- En Tuinbouw - Loonbedrijven",
    "sg:owner":"simplegeo",
    "sg:phone":"+31 493 342 335",
    "sg:postcode":"5721 SB",
    "sg:province":"North Brabant",
    "src:geom":"simplegeo",
    "wof:belongsto":[
        85633337,
        85687035
    ],
    "wof:breaches":[],
    "wof:concordances":{
        "sg:id":"SG_393xwJSysh7HuM0WP7sz2H_51.383270_5.844932@1306269923"
    },
    "wof:country":"NL",
    "wof:geomhash":"983d64e370bc7f91e1e1e69e3d90e2e6",
    "wof:hierarchy":[
        {
            "continent_id":-1,
            "country_id":85633337,
            "locality_id":-1,
            "neighbourhood_id":-1,
            "region_id":85687035,
            "venue_id":203383459
        }
    ],
    "wof:id":203383459,
    "wof:lastmodified":1449025730,
    "wof:name":"Rirose Bv",
    "wof:parent_id":-1,
    "wof:placetype":"venue",
    "wof:superseded_by":[],
    "wof:supersedes":[],
    "wof:tags":[]
},
  "bbox": [5.844932,51.38327,5.844932,51.38327],
  "geometry": {"coordinates":[5.844932,51.38327],"type":"Point"}
}