{
  "id": 236710403,
  "type": "Feature",
  "properties": {
    "edtf:cessation":"u",
    "edtf:inception":"u",
    "geom:area":0.0,
    "geom:bbox":"4.849602,51.94611,4.849602,51.94611",
    "geom:latitude":51.94611,
    "geom:longitude":4.849602,
    "iso:country":"NL",
    "sg:address":"Havenstr 108",
    "sg:city":"Schoonhoven",
    "sg:classifiers":[],
    "sg:orig_category":"Automaterialen En Gereedschappen",
    "sg:owner":"simplegeo",
    "sg:phone":"+31 182 387 015",
    "sg:postcode":"2871 EB",
    "sg:province":"South Holland",
    "src:geom":"simplegeo",
    "wof:belongsto":[
        85633337,
        101837721,
        85687041
    ],
    "wof:breaches":[],
    "wof:concordances":{
        "sg:id":"SG_71FPQLqqTkFgTKfr5HcCIQ_51.946110_4.849602@1306269940"
    },
    "wof:country":"NL",
    "wof:geomhash":"538c9d449cb9d8165c060d9f043718e1",
    "wof:hierarchy":[
        {
            "continent_id":-1,
            "country_id":85633337,
            "locality_id":101837721,
            "neighbourhood_id":-1,
            "region_id":85687041,
            "venue_id":236710403
        }
    ],
    "wof:id":236710403,
    "wof:lastmodified":1449001832,
    "wof:name":"Straver",
    "wof:parent_id":-1,
    "wof:placetype":"venue",
    "wof:superseded_by":[],
    "wof:supersedes":[],
    "wof:tags":[]
},
  "bbox": [4.849602,51.94611,4.849602,51.94611],
  "geometry": {"coordinates":[4.849602,51.94611],"type":"Point"}
}