{
  "id": 219902287,
  "type": "Feature",
  "properties": {
    "edtf:cessation":"u",
    "edtf:inception":"u",
    "geom:area":0.0,
    "geom:bbox":"4.393863,52.14307,4.393863,52.14307",
    "geom:latitude":52.14307,
    "geom:longitude":4.393863,
    "iso:country":"NL",
    "sg:address":"Burg Staabln 14",
    "sg:city":"Wassenaar",
    "sg:classifiers":[],
    "sg:orig_category":"Adviesbureaus Bedrijfsorganisatie",
    "sg:owner":"simplegeo",
    "sg:phone":"+31 70 514 4579",
    "sg:postcode":"2245 AK",
    "sg:province":"Zuid-Holland",
    "src:geom":"simplegeo",
    "wof:belongsto":[
        85859711,
        85633337,
        101754719,
        85687041
    ],
    "wof:breaches":[],
    "wof:concordances":{
        "sg:id":"SG_38aTFKnRY9OxaO2g8Tddes_52.143070_4.393863@1306269930"
    },
    "wof:country":"NL",
    "wof:geomhash":"cbf3f94fc1a72f35c0cb6a31d0d96051",
    "wof:hierarchy":[
        {
            "continent_id":-1,
            "country_id":85633337,
            "locality_id":101754719,
            "neighbourhood_id":85859711,
            "region_id":85687041,
            "venue_id":219902287
        }
    ],
    "wof:id":219902287,
    "wof:lastmodified":1449073012,
    "wof:name":"Pcs Int Bv",
    "wof:parent_id":85859711,
    "wof:placetype":"venue",
    "wof:superseded_by":[],
    "wof:supersedes":[],
    "wof:tags":[]
},
  "bbox": [4.393863,52.14307,4.393863,52.14307],
  "geometry": {"coordinates":[4.393863,52.14307],"type":"Point"}
}