{
  "id": 336750563,
  "type": "Feature",
  "properties": {
    "edtf:cessation":"u",
    "edtf:inception":"u",
    "geom:area":0.0,
    "geom:bbox":"5.99064,51.197517,5.99064,51.197517",
    "geom:latitude":51.197517,
    "geom:longitude":5.99064,
    "iso:country":"NL",
    "sg:address":"Steegstraat 2",
    "sg:city":"Roermond",
    "sg:classifiers":[
        {
            "category":"Professional",
            "subcategory":"Accounting & Tax Preparation",
            "type":"Services"
        }
    ],
    "sg:owner":"simplegeo",
    "sg:phone":"+31 475 310 450",
    "sg:postcode":"6041 EA",
    "sg:province":"Limburg",
    "sg:tags":[
        "accountant"
    ],
    "src:geom":"simplegeo",
    "wof:belongsto":[
        85797971,
        85633337,
        101839309,
        85687033
    ],
    "wof:breaches":[],
    "wof:concordances":{
        "sg:id":"SG_4PdWHV1PYmNIWGmnCUfCdq_51.197517_5.990640@1306270005"
    },
    "wof:country":"NL",
    "wof:geomhash":"eccac3fbfb26f9b9ffb2ac29a705ca1f",
    "wof:hierarchy":[
        {
            "continent_id":-1,
            "country_id":85633337,
            "locality_id":101839309,
            "neighbourhood_id":85797971,
            "region_id":85687033,
            "venue_id":336750563
        }
    ],
    "wof:id":336750563,
    "wof:lastmodified":1448997593,
    "wof:name":"Verboord Registeraccountants",
    "wof:parent_id":85797971,
    "wof:placetype":"venue",
    "wof:superseded_by":[],
    "wof:supersedes":[],
    "wof:tags":[
        "accountant"
    ]
},
  "bbox": [5.99064,51.197517,5.99064,51.197517],
  "geometry": {"coordinates":[5.99064,51.197517],"type":"Point"}
}