{
  "id": 320753557,
  "type": "Feature",
  "properties": {
    "edtf:cessation":"u",
    "edtf:inception":"u",
    "geom:area":0.0,
    "geom:bbox":"5.468936,51.844753,5.468936,51.844753",
    "geom:latitude":51.844753,
    "geom:longitude":5.468936,
    "iso:country":"NL",
    "sg:address":"Papesteeg 2",
    "sg:city":"Dreumel",
    "sg:classifiers":[],
    "sg:orig_category":"Zuivelproducten And Spijsoli?n Gh",
    "sg:owner":"simplegeo",
    "sg:phone":"+31 487 573 412",
    "sg:postcode":"6621 KW",
    "sg:province":"Gelderland",
    "src:geom":"simplegeo",
    "wof:belongsto":[
        85633337,
        85687043
    ],
    "wof:breaches":[],
    "wof:concordances":{
        "sg:id":"SG_3qv4iQcTblspHpbRcag0mZ_51.844753_5.468936@1306270002"
    },
    "wof:country":"NL",
    "wof:geomhash":"874ae1cd387cb298230d545976dcc337",
    "wof:hierarchy":[
        {
            "continent_id":-1,
            "country_id":85633337,
            "locality_id":-1,
            "neighbourhood_id":-1,
            "region_id":85687043,
            "venue_id":320753557
        }
    ],
    "wof:id":320753557,
    "wof:lastmodified":1449011688,
    "wof:name":"Van Mourik",
    "wof:parent_id":-1,
    "wof:placetype":"venue",
    "wof:superseded_by":[],
    "wof:supersedes":[],
    "wof:tags":[]
},
  "bbox": [5.468936,51.844753,5.468936,51.844753],
  "geometry": {"coordinates":[5.468936,51.844753],"type":"Point"}
}