{
  "id": 203420531,
  "type": "Feature",
  "properties": {
    "edtf:cessation":"u",
    "edtf:inception":"u",
    "geom:area":0.0,
    "geom:bbox":"5.55111,52.039295,5.55111,52.039295",
    "geom:latitude":52.039295,
    "geom:longitude":5.55111,
    "iso:country":"NL",
    "sg:address":"Landjuweel 11",
    "sg:city":"Veenendaal",
    "sg:classifiers":[],
    "sg:orig_category":"Landmeetkundige Bureaus",
    "sg:owner":"simplegeo",
    "sg:phone":"+31 318 503 550",
    "sg:postcode":"3905 PE",
    "sg:province":"Utrecht",
    "src:geom":"simplegeo",
    "wof:belongsto":[
        85797563,
        85633337,
        85687039
    ],
    "wof:breaches":[],
    "wof:concordances":{
        "sg:id":"SG_063HGPNivxjbQbV3DFS15B_52.039295_5.551110@1306269923"
    },
    "wof:country":"NL",
    "wof:geomhash":"48dad390542c7393c4d60b395eaa721b",
    "wof:hierarchy":[
        {
            "continent_id":-1,
            "country_id":85633337,
            "locality_id":-1,
            "neighbourhood_id":85797563,
            "region_id":85687039,
            "venue_id":203420531
        }
    ],
    "wof:id":203420531,
    "wof:lastmodified":1449025820,
    "wof:name":"Metrio",
    "wof:parent_id":85797563,
    "wof:placetype":"venue",
    "wof:superseded_by":[],
    "wof:supersedes":[],
    "wof:tags":[]
},
  "bbox": [5.55111,52.039295,5.55111,52.039295],
  "geometry": {"coordinates":[5.55111,52.039295],"type":"Point"}
}