{
  "id": 287259827,
  "type": "Feature",
  "properties": {
    "edtf:cessation":"u",
    "edtf:inception":"u",
    "geom:area":0.0,
    "geom:bbox":"5.566533,51.966412,5.566533,51.966412",
    "geom:latitude":51.966412,
    "geom:longitude":5.566533,
    "iso:country":"NL",
    "sg:address":"Nieuwe Veenendaalseweg 196",
    "sg:city":"Rhenen",
    "sg:classifiers":[],
    "sg:orig_category":"Boekhouders",
    "sg:owner":"simplegeo",
    "sg:phone":"+31 317 612 473",
    "sg:postcode":"3911 MR",
    "sg:province":"Utrecht",
    "src:geom":"simplegeo",
    "wof:belongsto":[
        85633337,
        101809835,
        85687039
    ],
    "wof:breaches":[],
    "wof:concordances":{
        "sg:id":"SG_5H8OQqyb7Jve1uJ7WaWUQg_51.966412_5.566533@1306269978"
    },
    "wof:country":"NL",
    "wof:geomhash":"d1139815c376c37045fc9c1b46e1dd9e",
    "wof:hierarchy":[
        {
            "continent_id":-1,
            "country_id":85633337,
            "locality_id":101809835,
            "neighbourhood_id":-1,
            "region_id":85687039,
            "venue_id":287259827
        }
    ],
    "wof:id":287259827,
    "wof:lastmodified":1449000871,
    "wof:name":"Administratiekantoor J.H. Van De Berg",
    "wof:parent_id":-1,
    "wof:placetype":"venue",
    "wof:superseded_by":[],
    "wof:supersedes":[],
    "wof:tags":[]
},
  "bbox": [5.566533,51.966412,5.566533,51.966412],
  "geometry": {"coordinates":[5.566533,51.966412],"type":"Point"}
}