{
  "id": 320579053,
  "type": "Feature",
  "properties": {
    "edtf:cessation":"u",
    "edtf:inception":"u",
    "geom:area":0.0,
    "geom:bbox":"6.103168,53.106728,6.103168,53.106728",
    "geom:latitude":53.106728,
    "geom:longitude":6.103168,
    "iso:country":"NL",
    "sg:address":"Zuidkade 33",
    "sg:city":"Drachten",
    "sg:classifiers":[
        {
            "category":"Food & Beverages",
            "subcategory":"Fruits & Vegetables",
            "type":"Retail Goods"
        }
    ],
    "sg:owner":"simplegeo",
    "sg:phone":"+31 512 519 130",
    "sg:postcode":"9203 CM",
    "sg:province":"Friesland",
    "sg:tags":[
        "groenten"
    ],
    "src:geom":"simplegeo",
    "wof:belongsto":[
        85797413,
        85633337,
        85687055
    ],
    "wof:breaches":[],
    "wof:concordances":{
        "sg:id":"SG_4fBsI6QQyRVQyuvU4ZdVCk_53.106728_6.103168@1306270000"
    },
    "wof:country":"NL",
    "wof:geomhash":"6d2e7389f88b7b8c9130b33e565a3210",
    "wof:hierarchy":[
        {
            "continent_id":-1,
            "country_id":85633337,
            "locality_id":-1,
            "neighbourhood_id":85797413,
            "region_id":85687055,
            "venue_id":320579053
        }
    ],
    "wof:id":320579053,
    "wof:lastmodified":1449012460,
    "wof:name":"Vof Groente- En Fruithandel Bosma",
    "wof:parent_id":85797413,
    "wof:placetype":"venue",
    "wof:superseded_by":[],
    "wof:supersedes":[],
    "wof:tags":[
        "groenten"
    ]
},
  "bbox": [6.103168,53.106728,6.103168,53.106728],
  "geometry": {"coordinates":[6.103168,53.106728],"type":"Point"}
}