{
  "id": 185747755,
  "type": "Feature",
  "properties": {
    "edtf:cessation":"u",
    "edtf:inception":"u",
    "geom:area":0.0,
    "geom:bbox":"6.276034,51.948692,6.276034,51.948692",
    "geom:latitude":51.948692,
    "geom:longitude":6.276034,
    "iso:country":"NL",
    "sg:address":"Doetinchemsewg 93",
    "sg:city":"Doetinchem",
    "sg:classifiers":[],
    "sg:orig_category":"Keukens",
    "sg:owner":"simplegeo",
    "sg:phone":"+31 314 392 833",
    "sg:postcode":"7007 CB",
    "sg:province":"Gelderland",
    "src:geom":"simplegeo",
    "wof:belongsto":[
        85797329,
        85633337,
        85687043
    ],
    "wof:breaches":[],
    "wof:concordances":{
        "sg:id":"SG_3TErTl1m2dRA1FNfYB7Oru_51.948692_6.276034@1306269907"
    },
    "wof:country":"NL",
    "wof:geomhash":"bebb51610e61052833c151a267d8feae",
    "wof:hierarchy":[
        {
            "continent_id":-1,
            "country_id":85633337,
            "locality_id":-1,
            "neighbourhood_id":85797329,
            "region_id":85687043,
            "venue_id":185747755
        }
    ],
    "wof:id":185747755,
    "wof:lastmodified":1449006905,
    "wof:name":"Hans Verkerk",
    "wof:parent_id":85797329,
    "wof:placetype":"venue",
    "wof:superseded_by":[],
    "wof:supersedes":[],
    "wof:tags":[]
},
  "bbox": [6.276034,51.948692,6.276034,51.948692],
  "geometry": {"coordinates":[6.276034,51.948692],"type":"Point"}
}