{
  "id": 219241769,
  "type": "Feature",
  "properties": {
    "edtf:cessation":"u",
    "edtf:inception":"u",
    "geom:area":0.0,
    "geom:bbox":"4.467759,52.177536,4.467759,52.177536",
    "geom:latitude":52.177536,
    "geom:longitude":4.467759,
    "iso:country":"NL",
    "sg:address":"De Kempenaerstraat 7",
    "sg:city":"Oegstgeest",
    "sg:classifiers":[
        {
            "category":"Shopping",
            "subcategory":"Clothing, Apparel, & Fashions",
            "type":"Retail Goods"
        }
    ],
    "sg:owner":"simplegeo",
    "sg:phone":"+31 71 517 4267",
    "sg:postcode":"2341 GE",
    "sg:province":"Zuid-Holland",
    "sg:tags":[
        "ondergoed",
        "lingerie"
    ],
    "src:geom":"simplegeo",
    "wof:belongsto":[
        85798025,
        85633337,
        101754717,
        85687041
    ],
    "wof:breaches":[],
    "wof:concordances":{
        "sg:id":"SG_5btaoCn2OFz4e2FiXMSYkV_52.177536_4.467759@1306269924"
    },
    "wof:country":"NL",
    "wof:geomhash":"0ba6f67b82561fe81a633e19ed3d1f7a",
    "wof:hierarchy":[
        {
            "continent_id":-1,
            "country_id":85633337,
            "locality_id":101754717,
            "neighbourhood_id":85798025,
            "region_id":85687041,
            "venue_id":219241769
        }
    ],
    "wof:id":219241769,
    "wof:lastmodified":1449073817,
    "wof:name":"J.O.A.N. Secrets Bv",
    "wof:parent_id":85798025,
    "wof:placetype":"venue",
    "wof:superseded_by":[],
    "wof:supersedes":[],
    "wof:tags":[
        "ondergoed",
        "lingerie"
    ]
},
  "bbox": [4.467759,52.177536,4.467759,52.177536],
  "geometry": {"coordinates":[4.467759,52.177536],"type":"Point"}
}