{
  "id": 219329947,
  "type": "Feature",
  "properties": {
    "edtf:cessation":"u",
    "edtf:inception":"u",
    "geom:area":0.0,
    "geom:bbox":"6.040142,52.00819,6.040142,52.00819",
    "geom:latitude":52.00819,
    "geom:longitude":6.040142,
    "iso:country":"NL",
    "sg:address":"Apollostraat 1",
    "sg:city":"Rheden",
    "sg:classifiers":[],
    "sg:orig_category":"Loodgieterswerk, Verwarming And Sanitaire Installaties",
    "sg:owner":"simplegeo",
    "sg:phone":"+31 26 495 1285",
    "sg:postcode":"6991 GW",
    "sg:province":"Gelderland",
    "src:geom":"simplegeo",
    "wof:belongsto":[
        85633337,
        101837831,
        85687043
    ],
    "wof:breaches":[],
    "wof:concordances":{
        "sg:id":"SG_4sgHqvMOXU2dPcEpajTpc2_52.008190_6.040142@1306269925"
    },
    "wof:country":"NL",
    "wof:geomhash":"47597fee937bda0f4bd0d1206c08cb16",
    "wof:hierarchy":[
        {
            "continent_id":-1,
            "country_id":85633337,
            "locality_id":101837831,
            "neighbourhood_id":-1,
            "region_id":85687043,
            "venue_id":219329947
        }
    ],
    "wof:id":219329947,
    "wof:lastmodified":1449071385,
    "wof:name":"Faber Centrale Verwarming",
    "wof:parent_id":-1,
    "wof:placetype":"venue",
    "wof:superseded_by":[],
    "wof:supersedes":[],
    "wof:tags":[]
},
  "bbox": [6.040142,52.00819,6.040142,52.00819],
  "geometry": {"coordinates":[6.040142,52.00819],"type":"Point"}
}