{
  "id": 236186259,
  "type": "Feature",
  "properties": {
    "edtf:cessation":"u",
    "edtf:inception":"u",
    "geom:area":0.0,
    "geom:bbox":"4.465135,52.09568,4.465135,52.09568",
    "geom:latitude":52.09568,
    "geom:longitude":4.465135,
    "iso:country":"NL",
    "sg:address":"Overgoo 2K",
    "sg:city":"Leidschendam",
    "sg:classifiers":[],
    "sg:orig_category":"Elektronische Informatie- Systemen Off-Line",
    "sg:owner":"simplegeo",
    "sg:phone":"+31 70 301 6800",
    "sg:postcode":"2266 JZ",
    "sg:province":"Zuid-Holland",
    "sg:website":"http://www.privver.com",
    "src:geom":"simplegeo",
    "wof:belongsto":[
        85798253,
        85633337,
        85687041
    ],
    "wof:breaches":[],
    "wof:concordances":{
        "sg:id":"SG_0U9QYm5G98EZoiPyJzdn2d_52.095680_4.465135@1306269935"
    },
    "wof:country":"NL",
    "wof:geomhash":"f89123e9bc6002b54d1f2ce485e973bb",
    "wof:hierarchy":[
        {
            "continent_id":-1,
            "country_id":85633337,
            "locality_id":-1,
            "neighbourhood_id":85798253,
            "region_id":85687041,
            "venue_id":236186259
        }
    ],
    "wof:id":236186259,
    "wof:lastmodified":1449004382,
    "wof:name":"Privver",
    "wof:parent_id":85798253,
    "wof:placetype":"venue",
    "wof:superseded_by":[],
    "wof:supersedes":[],
    "wof:tags":[]
},
  "bbox": [4.465135,52.09568,4.465135,52.09568],
  "geometry": {"coordinates":[4.465135,52.09568],"type":"Point"}
}