{
  "id": 303454119,
  "type": "Feature",
  "properties": {
    "edtf:cessation":"u",
    "edtf:inception":"u",
    "geom:area":0.0,
    "geom:bbox":"5.63597,51.463718,5.63597,51.463718",
    "geom:latitude":51.463718,
    "geom:longitude":5.63597,
    "iso:country":"NL",
    "sg:address":"Beukehoutstr 72",
    "sg:city":"Helmond",
    "sg:classifiers":[],
    "sg:orig_category":"Schoonheidsinstituten",
    "sg:owner":"simplegeo",
    "sg:phone":"+31 492 545 811",
    "sg:postcode":"5706 XM",
    "sg:province":"Noord-Brabant",
    "src:geom":"simplegeo",
    "wof:belongsto":[
        85798473,
        85633337,
        85687035
    ],
    "wof:breaches":[],
    "wof:concordances":{
        "sg:id":"SG_4pEQQ69CrirA2zFvF151sZ_51.463718_5.635970@1306269984"
    },
    "wof:country":"NL",
    "wof:geomhash":"1ee5dd8950443ba3084ce5562b42cc95",
    "wof:hierarchy":[
        {
            "continent_id":-1,
            "country_id":85633337,
            "locality_id":-1,
            "neighbourhood_id":85798473,
            "region_id":85687035,
            "venue_id":303454119
        }
    ],
    "wof:id":303454119,
    "wof:lastmodified":1449000335,
    "wof:name":"Rooijakkers, Dani?lle",
    "wof:parent_id":85798473,
    "wof:placetype":"venue",
    "wof:superseded_by":[],
    "wof:supersedes":[],
    "wof:tags":[]
},
  "bbox": [5.63597,51.463718,5.63597,51.463718],
  "geometry": {"coordinates":[5.63597,51.463718],"type":"Point"}
}