{
  "id": 287127607,
  "type": "Feature",
  "properties": {
    "edtf:cessation":"u",
    "edtf:inception":"u",
    "geom:area":0.0,
    "geom:bbox":"6.098748,52.495087,6.098748,52.495087",
    "geom:latitude":52.495087,
    "geom:longitude":6.098748,
    "iso:country":"NL",
    "sg:address":"Brasemkolk 15",
    "sg:city":"Zwolle",
    "sg:classifiers":[],
    "sg:orig_category":"Bodemonderzoek",
    "sg:owner":"simplegeo",
    "sg:phone":"+31 38 460 1320",
    "sg:postcode":"8017 NV",
    "sg:province":"Overijssel",
    "src:geom":"simplegeo",
    "wof:belongsto":[
        85797067,
        85633337,
        85687045
    ],
    "wof:breaches":[],
    "wof:concordances":{
        "sg:id":"SG_0mv8PDgIid3VTz9Y0qlxCY_52.495087_6.098748@1306269977"
    },
    "wof:country":"NL",
    "wof:geomhash":"d6c26061da3f39e21fea9f88cada0565",
    "wof:hierarchy":[
        {
            "continent_id":-1,
            "country_id":85633337,
            "locality_id":-1,
            "neighbourhood_id":85797067,
            "region_id":85687045,
            "venue_id":287127607
        }
    ],
    "wof:id":287127607,
    "wof:lastmodified":1449001508,
    "wof:name":"Romeijn",
    "wof:parent_id":85797067,
    "wof:placetype":"venue",
    "wof:superseded_by":[],
    "wof:supersedes":[],
    "wof:tags":[]
},
  "bbox": [6.098748,52.495087,6.098748,52.495087],
  "geometry": {"coordinates":[6.098748,52.495087],"type":"Point"}
}