{
  "id": 202907589,
  "type": "Feature",
  "properties": {
    "edtf:cessation":"u",
    "edtf:inception":"u",
    "geom:area":0.0,
    "geom:bbox":"5.722264,51.386986,5.722264,51.386986",
    "geom:latitude":51.386986,
    "geom:longitude":5.722264,
    "iso:country":"NL",
    "sg:address":"Amer 56",
    "sg:city":"Someren",
    "sg:classifiers":[],
    "sg:orig_category":"Verzekeringen - Verzekeringskantoren",
    "sg:owner":"simplegeo",
    "sg:phone":"+31 493 494 172",
    "sg:postcode":"5711 KL",
    "sg:province":"North Brabant",
    "src:geom":"simplegeo",
    "wof:belongsto":[
        85633337,
        101809767,
        85687035
    ],
    "wof:breaches":[],
    "wof:concordances":{
        "sg:id":"SG_3hZFnR6sCXj77klBV65M23_51.386986_5.722264@1306269919"
    },
    "wof:country":"NL",
    "wof:geomhash":"f03a65d484cac6a9a749d53c972bff67",
    "wof:hierarchy":[
        {
            "continent_id":-1,
            "country_id":85633337,
            "locality_id":101809767,
            "neighbourhood_id":-1,
            "region_id":85687035,
            "venue_id":202907589
        }
    ],
    "wof:id":202907589,
    "wof:lastmodified":1449062456,
    "wof:name":"Beken Vof, De",
    "wof:parent_id":-1,
    "wof:placetype":"venue",
    "wof:superseded_by":[],
    "wof:supersedes":[],
    "wof:tags":[]
},
  "bbox": [5.722264,51.386986,5.722264,51.386986],
  "geometry": {"coordinates":[5.722264,51.386986],"type":"Point"}
}