{
  "id": 236422091,
  "type": "Feature",
  "properties": {
    "edtf:cessation":"u",
    "edtf:inception":"u",
    "geom:area":0.0,
    "geom:bbox":"4.693733,52.598377,4.693733,52.598377",
    "geom:latitude":52.598377,
    "geom:longitude":4.693733,
    "iso:country":"NL",
    "sg:address":"Het Veld 1",
    "sg:city":"Heiloo",
    "sg:classifiers":[],
    "sg:orig_category":"Artistiek Onderwijs",
    "sg:owner":"simplegeo",
    "sg:phone":"+31 72 533 2460",
    "sg:postcode":"1852 GG",
    "sg:province":"Noord-Holland",
    "src:geom":"simplegeo",
    "wof:belongsto":[
        85797325,
        85633337,
        85687053
    ],
    "wof:breaches":[],
    "wof:concordances":{
        "sg:id":"SG_4Kp1wySFJfLnYBZGpWoSRU_52.598377_4.693733@1306269937"
    },
    "wof:country":"NL",
    "wof:geomhash":"ea37821ea6891360525c6dcbaf9ac7de",
    "wof:hierarchy":[
        {
            "continent_id":-1,
            "country_id":85633337,
            "locality_id":-1,
            "neighbourhood_id":85797325,
            "region_id":85687053,
            "venue_id":236422091
        }
    ],
    "wof:id":236422091,
    "wof:lastmodified":1449001849,
    "wof:name":"Muziek- En Dansschool Heiloo",
    "wof:parent_id":85797325,
    "wof:placetype":"venue",
    "wof:superseded_by":[],
    "wof:supersedes":[],
    "wof:tags":[]
},
  "bbox": [4.693733,52.598377,4.693733,52.598377],
  "geometry": {"coordinates":[4.693733,52.598377],"type":"Point"}
}