{
  "id": 303875527,
  "type": "Feature",
  "properties": {
    "edtf:cessation":"u",
    "edtf:inception":"u",
    "geom:area":0.0,
    "geom:bbox":"5.247336,51.813873,5.247336,51.813873",
    "geom:latitude":51.813873,
    "geom:longitude":5.247336,
    "iso:country":"NL",
    "sg:address":"Waterstr 9",
    "sg:city":"Zaltbommel",
    "sg:classifiers":[],
    "sg:orig_category":"Hengelsportartikelen",
    "sg:owner":"simplegeo",
    "sg:phone":"+31 418 512 558",
    "sg:postcode":"5301 AH",
    "sg:province":"Gelderland",
    "src:geom":"simplegeo",
    "wof:belongsto":[
        85633337,
        101809859,
        85687043
    ],
    "wof:breaches":[],
    "wof:concordances":{
        "sg:id":"SG_2bZTR16E0gPKfZ9Vy8X8Pj_51.813873_5.247336@1306269988"
    },
    "wof:country":"NL",
    "wof:geomhash":"8d88e08edbc0d76d18a0fb778b3e207d",
    "wof:hierarchy":[
        {
            "continent_id":-1,
            "country_id":85633337,
            "locality_id":101809859,
            "neighbourhood_id":-1,
            "region_id":85687043,
            "venue_id":303875527
        }
    ],
    "wof:id":303875527,
    "wof:lastmodified":1448999937,
    "wof:name":"Berg, B Van Den",
    "wof:parent_id":-1,
    "wof:placetype":"venue",
    "wof:superseded_by":[],
    "wof:supersedes":[],
    "wof:tags":[]
},
  "bbox": [5.247336,51.813873,5.247336,51.813873],
  "geometry": {"coordinates":[5.247336,51.813873],"type":"Point"}
}