{
  "id": 219982193,
  "type": "Feature",
  "properties": {
    "edtf:cessation":"u",
    "edtf:inception":"u",
    "geom:area":0.0,
    "geom:bbox":"5.535155,52.078846,5.535155,52.078846",
    "geom:latitude":52.078846,
    "geom:longitude":5.535155,
    "iso:country":"NL",
    "sg:address":"De Hooge Hoek 20",
    "sg:city":"Renswoude",
    "sg:classifiers":[],
    "sg:orig_category":"Adviesbureaus Bouwkunde",
    "sg:owner":"simplegeo",
    "sg:phone":"+31 318 570 568",
    "sg:postcode":"3927 GG",
    "sg:province":"Utrecht",
    "src:geom":"simplegeo",
    "wof:belongsto":[
        85633337,
        101808439,
        85687039
    ],
    "wof:breaches":[],
    "wof:concordances":{
        "sg:id":"SG_6DJfYd28YGgTBRXEWO242d_52.078846_5.535155@1306269931"
    },
    "wof:country":"NL",
    "wof:geomhash":"c7492ae58175916bf5b61fbf2793356a",
    "wof:hierarchy":[
        {
            "continent_id":-1,
            "country_id":85633337,
            "locality_id":101808439,
            "neighbourhood_id":-1,
            "region_id":85687039,
            "venue_id":219982193
        }
    ],
    "wof:id":219982193,
    "wof:lastmodified":1449070993,
    "wof:name":"Dijk, J Van",
    "wof:parent_id":-1,
    "wof:placetype":"venue",
    "wof:superseded_by":[],
    "wof:supersedes":[],
    "wof:tags":[]
},
  "bbox": [5.535155,52.078846,5.535155,52.078846],
  "geometry": {"coordinates":[5.535155,52.078846],"type":"Point"}
}