{
  "id": 270152989,
  "type": "Feature",
  "properties": {
    "edtf:cessation":"u",
    "edtf:inception":"u",
    "geom:area":0.0,
    "geom:bbox":"5.11037,52.084572,5.11037,52.084572",
    "geom:latitude":52.084572,
    "geom:longitude":5.11037,
    "iso:country":"NL",
    "sg:address":"Croeseln 264",
    "sg:city":"Utrecht",
    "sg:classifiers":[],
    "sg:orig_category":"Fotojournalisten Freelance",
    "sg:owner":"simplegeo",
    "sg:phone":"+31 30 293 9589",
    "sg:postcode":"3521 CL",
    "sg:province":"Utrecht",
    "src:geom":"simplegeo",
    "wof:belongsto":[
        85797951,
        85633337,
        101751827,
        85687039
    ],
    "wof:breaches":[],
    "wof:concordances":{
        "sg:id":"SG_55z2cspsfmHkOROWvqet6Y_52.084572_5.110370@1306269962"
    },
    "wof:country":"NL",
    "wof:geomhash":"b2238b9667a18b11675dd15a881a0818",
    "wof:hierarchy":[
        {
            "continent_id":-1,
            "country_id":85633337,
            "locality_id":101751827,
            "neighbourhood_id":85797951,
            "region_id":85687039,
            "venue_id":270152989
        }
    ],
    "wof:id":270152989,
    "wof:lastmodified":1449010494,
    "wof:name":"Krouwels, Christiaan",
    "wof:parent_id":85797951,
    "wof:placetype":"venue",
    "wof:superseded_by":[],
    "wof:supersedes":[],
    "wof:tags":[]
},
  "bbox": [5.11037,52.084572,5.11037,52.084572],
  "geometry": {"coordinates":[5.11037,52.084572],"type":"Point"}
}