{
  "id": 269973899,
  "type": "Feature",
  "properties": {
    "edtf:cessation":"u",
    "edtf:inception":"u",
    "geom:area":0.0,
    "geom:bbox":"4.250665,52.047485,4.250665,52.047485",
    "geom:latitude":52.047485,
    "geom:longitude":4.250665,
    "iso:country":"NL",
    "sg:address":"Zichtenburglaan 15",
    "sg:city":"'S Gravenhage",
    "sg:classifiers":[],
    "sg:orig_category":"Film-, Tv- And Videoproductie",
    "sg:owner":"simplegeo",
    "sg:phone":"+31 70 321 3537",
    "sg:postcode":"2544 EA",
    "sg:province":"South Holland",
    "src:geom":"simplegeo",
    "wof:belongsto":[
        85859581,
        85633337,
        101752763,
        85687041
    ],
    "wof:breaches":[],
    "wof:concordances":{
        "sg:id":"SG_1aKTgJVPWbpIo89zRfWCSi_52.047485_4.250665@1306269960"
    },
    "wof:country":"NL",
    "wof:geomhash":"ce13824496436be5957b842f99868784",
    "wof:hierarchy":[
        {
            "continent_id":-1,
            "country_id":85633337,
            "locality_id":101752763,
            "neighbourhood_id":85859581,
            "region_id":85687041,
            "venue_id":269973899
        }
    ],
    "wof:id":269973899,
    "wof:lastmodified":1449037592,
    "wof:name":"Rena Productions",
    "wof:parent_id":85859581,
    "wof:placetype":"venue",
    "wof:superseded_by":[],
    "wof:supersedes":[],
    "wof:tags":[]
},
  "bbox": [4.250665,52.047485,4.250665,52.047485],
  "geometry": {"coordinates":[4.250665,52.047485],"type":"Point"}
}