{
  "id": 320238501,
  "type": "Feature",
  "properties": {
    "edtf:cessation":"u",
    "edtf:inception":"u",
    "geom:area":0.0,
    "geom:bbox":"5.343852,52.041702,5.343852,52.041702",
    "geom:latitude":52.041702,
    "geom:longitude":5.343852,
    "iso:country":"NL",
    "sg:address":"Emmalaan 1",
    "sg:city":"Doorn",
    "sg:classifiers":[],
    "sg:orig_category":"Gespecialiseerde Bouw",
    "sg:owner":"simplegeo",
    "sg:phone":"+31 343 413 710",
    "sg:postcode":"3941 DJ",
    "sg:province":"Utrecht",
    "src:geom":"simplegeo",
    "wof:belongsto":[
        85633337,
        101806997,
        85687039
    ],
    "wof:breaches":[],
    "wof:concordances":{
        "sg:id":"SG_4m1AKAoT1LFTpgSyGYytlk_52.041702_5.343852@1306269996"
    },
    "wof:country":"NL",
    "wof:geomhash":"1451927500412106b77575c37a61eb6b",
    "wof:hierarchy":[
        {
            "continent_id":-1,
            "country_id":85633337,
            "locality_id":101806997,
            "neighbourhood_id":-1,
            "region_id":85687039,
            "venue_id":320238501
        }
    ],
    "wof:id":320238501,
    "wof:lastmodified":1449012685,
    "wof:name":"Doorns Voegersbedrijf Vof",
    "wof:parent_id":-1,
    "wof:placetype":"venue",
    "wof:superseded_by":[],
    "wof:supersedes":[],
    "wof:tags":[]
},
  "bbox": [5.343852,52.041702,5.343852,52.041702],
  "geometry": {"coordinates":[5.343852,52.041702],"type":"Point"}
}