{
  "id": 286279459,
  "type": "Feature",
  "properties": {
    "edtf:cessation":"u",
    "edtf:inception":"u",
    "geom:area":0.0,
    "geom:bbox":"5.052923,52.74118,5.052923,52.74118",
    "geom:latitude":52.74118,
    "geom:longitude":5.052923,
    "iso:country":"NL",
    "sg:address":"Beukenlaan 79",
    "sg:city":"Twisk",
    "sg:classifiers":[
        {
            "category":"Education",
            "subcategory":"Preschool",
            "type":"Public Place"
        }
    ],
    "sg:owner":"simplegeo",
    "sg:phone":"+31 227 542 443",
    "sg:postcode":"1676 GS",
    "sg:province":"Noord-Holland",
    "sg:tags":[
        "kleuteronderwijs",
        "basis-"
    ],
    "src:geom":"simplegeo",
    "wof:belongsto":[
        85633337,
        101807351,
        85687053
    ],
    "wof:breaches":[],
    "wof:concordances":{
        "sg:id":"SG_4pnwmOq6nzSFmWwYfWqxEs_52.741180_5.052923@1306269967"
    },
    "wof:country":"NL",
    "wof:geomhash":"2b07b784eb4689c7d48f3fa16e496be5",
    "wof:hierarchy":[
        {
            "continent_id":-1,
            "country_id":85633337,
            "locality_id":101807351,
            "neighbourhood_id":-1,
            "region_id":85687053,
            "venue_id":286279459
        }
    ],
    "wof:id":286279459,
    "wof:lastmodified":1449016541,
    "wof:name":"Openbare Basisschool De Klaverwoid",
    "wof:parent_id":-1,
    "wof:placetype":"venue",
    "wof:superseded_by":[],
    "wof:supersedes":[],
    "wof:tags":[
        "kleuteronderwijs",
        "basis-"
    ]
},
  "bbox": [5.052923,52.74118,5.052923,52.74118],
  "geometry": {"coordinates":[5.052923,52.74118],"type":"Point"}
}