{
  "id": 186091099,
  "type": "Feature",
  "properties": {
    "edtf:cessation":"u",
    "edtf:inception":"u",
    "geom:area":0.0,
    "geom:bbox":"6.02067,51.985783,6.02067,51.985783",
    "geom:latitude":51.985783,
    "geom:longitude":6.02067,
    "iso:country":"NL",
    "sg:address":"Kerkstr 3A",
    "sg:city":"Zevenaar",
    "sg:classifiers":[],
    "sg:orig_category":"Kopieerservice",
    "sg:owner":"simplegeo",
    "sg:phone":"+31 316 527 149",
    "sg:postcode":"6901 AA",
    "sg:province":"Gelderland",
    "src:geom":"simplegeo",
    "wof:belongsto":[
        85633337,
        85687043
    ],
    "wof:breaches":[],
    "wof:concordances":{
        "sg:id":"SG_4iGQWDOGK4NpewfOIrQogX_51.985783_6.020670@1306269910"
    },
    "wof:country":"NL",
    "wof:geomhash":"10ca28774d0600f49d73dd19340d89b3",
    "wof:hierarchy":[
        {
            "continent_id":-1,
            "country_id":85633337,
            "locality_id":-1,
            "neighbourhood_id":-1,
            "region_id":85687043,
            "venue_id":186091099
        }
    ],
    "wof:id":186091099,
    "wof:lastmodified":1449050509,
    "wof:name":"Dynamo-Humm",
    "wof:parent_id":-1,
    "wof:placetype":"venue",
    "wof:superseded_by":[],
    "wof:supersedes":[],
    "wof:tags":[]
},
  "bbox": [6.02067,51.985783,6.02067,51.985783],
  "geometry": {"coordinates":[6.02067,51.985783],"type":"Point"}
}