{
  "id": 320070921,
  "type": "Feature",
  "properties": {
    "edtf:cessation":"u",
    "edtf:inception":"u",
    "geom:area":0.0,
    "geom:bbox":"4.63737,52.46703,4.63737,52.46703",
    "geom:latitude":52.46703,
    "geom:longitude":4.63737,
    "iso:country":"NL",
    "sg:address":"Eendrachtsstr 24",
    "sg:city":"Velsen Noord",
    "sg:classifiers":[
        {
            "category":"Retail",
            "subcategory":"Auto Repair",
            "type":"Services"
        }
    ],
    "sg:owner":"simplegeo",
    "sg:phone":"+31 251 214 600",
    "sg:postcode":"1951 AZ",
    "sg:province":"Noord-Holland",
    "sg:tags":[
        "garage"
    ],
    "src:geom":"simplegeo",
    "wof:belongsto":[
        85859511,
        85633337,
        85687053
    ],
    "wof:breaches":[],
    "wof:concordances":{
        "sg:id":"SG_5jXNPMreyLba0f6U6KUpIC_52.467030_4.637370@1306269994"
    },
    "wof:country":"NL",
    "wof:geomhash":"d6acbb5ef8afdd190d59c1679cdc3531",
    "wof:hierarchy":[
        {
            "continent_id":-1,
            "country_id":85633337,
            "locality_id":-1,
            "neighbourhood_id":85859511,
            "region_id":85687053,
            "venue_id":320070921
        }
    ],
    "wof:id":320070921,
    "wof:lastmodified":1449013084,
    "wof:name":"Goede Autoservice, De",
    "wof:parent_id":85859511,
    "wof:placetype":"venue",
    "wof:superseded_by":[],
    "wof:supersedes":[],
    "wof:tags":[
        "garage"
    ]
},
  "bbox": [4.63737,52.46703,4.63737,52.46703],
  "geometry": {"coordinates":[4.63737,52.46703],"type":"Point"}
}