{
  "id": 286639131,
  "type": "Feature",
  "properties": {
    "edtf:cessation":"u",
    "edtf:inception":"u",
    "geom:area":0.0,
    "geom:bbox":"5.872618,50.910763,5.872618,50.910763",
    "geom:latitude":50.910763,
    "geom:longitude":5.872618,
    "iso:country":"NL",
    "sg:address":"Valkenburgerweg 81",
    "sg:city":"Nuth",
    "sg:classifiers":[],
    "sg:orig_category":"Benzinestations And Brandstoffen",
    "sg:owner":"simplegeo",
    "sg:phone":"+31 45 524 2775",
    "sg:postcode":"6361 EB",
    "sg:province":"Limburg",
    "src:geom":"simplegeo",
    "wof:belongsto":[
        85633337,
        85687033
    ],
    "wof:breaches":[],
    "wof:concordances":{
        "sg:id":"SG_3B6Wx4d5eZ3GeoifSudFnh_50.910763_5.872618@1306269971"
    },
    "wof:country":"NL",
    "wof:geomhash":"4ade9ce9644c745948f19eac618fda96",
    "wof:hierarchy":[
        {
            "continent_id":-1,
            "country_id":85633337,
            "locality_id":-1,
            "neighbourhood_id":-1,
            "region_id":85687033,
            "venue_id":286639131
        }
    ],
    "wof:id":286639131,
    "wof:lastmodified":1449018069,
    "wof:name":"Service-Station Christophe",
    "wof:parent_id":-1,
    "wof:placetype":"venue",
    "wof:superseded_by":[],
    "wof:supersedes":[],
    "wof:tags":[]
},
  "bbox": [5.872618,50.910763,5.872618,50.910763],
  "geometry": {"coordinates":[5.872618,50.910763],"type":"Point"}
}