{
  "id": 320173981,
  "type": "Feature",
  "properties": {
    "edtf:cessation":"u",
    "edtf:inception":"u",
    "geom:area":0.0,
    "geom:bbox":"3.747885,51.696407,3.747885,51.696407",
    "geom:latitude":51.696407,
    "geom:longitude":3.747885,
    "iso:country":"NL",
    "sg:address":"De Rotery 15A",
    "sg:city":"Burgh Haamstede",
    "sg:classifiers":[],
    "sg:orig_category":"Geluidsinstallaties - Verhuur",
    "sg:owner":"simplegeo",
    "sg:phone":"+31 111 461 246",
    "sg:postcode":"4328 BB",
    "sg:province":"Zeeland",
    "sg:website":"http://www.sounddelight.nl",
    "src:geom":"simplegeo",
    "wof:belongsto":[
        85633337,
        101837649,
        85687037
    ],
    "wof:breaches":[],
    "wof:concordances":{
        "sg:id":"SG_0icOphUJvnKBscWuDWvbRN_51.696407_3.747885@1306269995"
    },
    "wof:country":"NL",
    "wof:geomhash":"f7685fee13764c63870a94ed6121b486",
    "wof:hierarchy":[
        {
            "continent_id":-1,
            "country_id":85633337,
            "locality_id":101837649,
            "neighbourhood_id":-1,
            "region_id":85687037,
            "venue_id":320173981
        }
    ],
    "wof:id":320173981,
    "wof:lastmodified":1449011984,
    "wof:name":"Sound De-Light",
    "wof:parent_id":-1,
    "wof:placetype":"venue",
    "wof:superseded_by":[],
    "wof:supersedes":[],
    "wof:tags":[]
},
  "bbox": [3.747885,51.696407,3.747885,51.696407],
  "geometry": {"coordinates":[3.747885,51.696407],"type":"Point"}
}