{
  "id": 303326269,
  "type": "Feature",
  "properties": {
    "edtf:cessation":"u",
    "edtf:inception":"u",
    "geom:area":0.0,
    "geom:bbox":"4.58277,52.096882,4.58277,52.096882",
    "geom:latitude":52.096882,
    "geom:longitude":4.58277,
    "iso:country":"NL",
    "sg:address":"Dorpsstraat 209",
    "sg:city":"Hazerswoude Dorp",
    "sg:classifiers":[],
    "sg:orig_category":"Schoenen",
    "sg:owner":"simplegeo",
    "sg:phone":"+31 172 587 502",
    "sg:postcode":"2391 CC",
    "sg:province":"South Holland",
    "src:geom":"simplegeo",
    "wof:belongsto":[
        85633337,
        101807035,
        85687041
    ],
    "wof:breaches":[],
    "wof:concordances":{
        "sg:id":"SG_4ZoAIRvaLNLCpE90gBb4kg_52.096882_4.582770@1306269982"
    },
    "wof:country":"NL",
    "wof:geomhash":"c2a47adb76adcf254907ac91b4059ad6",
    "wof:hierarchy":[
        {
            "continent_id":-1,
            "country_id":85633337,
            "locality_id":101807035,
            "neighbourhood_id":-1,
            "region_id":85687041,
            "venue_id":303326269
        }
    ],
    "wof:id":303326269,
    "wof:lastmodified":1448999160,
    "wof:name":"De Groene Brug",
    "wof:parent_id":-1,
    "wof:placetype":"venue",
    "wof:superseded_by":[],
    "wof:supersedes":[],
    "wof:tags":[]
},
  "bbox": [4.58277,52.096882,4.58277,52.096882],
  "geometry": {"coordinates":[4.58277,52.096882],"type":"Point"}
}