{
  "id": 320102959,
  "type": "Feature",
  "properties": {
    "edtf:cessation":"u",
    "edtf:inception":"u",
    "geom:area":0.0,
    "geom:bbox":"4.628032,52.271881,4.628032,52.271881",
    "geom:latitude":52.271881,
    "geom:longitude":4.628032,
    "iso:country":"NL",
    "sg:address":"Staringstr 36A",
    "sg:city":"Nieuw Vennep",
    "sg:classifiers":[
        {
            "category":"Retail",
            "subcategory":"Auto Repair",
            "type":"Services"
        }
    ],
    "sg:owner":"simplegeo",
    "sg:phone":"+31 252 621 911",
    "sg:postcode":"2152 CX",
    "sg:province":"Noord-Holland",
    "sg:tags":[
        "garage"
    ],
    "sg:website":"http://www.garageroeleveld.nl",
    "src:geom":"simplegeo",
    "wof:belongsto":[
        85797085,
        85633337,
        85687053
    ],
    "wof:breaches":[],
    "wof:concordances":{
        "sg:id":"SG_171ldWOk02LjZV6fKBEpB8_52.271881_4.628032@1306269994"
    },
    "wof:country":"NL",
    "wof:geomhash":"0bca20d426ccce91288b4f67385b0467",
    "wof:hierarchy":[
        {
            "continent_id":-1,
            "country_id":85633337,
            "locality_id":-1,
            "neighbourhood_id":85797085,
            "region_id":85687053,
            "venue_id":320102959
        }
    ],
    "wof:id":320102959,
    "wof:lastmodified":1449014682,
    "wof:name":"Roeleveld, Garage",
    "wof:parent_id":85797085,
    "wof:placetype":"venue",
    "wof:superseded_by":[],
    "wof:supersedes":[],
    "wof:tags":[
        "garage"
    ]
},
  "bbox": [4.628032,52.271881,4.628032,52.271881],
  "geometry": {"coordinates":[4.628032,52.271881],"type":"Point"}
}