{
  "id": 303789269,
  "type": "Feature",
  "properties": {
    "edtf:cessation":"u",
    "edtf:inception":"u",
    "geom:area":0.0,
    "geom:bbox":"4.652212,52.390495,4.652212,52.390495",
    "geom:latitude":52.390495,
    "geom:longitude":4.652212,
    "iso:country":"NL",
    "sg:address":"Hendrik Figeeweg 4",
    "sg:city":"Haarlem",
    "sg:classifiers":[],
    "sg:orig_category":"Naai- And Breimachines",
    "sg:owner":"simplegeo",
    "sg:phone":"+31 23 531 9584",
    "sg:postcode":"2031 BJ",
    "sg:province":"Noord-Holland",
    "src:geom":"simplegeo",
    "wof:belongsto":[
        85859533,
        85633337,
        85687053
    ],
    "wof:breaches":[],
    "wof:concordances":{
        "sg:id":"SG_3hwKOF3T3k5sU23XU2Zsow_52.390495_4.652212@1306269987"
    },
    "wof:country":"NL",
    "wof:geomhash":"04d95867b48f8dbb30dfccd6fcc51ad5",
    "wof:hierarchy":[
        {
            "continent_id":-1,
            "country_id":85633337,
            "locality_id":-1,
            "neighbourhood_id":85859533,
            "region_id":85687053,
            "venue_id":303789269
        }
    ],
    "wof:id":303789269,
    "wof:lastmodified":1448999222,
    "wof:name":"Imca Bv",
    "wof:parent_id":85859533,
    "wof:placetype":"venue",
    "wof:superseded_by":[],
    "wof:supersedes":[],
    "wof:tags":[]
},
  "bbox": [4.652212,52.390495,4.652212,52.390495],
  "geometry": {"coordinates":[4.652212,52.390495],"type":"Point"}
}