{
  "id": 220144121,
  "type": "Feature",
  "properties": {
    "edtf:cessation":"u",
    "edtf:inception":"u",
    "geom:area":0.0,
    "geom:bbox":"4.266,51.923103,4.266,51.923103",
    "geom:latitude":51.923103,
    "geom:longitude":4.266,
    "iso:country":"NL",
    "sg:address":"Wipperspk 37",
    "sg:city":"Maassluis",
    "sg:classifiers":[],
    "sg:orig_category":"Adviesbureaus",
    "sg:owner":"simplegeo",
    "sg:phone":"+31 6 22511703",
    "sg:postcode":"3141 RA",
    "sg:province":"Zuid-Holland",
    "src:geom":"simplegeo",
    "wof:belongsto":[
        85797123,
        85633337,
        101760475,
        85687041
    ],
    "wof:breaches":[],
    "wof:concordances":{
        "sg:id":"SG_0ZbXYeKOGVioGrAzEUmVjh_51.923103_4.266000@1306269932"
    },
    "wof:country":"NL",
    "wof:geomhash":"64ad7eaa6148f9467dd93717702cda2a",
    "wof:hierarchy":[
        {
            "continent_id":-1,
            "country_id":85633337,
            "locality_id":101760475,
            "neighbourhood_id":85797123,
            "region_id":85687041,
            "venue_id":220144121
        }
    ],
    "wof:id":220144121,
    "wof:lastmodified":1449074638,
    "wof:name":"T2O Link",
    "wof:parent_id":85797123,
    "wof:placetype":"venue",
    "wof:superseded_by":[],
    "wof:supersedes":[],
    "wof:tags":[]
},
  "bbox": [4.266,51.923103,4.266,51.923103],
  "geometry": {"coordinates":[4.266,51.923103],"type":"Point"}
}