{
  "id": 219618785,
  "type": "Feature",
  "properties": {
    "edtf:cessation":"u",
    "edtf:inception":"u",
    "geom:area":0.0,
    "geom:bbox":"6.549881,53.216888,6.549881,53.216888",
    "geom:latitude":53.216888,
    "geom:longitude":6.549881,
    "iso:country":"NL",
    "sg:address":"Kranewg 68",
    "sg:city":"Groningen",
    "sg:classifiers":[],
    "sg:orig_category":"Administratie- En Boekhoudkantoren",
    "sg:owner":"simplegeo",
    "sg:phone":"+31 50 317 6500",
    "sg:postcode":"9718 JT",
    "sg:province":"Groningen",
    "sg:website":"http://www.fab-bv.nl",
    "src:geom":"simplegeo",
    "wof:belongsto":[
        85798579,
        85633337,
        101751909,
        85687059
    ],
    "wof:breaches":[],
    "wof:concordances":{
        "sg:id":"SG_0hJlBOJZzt8vMbZCKPjPMN_53.216888_6.549881@1306269927"
    },
    "wof:country":"NL",
    "wof:geomhash":"24b4f156fb990b0c953973df30139a8f",
    "wof:hierarchy":[
        {
            "continent_id":-1,
            "country_id":85633337,
            "locality_id":101751909,
            "neighbourhood_id":85798579,
            "region_id":85687059,
            "venue_id":219618785
        }
    ],
    "wof:id":219618785,
    "wof:lastmodified":1449072594,
    "wof:name":"Fab Bv",
    "wof:parent_id":85798579,
    "wof:placetype":"venue",
    "wof:superseded_by":[],
    "wof:supersedes":[],
    "wof:tags":[]
},
  "bbox": [6.549881,53.216888,6.549881,53.216888],
  "geometry": {"coordinates":[6.549881,53.216888],"type":"Point"}
}