{
  "id": 270291611,
  "type": "Feature",
  "properties": {
    "edtf:cessation":"u",
    "edtf:inception":"u",
    "geom:area":0.0,
    "geom:bbox":"5.970803,52.22263,5.970803,52.22263",
    "geom:latitude":52.22263,
    "geom:longitude":5.970803,
    "iso:country":"NL",
    "sg:address":"Vlijtseweg 80",
    "sg:city":"Apeldoorn",
    "sg:classifiers":[],
    "sg:orig_category":"Fruit And Groenten Gh",
    "sg:owner":"simplegeo",
    "sg:phone":"+31 55 521 7771",
    "sg:postcode":"7317 AJ",
    "sg:province":"Gelderland",
    "src:geom":"simplegeo",
    "wof:belongsto":[
        85798771,
        85633337,
        101751853,
        85687043
    ],
    "wof:breaches":[],
    "wof:concordances":{
        "sg:id":"SG_3kYUk6fxmDcoBTizCV6d1a_52.222630_5.970803@1306269964"
    },
    "wof:country":"NL",
    "wof:geomhash":"bad8ef87d7774901ca764042f593c556",
    "wof:hierarchy":[
        {
            "continent_id":-1,
            "country_id":85633337,
            "locality_id":101751853,
            "neighbourhood_id":85798771,
            "region_id":85687043,
            "venue_id":270291611
        }
    ],
    "wof:id":270291611,
    "wof:lastmodified":1449009370,
    "wof:name":"W. Heemskerk Bv",
    "wof:parent_id":85798771,
    "wof:placetype":"venue",
    "wof:superseded_by":[],
    "wof:supersedes":[],
    "wof:tags":[]
},
  "bbox": [5.970803,52.22263,5.970803,52.22263],
  "geometry": {"coordinates":[5.970803,52.22263],"type":"Point"}
}