{
  "id": 303540161,
  "type": "Feature",
  "properties": {
    "edtf:cessation":"u",
    "edtf:inception":"u",
    "geom:area":0.0,
    "geom:bbox":"5.162307,52.275303,5.162307,52.275303",
    "geom:latitude":52.275303,
    "geom:longitude":5.162307,
    "iso:country":"NL",
    "sg:address":"Brinklaan 62",
    "sg:city":"Bussum",
    "sg:classifiers":[
        {
            "category":"Restaurant",
            "subcategory":"",
            "type":"Food & Drink"
        }
    ],
    "sg:owner":"simplegeo",
    "sg:phone":"+31 35 691 3056",
    "sg:postcode":"1404 EZ",
    "sg:province":"Noord-Holland",
    "src:geom":"simplegeo",
    "wof:belongsto":[
        85797181,
        85633337,
        85687053
    ],
    "wof:breaches":[],
    "wof:concordances":{
        "sg:id":"SG_1fLcd2HBu6UMjaOJteLP14_52.275303_5.162307@1306269985"
    },
    "wof:country":"NL",
    "wof:geomhash":"b558b9507cfaebc8033540a78c68b30a",
    "wof:hierarchy":[
        {
            "continent_id":-1,
            "country_id":85633337,
            "locality_id":-1,
            "neighbourhood_id":85797181,
            "region_id":85687053,
            "venue_id":303540161
        }
    ],
    "wof:id":303540161,
    "wof:lastmodified":1448999082,
    "wof:name":"Las Brasas",
    "wof:parent_id":85797181,
    "wof:placetype":"venue",
    "wof:superseded_by":[],
    "wof:supersedes":[],
    "wof:tags":[]
},
  "bbox": [5.162307,52.275303,5.162307,52.275303],
  "geometry": {"coordinates":[5.162307,52.275303],"type":"Point"}
}