{
  "id": 336724825,
  "type": "Feature",
  "properties": {
    "edtf:cessation":"u",
    "edtf:inception":"u",
    "geom:area":0.0,
    "geom:bbox":"4.558879,51.791054,4.558879,51.791054",
    "geom:latitude":51.791054,
    "geom:longitude":4.558879,
    "iso:country":"NL",
    "sg:address":"Hoeksedijk 57",
    "sg:city":"Maasdam",
    "sg:classifiers":[
        {
            "category":"Professional",
            "subcategory":"Accounting & Tax Preparation",
            "type":"Services"
        }
    ],
    "sg:owner":"simplegeo",
    "sg:phone":"+31 78 676 7080",
    "sg:postcode":"3299 AD",
    "sg:province":"Zuid-Holland",
    "sg:tags":[
        "accountant"
    ],
    "src:geom":"simplegeo",
    "wof:belongsto":[
        85633337,
        85687041
    ],
    "wof:breaches":[],
    "wof:concordances":{
        "sg:id":"SG_73956VqlCdaH9rVxHdQeom_51.791054_4.558879@1306270005"
    },
    "wof:country":"NL",
    "wof:geomhash":"7e9481be0a0ad1f7bacc85da0116f019",
    "wof:hierarchy":[
        {
            "continent_id":-1,
            "country_id":85633337,
            "locality_id":-1,
            "neighbourhood_id":-1,
            "region_id":85687041,
            "venue_id":336724825
        }
    ],
    "wof:id":336724825,
    "wof:lastmodified":1448997975,
    "wof:name":"Admie Bv",
    "wof:parent_id":-1,
    "wof:placetype":"venue",
    "wof:superseded_by":[],
    "wof:supersedes":[],
    "wof:tags":[
        "accountant"
    ]
},
  "bbox": [4.558879,51.791054,4.558879,51.791054],
  "geometry": {"coordinates":[4.558879,51.791054],"type":"Point"}
}