{
  "id": 286705689,
  "type": "Feature",
  "properties": {
    "edtf:cessation":"u",
    "edtf:inception":"u",
    "geom:area":0.0,
    "geom:bbox":"5.561892,52.008751,5.561892,52.008751",
    "geom:latitude":52.008751,
    "geom:longitude":5.561892,
    "iso:country":"NL",
    "sg:address":"De Smalle Zijde 15",
    "sg:city":"Veenendaal",
    "sg:classifiers":[],
    "sg:orig_category":"Beveiliging",
    "sg:owner":"simplegeo",
    "sg:phone":"+31 318 500 090",
    "sg:postcode":"3903 LM",
    "sg:province":"Utrecht",
    "sg:website":"http://www.vanwakeren.nl",
    "src:geom":"simplegeo",
    "wof:belongsto":[
        85797563,
        85633337,
        85687039
    ],
    "wof:breaches":[],
    "wof:concordances":{
        "sg:id":"SG_5Eg1U5UpdcEbWd7GWvz0dU_52.008751_5.561892@1306269972"
    },
    "wof:country":"NL",
    "wof:geomhash":"80faaa53c323b12088aaabe7407498fc",
    "wof:hierarchy":[
        {
            "continent_id":-1,
            "country_id":85633337,
            "locality_id":-1,
            "neighbourhood_id":85797563,
            "region_id":85687039,
            "venue_id":286705689
        }
    ],
    "wof:id":286705689,
    "wof:lastmodified":1449018099,
    "wof:name":"Wakeren Beveiliging Bv, Van",
    "wof:parent_id":85797563,
    "wof:placetype":"venue",
    "wof:superseded_by":[],
    "wof:supersedes":[],
    "wof:tags":[]
},
  "bbox": [5.561892,52.008751,5.561892,52.008751],
  "geometry": {"coordinates":[5.561892,52.008751],"type":"Point"}
}