{
  "id": 253563643,
  "type": "Feature",
  "properties": {
    "edtf:cessation":"u",
    "edtf:inception":"u",
    "geom:area":0.0,
    "geom:bbox":"5.704871,51.472294,5.704871,51.472294",
    "geom:latitude":51.472294,
    "geom:longitude":5.704871,
    "iso:country":"NL",
    "sg:address":"Baroniehof 1",
    "sg:city":"Helmond",
    "sg:classifiers":[
        {
            "category":"Personal",
            "subcategory":"Nail Salon",
            "type":"Services"
        }
    ],
    "sg:owner":"simplegeo",
    "sg:phone":"+31 492 516 759",
    "sg:postcode":"5709 HH",
    "sg:province":"Noord-Brabant",
    "sg:tags":[
        "pedicure"
    ],
    "src:geom":"simplegeo",
    "wof:belongsto":[
        85633337,
        101751805,
        85687035
    ],
    "wof:breaches":[],
    "wof:concordances":{
        "sg:id":"SG_0fPlWL6fTdtEoZFOC0Y7rb_51.472294_5.704871@1306269951"
    },
    "wof:country":"NL",
    "wof:geomhash":"91f2bac3313a509df5ba605b7e2db306",
    "wof:hierarchy":[
        {
            "continent_id":-1,
            "country_id":85633337,
            "locality_id":101751805,
            "neighbourhood_id":-1,
            "region_id":85687035,
            "venue_id":253563643
        }
    ],
    "wof:id":253563643,
    "wof:lastmodified":1449062866,
    "wof:name":"Leenders",
    "wof:parent_id":-1,
    "wof:placetype":"venue",
    "wof:superseded_by":[],
    "wof:supersedes":[],
    "wof:tags":[
        "pedicure"
    ]
},
  "bbox": [5.704871,51.472294,5.704871,51.472294],
  "geometry": {"coordinates":[5.704871,51.472294],"type":"Point"}
}