{
  "id": 287045657,
  "type": "Feature",
  "properties": {
    "edtf:cessation":"u",
    "edtf:inception":"u",
    "geom:area":0.0,
    "geom:bbox":"5.26861,51.714634,5.26861,51.714634",
    "geom:latitude":51.714634,
    "geom:longitude":5.26861,
    "iso:country":"NL",
    "sg:address":"De Bloemendaal 33",
    "sg:city":"S Hertogenbosch",
    "sg:classifiers":[],
    "sg:orig_category":"Bloemen En Planten",
    "sg:owner":"simplegeo",
    "sg:phone":"+31 73 631 2512",
    "sg:postcode":"5221 EB",
    "sg:province":"Noord-Brabant",
    "src:geom":"simplegeo",
    "wof:belongsto":[
        85797429,
        85633337,
        101751809,
        85687035
    ],
    "wof:breaches":[],
    "wof:concordances":{
        "sg:id":"SG_0wJbl8sKf3Oz0hOoD9wIF2_51.714634_5.268610@1306269976"
    },
    "wof:country":"NL",
    "wof:geomhash":"a6c6d9ae200ae2deab25c4ff59494ea3",
    "wof:hierarchy":[
        {
            "continent_id":-1,
            "country_id":85633337,
            "locality_id":101751809,
            "neighbourhood_id":85797429,
            "region_id":85687035,
            "venue_id":287045657
        }
    ],
    "wof:id":287045657,
    "wof:lastmodified":1449001474,
    "wof:name":"Dijk Bv, H Van",
    "wof:parent_id":85797429,
    "wof:placetype":"venue",
    "wof:superseded_by":[],
    "wof:supersedes":[],
    "wof:tags":[]
},
  "bbox": [5.26861,51.714634,5.26861,51.714634],
  "geometry": {"coordinates":[5.26861,51.714634],"type":"Point"}
}