{
  "id": 252836077,
  "type": "Feature",
  "properties": {
    "edtf:cessation":"u",
    "edtf:inception":"u",
    "geom:area":0.0,
    "geom:bbox":"4.912164,52.360001,4.912164,52.360001",
    "geom:latitude":52.360001,
    "geom:longitude":4.912164,
    "iso:country":"NL",
    "sg:address":"Boerhaavepln 39",
    "sg:city":"Amsterdam",
    "sg:classifiers":[
        {
            "category":"Utilities",
            "subcategory":"Cable",
            "type":"Services"
        }
    ],
    "sg:owner":"simplegeo",
    "sg:phone":"+31 20 692 2059",
    "sg:postcode":"1091 DH",
    "sg:province":"North Holland",
    "sg:tags":[
        "masseur",
        "en",
        "heilgymnasten"
    ],
    "src:geom":"simplegeo",
    "wof:belongsto":[
        85798627,
        85633337,
        101751893,
        85687053
    ],
    "wof:breaches":[],
    "wof:concordances":{
        "sg:id":"SG_70EYjbyqVvhRF9tweyrPZp_52.360001_4.912164@1306269944"
    },
    "wof:country":"NL",
    "wof:geomhash":"6c37ced1eb31a7170d632575eb428086",
    "wof:hierarchy":[
        {
            "continent_id":-1,
            "country_id":85633337,
            "locality_id":101751893,
            "neighbourhood_id":85798627,
            "region_id":85687053,
            "venue_id":252836077
        }
    ],
    "wof:id":252836077,
    "wof:lastmodified":1449006119,
    "wof:name":"Young Afat, H M",
    "wof:parent_id":85798627,
    "wof:placetype":"venue",
    "wof:superseded_by":[],
    "wof:supersedes":[],
    "wof:tags":[
        "masseur",
        "en",
        "heilgymnasten"
    ]
},
  "bbox": [4.912164,52.360001,4.912164,52.360001],
  "geometry": {"coordinates":[4.912164,52.360001],"type":"Point"}
}