{
  "id": 270500585,
  "type": "Feature",
  "properties": {
    "edtf:cessation":"u",
    "edtf:inception":"u",
    "geom:area":0.0,
    "geom:bbox":"6.101379,52.534283,6.101379,52.534283",
    "geom:latitude":52.534283,
    "geom:longitude":6.101379,
    "iso:country":"NL",
    "sg:address":"Waallaan 6",
    "sg:city":"Zwolle",
    "sg:classifiers":[
        {
            "category":"Education",
            "subcategory":"Preschool",
            "type":"Public Place"
        }
    ],
    "sg:owner":"simplegeo",
    "sg:phone":"+31 38 453 7622",
    "sg:postcode":"8032 GZ",
    "sg:province":"Overijssel",
    "sg:tags":[
        "kleuteronderwijs",
        "basis-"
    ],
    "src:geom":"simplegeo",
    "wof:belongsto":[
        85797041,
        85633337,
        85687045
    ],
    "wof:breaches":[],
    "wof:concordances":{
        "sg:id":"SG_6f4yhDVDql2gb6PEQlgRh9_52.534283_6.101379@1306269966"
    },
    "wof:country":"NL",
    "wof:geomhash":"61007a19c7a546f4c46399f822391d9b",
    "wof:hierarchy":[
        {
            "continent_id":-1,
            "country_id":85633337,
            "locality_id":-1,
            "neighbourhood_id":85797041,
            "region_id":85687045,
            "venue_id":270500585
        }
    ],
    "wof:id":270500585,
    "wof:lastmodified":1449009231,
    "wof:name":"De Aquarel",
    "wof:parent_id":85797041,
    "wof:placetype":"venue",
    "wof:superseded_by":[],
    "wof:supersedes":[],
    "wof:tags":[
        "kleuteronderwijs",
        "basis-"
    ]
},
  "bbox": [6.101379,52.534283,6.101379,52.534283],
  "geometry": {"coordinates":[6.101379,52.534283],"type":"Point"}
}