{
  "id": 320318219,
  "type": "Feature",
  "properties": {
    "edtf:cessation":"u",
    "edtf:inception":"u",
    "geom:area":0.0,
    "geom:bbox":"4.5691,51.960918,4.5691,51.960918",
    "geom:latitude":51.960918,
    "geom:longitude":4.5691,
    "iso:country":"NL",
    "sg:address":"Kil 41",
    "sg:city":"Rotterdam",
    "sg:classifiers":[],
    "sg:orig_category":"Goederenvervoer Over De Weg",
    "sg:owner":"simplegeo",
    "sg:phone":"+31 10 421 8150",
    "sg:postcode":"3068 GM",
    "sg:province":"South Holland",
    "src:geom":"simplegeo",
    "wof:belongsto":[
        85798779,
        85633337,
        101752769,
        85687041
    ],
    "wof:breaches":[],
    "wof:concordances":{
        "sg:id":"SG_60i97i2Lp0EA2He39nMqm0_51.960918_4.569100@1306269997"
    },
    "wof:country":"NL",
    "wof:geomhash":"caef1e75fe84eaf4f50a435d5f952768",
    "wof:hierarchy":[
        {
            "continent_id":-1,
            "country_id":85633337,
            "locality_id":101752769,
            "neighbourhood_id":85798779,
            "region_id":85687041,
            "venue_id":320318219
        }
    ],
    "wof:id":320318219,
    "wof:lastmodified":1449012082,
    "wof:name":"Dave-Trans",
    "wof:parent_id":85798779,
    "wof:placetype":"venue",
    "wof:superseded_by":[],
    "wof:supersedes":[],
    "wof:tags":[]
},
  "bbox": [4.5691,51.960918,4.5691,51.960918],
  "geometry": {"coordinates":[4.5691,51.960918],"type":"Point"}
}