{
  "id": 303131139,
  "type": "Feature",
  "properties": {
    "edtf:cessation":"u",
    "edtf:inception":"u",
    "geom:area":0.0,
    "geom:bbox":"-91.215027,44.578613,-91.215027,44.578613",
    "geom:latitude":44.578613,
    "geom:longitude":-91.215027,
    "iso:country":"NL",
    "sg:address":"Wolfskooi 9",
    "sg:city":"Oss",
    "sg:classifiers":[
        {
            "category":"Food & Beverages",
            "subcategory":"Bakery",
            "type":"Retail Goods"
        }
    ],
    "sg:owner":"simplegeo",
    "sg:phone":"+31 412 648 763",
    "sg:postcode":"5345 MH",
    "sg:province":"Noord-Brabant",
    "sg:tags":[
        "brood",
        "en",
        "banket"
    ],
    "src:geom":"simplegeo",
    "wof:belongsto":[
        85688517,
        85633793,
        101733225,
        102081731
    ],
    "wof:breaches":[],
    "wof:concordances":{
        "sg:id":"SG_3vY2Kuj97lINIzD9yLVzOh_44.578613_-91.215027@1306269980"
    },
    "wof:country":"NL",
    "wof:geomhash":"134230550137a0008ad293c405981d66",
    "wof:hierarchy":[
        {
            "continent_id":-1,
            "country_id":85633793,
            "county_id":102081731,
            "locality_id":101733225,
            "neighbourhood_id":-1,
            "region_id":85688517,
            "venue_id":303131139
        }
    ],
    "wof:id":303131139,
    "wof:lastmodified":1448998852,
    "wof:name":"Bart",
    "wof:parent_id":-1,
    "wof:placetype":"venue",
    "wof:superseded_by":[],
    "wof:supersedes":[],
    "wof:tags":[
        "brood",
        "en",
        "banket"
    ]
},
  "bbox": [-91.215027,44.578613,-91.215027,44.578613],
  "geometry": {"coordinates":[-91.215027,44.578613],"type":"Point"}
}