{
  "id": 185662295,
  "type": "Feature",
  "properties": {
    "edtf:cessation":"u",
    "edtf:inception":"u",
    "geom:area":0.0,
    "geom:bbox":"4.464851,51.918911,4.464851,51.918911",
    "geom:latitude":51.918911,
    "geom:longitude":4.464851,
    "iso:country":"NL",
    "sg:address":"Korte Bajonetstraat 40",
    "sg:city":"Rotterdam",
    "sg:classifiers":[],
    "sg:orig_category":"Kappers",
    "sg:owner":"simplegeo",
    "sg:phone":"+31 10 436 7817",
    "sg:postcode":"3014 ZS",
    "sg:province":"South Holland",
    "src:geom":"simplegeo",
    "wof:belongsto":[
        85859807,
        85633337,
        101751843,
        85687041
    ],
    "wof:breaches":[],
    "wof:concordances":{
        "sg:id":"SG_06XN39kmMO6vVyz7O7xPz1_51.918911_4.464851@1306269906"
    },
    "wof:country":"NL",
    "wof:geomhash":"5938b759cb856bec3b9d995628024ce1",
    "wof:hierarchy":[
        {
            "continent_id":-1,
            "country_id":85633337,
            "locality_id":101751843,
            "neighbourhood_id":85859807,
            "region_id":85687041,
            "venue_id":185662295
        }
    ],
    "wof:id":185662295,
    "wof:lastmodified":1449007676,
    "wof:name":"Hair Mode One Stone",
    "wof:parent_id":85859807,
    "wof:placetype":"venue",
    "wof:superseded_by":[],
    "wof:supersedes":[],
    "wof:tags":[]
},
  "bbox": [4.464851,51.918911,4.464851,51.918911],
  "geometry": {"coordinates":[4.464851,51.918911],"type":"Point"}
}