{
  "id": 270508395,
  "type": "Feature",
  "properties": {
    "edtf:cessation":"u",
    "edtf:inception":"u",
    "geom:area":0.0,
    "geom:bbox":"4.668692,52.12711,4.668692,52.12711",
    "geom:latitude":52.12711,
    "geom:longitude":4.668692,
    "iso:country":"NL",
    "sg:address":"Nicolaas Beetsstraat 1A",
    "sg:city":"Alphen A/D Rijn",
    "sg:classifiers":[
        {
            "category":"Education",
            "subcategory":"Preschool",
            "type":"Public Place"
        }
    ],
    "sg:owner":"simplegeo",
    "sg:phone":"+31 172 475 590",
    "sg:postcode":"2406 XC",
    "sg:province":"South Holland",
    "sg:tags":[
        "kleuteronderwijs",
        "basis-"
    ],
    "src:geom":"simplegeo",
    "wof:belongsto":[
        85633337,
        101751837,
        85687041
    ],
    "wof:breaches":[],
    "wof:concordances":{
        "sg:id":"SG_40CZOJIG1NUIGbv3ZPkENk_52.127110_4.668692@1306269966"
    },
    "wof:country":"NL",
    "wof:geomhash":"7434b5c27bb8a54d12f85de0d3976c41",
    "wof:hierarchy":[
        {
            "continent_id":-1,
            "country_id":85633337,
            "locality_id":101751837,
            "neighbourhood_id":-1,
            "region_id":85687041,
            "venue_id":270508395
        }
    ],
    "wof:id":270508395,
    "wof:lastmodified":1449010025,
    "wof:name":"De Rank",
    "wof:parent_id":-1,
    "wof:placetype":"venue",
    "wof:superseded_by":[],
    "wof:supersedes":[],
    "wof:tags":[
        "kleuteronderwijs",
        "basis-"
    ]
},
  "bbox": [4.668692,52.12711,4.668692,52.12711],
  "geometry": {"coordinates":[4.668692,52.12711],"type":"Point"}
}