{
  "id": 252757803,
  "type": "Feature",
  "properties": {
    "edtf:cessation":"u",
    "edtf:inception":"u",
    "geom:area":0.0,
    "geom:bbox":"6.593488,53.127487,6.593488,53.127487",
    "geom:latitude":53.127487,
    "geom:longitude":6.593488,
    "iso:country":"NL",
    "sg:address":"Burg J G Legrowg 66 A",
    "sg:city":"Eelde",
    "sg:classifiers":[
        {
            "category":"Sports & Exercise",
            "subcategory":"Stables",
            "type":"Entertainment"
        }
    ],
    "sg:owner":"simplegeo",
    "sg:phone":"+31 50 309 2416",
    "sg:postcode":"9761 TD",
    "sg:province":"Drenthe",
    "sg:tags":[
        "maneges"
    ],
    "src:geom":"simplegeo",
    "wof:belongsto":[
        85633337,
        85687051
    ],
    "wof:breaches":[],
    "wof:concordances":{
        "sg:id":"SG_6Ebx9GJVoKkP5ljemaEKU2_53.127487_6.593488@1306269943"
    },
    "wof:country":"NL",
    "wof:geomhash":"66a6e0070f03592beb46ae633414fdfc",
    "wof:hierarchy":[
        {
            "continent_id":-1,
            "country_id":85633337,
            "locality_id":-1,
            "neighbourhood_id":-1,
            "region_id":85687051,
            "venue_id":252757803
        }
    ],
    "wof:id":252757803,
    "wof:lastmodified":1449006028,
    "wof:name":"Eelde Manege",
    "wof:parent_id":-1,
    "wof:placetype":"venue",
    "wof:superseded_by":[],
    "wof:supersedes":[],
    "wof:tags":[
        "maneges"
    ]
},
  "bbox": [6.593488,53.127487,6.593488,53.127487],
  "geometry": {"coordinates":[6.593488,53.127487],"type":"Point"}
}