{
  "id": 303442687,
  "type": "Feature",
  "properties": {
    "edtf:cessation":"u",
    "edtf:inception":"u",
    "geom:area":0.0,
    "geom:bbox":"6.068726,52.459126,6.068726,52.459126",
    "geom:latitude":52.459126,
    "geom:longitude":6.068726,
    "iso:country":"NL",
    "sg:address":"Hazenakker 5",
    "sg:city":"Hattem",
    "sg:classifiers":[
        {
            "category":"Education",
            "subcategory":"School",
            "type":"Public Place"
        }
    ],
    "sg:owner":"simplegeo",
    "sg:phone":"+31 38 444 1040",
    "sg:postcode":"8051 AT",
    "sg:province":"Gelderland",
    "sg:tags":[
        "studiebegeleiding",
        "en",
        "school-"
    ],
    "src:geom":"simplegeo",
    "wof:belongsto":[
        85633337,
        101837771,
        85687043
    ],
    "wof:breaches":[],
    "wof:concordances":{
        "sg:id":"SG_6kozEyEIsW49aw842jALiV_52.459126_6.068726@1306269984"
    },
    "wof:country":"NL",
    "wof:geomhash":"796a951e656612199fab165bc06e6aee",
    "wof:hierarchy":[
        {
            "continent_id":-1,
            "country_id":85633337,
            "locality_id":101837771,
            "neighbourhood_id":-1,
            "region_id":85687043,
            "venue_id":303442687
        }
    ],
    "wof:id":303442687,
    "wof:lastmodified":1448999191,
    "wof:name":"Hisb",
    "wof:parent_id":-1,
    "wof:placetype":"venue",
    "wof:superseded_by":[],
    "wof:supersedes":[],
    "wof:tags":[
        "studiebegeleiding",
        "en",
        "school-"
    ]
},
  "bbox": [6.068726,52.459126,6.068726,52.459126],
  "geometry": {"coordinates":[6.068726,52.459126],"type":"Point"}
}