{
  "id": 286301793,
  "type": "Feature",
  "properties": {
    "edtf:cessation":"u",
    "edtf:inception":"u",
    "geom:area":0.0,
    "geom:bbox":"4.640994,51.8689,4.640994,51.8689",
    "geom:latitude":51.8689,
    "geom:longitude":4.640994,
    "iso:country":"NL",
    "sg:address":"Oost Kinderdijk 271",
    "sg:city":"Alblasserdam",
    "sg:classifiers":[
        {
            "category":"Education",
            "subcategory":"Preschool",
            "type":"Public Place"
        }
    ],
    "sg:owner":"simplegeo",
    "sg:phone":"+31 78 691 2804",
    "sg:postcode":"2953 CL",
    "sg:province":"South Holland",
    "sg:tags":[
        "kleuteronderwijs",
        "basis-"
    ],
    "src:geom":"simplegeo",
    "wof:belongsto":[
        85798169,
        85633337,
        101754633,
        85687041
    ],
    "wof:breaches":[],
    "wof:concordances":{
        "sg:id":"SG_7B3dUlPBmrIE6n1YYcJ5ez_51.868900_4.640994@1306269967"
    },
    "wof:country":"NL",
    "wof:geomhash":"f3ce6533deaf0b1c36f2bec13768721f",
    "wof:hierarchy":[
        {
            "continent_id":-1,
            "country_id":85633337,
            "locality_id":101754633,
            "neighbourhood_id":85798169,
            "region_id":85687041,
            "venue_id":286301793
        }
    ],
    "wof:id":286301793,
    "wof:lastmodified":1449015923,
    "wof:name":"Ot En Sien",
    "wof:parent_id":85798169,
    "wof:placetype":"venue",
    "wof:superseded_by":[],
    "wof:supersedes":[],
    "wof:tags":[
        "kleuteronderwijs",
        "basis-"
    ]
},
  "bbox": [4.640994,51.8689,4.640994,51.8689],
  "geometry": {"coordinates":[4.640994,51.8689],"type":"Point"}
}