{
  "id": 236588657,
  "type": "Feature",
  "properties": {
    "edtf:cessation":"u",
    "edtf:inception":"u",
    "geom:area":0.0,
    "geom:bbox":"5.565888,52.035053,5.565888,52.035053",
    "geom:latitude":52.035053,
    "geom:longitude":5.565888,
    "iso:country":"NL",
    "sg:address":"Blauwgras 9",
    "sg:city":"Veenendaal",
    "sg:classifiers":[],
    "sg:orig_category":"Autokeuringen",
    "sg:owner":"simplegeo",
    "sg:phone":"+31 318 514 494",
    "sg:postcode":"3902 AB",
    "sg:province":"Utrecht",
    "src:geom":"simplegeo",
    "wof:belongsto":[
        85797563,
        85633337,
        85687039
    ],
    "wof:breaches":[],
    "wof:concordances":{
        "sg:id":"SG_30VliNwHZzIlLbg6oIKBHS_52.035053_5.565888@1306269939"
    },
    "wof:country":"NL",
    "wof:geomhash":"c8f9d799b200b193e030733dd883aa38",
    "wof:hierarchy":[
        {
            "continent_id":-1,
            "country_id":85633337,
            "locality_id":-1,
            "neighbourhood_id":85797563,
            "region_id":85687039,
            "venue_id":236588657
        }
    ],
    "wof:id":236588657,
    "wof:lastmodified":1449004464,
    "wof:name":"Gravendeel Auto'S Veenendaal",
    "wof:parent_id":85797563,
    "wof:placetype":"venue",
    "wof:superseded_by":[],
    "wof:supersedes":[],
    "wof:tags":[]
},
  "bbox": [5.565888,52.035053,5.565888,52.035053],
  "geometry": {"coordinates":[5.565888,52.035053],"type":"Point"}
}