{
  "id": 286500163,
  "type": "Feature",
  "properties": {
    "edtf:cessation":"u",
    "edtf:inception":"u",
    "geom:area":0.0,
    "geom:bbox":"4.642885,52.388271,4.642885,52.388271",
    "geom:latitude":52.388271,
    "geom:longitude":4.642885,
    "iso:country":"NL",
    "sg:address":"Prinsen Bolwerk 9",
    "sg:city":"Haarlem",
    "sg:classifiers":[],
    "sg:orig_category":"Beeldende Kunstenaars",
    "sg:owner":"simplegeo",
    "sg:phone":"+31 23 531 0230",
    "sg:postcode":"2011 MA",
    "sg:province":"Noord-Holland",
    "src:geom":"simplegeo",
    "wof:belongsto":[
        85859533,
        85633337,
        85687053
    ],
    "wof:breaches":[],
    "wof:concordances":{
        "sg:id":"SG_3M2Bhyc6twFJTYprple0kU_52.388271_4.642885@1306269970"
    },
    "wof:country":"NL",
    "wof:geomhash":"faf88cb28ff39ac11e291a2e807a0d9f",
    "wof:hierarchy":[
        {
            "continent_id":-1,
            "country_id":85633337,
            "locality_id":-1,
            "neighbourhood_id":85859533,
            "region_id":85687053,
            "venue_id":286500163
        }
    ],
    "wof:id":286500163,
    "wof:lastmodified":1449015906,
    "wof:name":"Noort, A F Van",
    "wof:parent_id":85859533,
    "wof:placetype":"venue",
    "wof:superseded_by":[],
    "wof:supersedes":[],
    "wof:tags":[]
},
  "bbox": [4.642885,52.388271,4.642885,52.388271],
  "geometry": {"coordinates":[4.642885,52.388271],"type":"Point"}
}