{
  "id": 303815719,
  "type": "Feature",
  "properties": {
    "edtf:cessation":"u",
    "edtf:inception":"u",
    "geom:area":0.0,
    "geom:bbox":"6.723411,53.413601,6.723411,53.413601",
    "geom:latitude":53.413601,
    "geom:longitude":6.723411,
    "iso:country":"NL",
    "sg:address":"L Akker 15",
    "sg:city":"Uithuizermeeden",
    "sg:classifiers":[],
    "sg:orig_category":"Natuurvoeding En Reformartikelen",
    "sg:owner":"simplegeo",
    "sg:phone":"+31 595 413 401",
    "sg:postcode":"9982 HK",
    "sg:province":"Groningen",
    "src:geom":"simplegeo",
    "wof:belongsto":[
        85633337,
        101807515,
        85687059
    ],
    "wof:breaches":[],
    "wof:concordances":{
        "sg:id":"SG_1U0B54jqCTftVMnLLQVfjS_53.413601_6.723411@1306269988"
    },
    "wof:country":"NL",
    "wof:geomhash":"8b56de5fbda25b4845a9b497f6a7619d",
    "wof:hierarchy":[
        {
            "continent_id":-1,
            "country_id":85633337,
            "locality_id":101807515,
            "neighbourhood_id":-1,
            "region_id":85687059,
            "venue_id":303815719
        }
    ],
    "wof:id":303815719,
    "wof:lastmodified":1448999302,
    "wof:name":"Vitality Supply",
    "wof:parent_id":-1,
    "wof:placetype":"venue",
    "wof:superseded_by":[],
    "wof:supersedes":[],
    "wof:tags":[]
},
  "bbox": [6.723411,53.413601,6.723411,53.413601],
  "geometry": {"coordinates":[6.723411,53.413601],"type":"Point"}
}