{
  "id": 320323303,
  "type": "Feature",
  "properties": {
    "edtf:cessation":"u",
    "edtf:inception":"u",
    "geom:area":0.0,
    "geom:bbox":"4.965122,51.879135,4.965122,51.879135",
    "geom:latitude":51.879135,
    "geom:longitude":4.965122,
    "iso:country":"NL",
    "sg:address":"Dorpsweg 1",
    "sg:city":"Hoogblokland",
    "sg:classifiers":[],
    "sg:orig_category":"Goederenvervoer Over De Weg",
    "sg:owner":"simplegeo",
    "sg:phone":"+31 183 581 901",
    "sg:postcode":"4221 LD",
    "sg:province":"South Holland",
    "src:geom":"simplegeo",
    "wof:belongsto":[
        85633337,
        85687041
    ],
    "wof:breaches":[],
    "wof:concordances":{
        "sg:id":"SG_7PyLSYi3VL2cVDZbpDUYT7_51.879135_4.965122@1306269997"
    },
    "wof:country":"NL",
    "wof:geomhash":"ea4c18529fafb64a76c7dedf56465081",
    "wof:hierarchy":[
        {
            "continent_id":-1,
            "country_id":85633337,
            "locality_id":-1,
            "neighbourhood_id":-1,
            "region_id":85687041,
            "venue_id":320323303
        }
    ],
    "wof:id":320323303,
    "wof:lastmodified":1449011564,
    "wof:name":"Ericatrans",
    "wof:parent_id":-1,
    "wof:placetype":"venue",
    "wof:superseded_by":[],
    "wof:supersedes":[],
    "wof:tags":[]
},
  "bbox": [4.965122,51.879135,4.965122,51.879135],
  "geometry": {"coordinates":[4.965122,51.879135],"type":"Point"}
}