{
  "id": 219363821,
  "type": "Feature",
  "properties": {
    "edtf:cessation":"u",
    "edtf:inception":"u",
    "geom:area":0.0,
    "geom:bbox":"5.644238,50.85865,5.644238,50.85865",
    "geom:latitude":50.85865,
    "geom:longitude":5.644238,
    "iso:country":"NL",
    "sg:address":"Via Regia 603",
    "sg:city":"Maastricht",
    "sg:classifiers":[],
    "sg:orig_category":"Loodgieterswerk, Verwarming And Sanitaire Installaties",
    "sg:owner":"simplegeo",
    "sg:phone":"+31 43 343 8600",
    "sg:postcode":"6216 BW",
    "sg:province":"Limburg",
    "src:geom":"simplegeo",
    "wof:belongsto":[
        85798317,
        85633337,
        101751803,
        85687033
    ],
    "wof:breaches":[],
    "wof:concordances":{
        "sg:id":"SG_0JgQ9TW7hcd139it8CcVIw_50.858650_5.644238@1306269925"
    },
    "wof:country":"NL",
    "wof:geomhash":"bbb6a54753edc359273f16d86ee2954c",
    "wof:hierarchy":[
        {
            "continent_id":-1,
            "country_id":85633337,
            "locality_id":101751803,
            "neighbourhood_id":85798317,
            "region_id":85687033,
            "venue_id":219363821
        }
    ],
    "wof:id":219363821,
    "wof:lastmodified":1449073494,
    "wof:name":"Installatiebedrijf Amory",
    "wof:parent_id":85798317,
    "wof:placetype":"venue",
    "wof:superseded_by":[],
    "wof:supersedes":[],
    "wof:tags":[]
},
  "bbox": [5.644238,50.85865,5.644238,50.85865],
  "geometry": {"coordinates":[5.644238,50.85865],"type":"Point"}
}