{
  "id": 269900675,
  "type": "Feature",
  "properties": {
    "edtf:cessation":"u",
    "edtf:inception":"u",
    "geom:area":0.0,
    "geom:bbox":"4.132318,51.976555,4.132318,51.976555",
    "geom:latitude":51.976555,
    "geom:longitude":4.132318,
    "iso:country":"NL",
    "sg:address":"Pr Hendrikstr 203",
    "sg:city":"Hoek Van Holland",
    "sg:classifiers":[],
    "sg:orig_category":"Fietsen En Bromfietsen",
    "sg:owner":"simplegeo",
    "sg:phone":"+31 174 387 895",
    "sg:postcode":"3151 AH",
    "sg:province":"South Holland",
    "src:geom":"simplegeo",
    "wof:belongsto":[
        85633337,
        101808077,
        85687041
    ],
    "wof:breaches":[],
    "wof:concordances":{
        "sg:id":"SG_1pKz2cZFAx1juPwD24av44_51.976555_4.132318@1306269959"
    },
    "wof:country":"NL",
    "wof:geomhash":"621aa4dd9ff5ae5049e94b5cdf042575",
    "wof:hierarchy":[
        {
            "continent_id":-1,
            "country_id":85633337,
            "locality_id":101808077,
            "neighbourhood_id":-1,
            "region_id":85687041,
            "venue_id":269900675
        }
    ],
    "wof:id":269900675,
    "wof:lastmodified":1449037165,
    "wof:name":"Leeuwen Tweewielers, Van",
    "wof:parent_id":-1,
    "wof:placetype":"venue",
    "wof:superseded_by":[],
    "wof:supersedes":[],
    "wof:tags":[]
},
  "bbox": [4.132318,51.976555,4.132318,51.976555],
  "geometry": {"coordinates":[4.132318,51.976555],"type":"Point"}
}