{
  "id": 270324983,
  "type": "Feature",
  "properties": {
    "edtf:cessation":"u",
    "edtf:inception":"u",
    "geom:area":0.0,
    "geom:bbox":"5.481822,52.236008,5.481822,52.236008",
    "geom:latitude":52.236008,
    "geom:longitude":5.481822,
    "iso:country":"NL",
    "sg:address":"Gezellenstr 6",
    "sg:city":"Nykerk Gld",
    "sg:classifiers":[],
    "sg:orig_category":"Bakkerijbenodigdheden En -Grondstoffen",
    "sg:owner":"simplegeo",
    "sg:phone":"+31 33 465 4810",
    "sg:postcode":"3861 RD",
    "sg:province":"Gelderland",
    "src:geom":"simplegeo",
    "wof:belongsto":[
        85633337,
        101807075,
        85687043
    ],
    "wof:breaches":[],
    "wof:concordances":{
        "sg:id":"SG_2qiLMl9At6P87IATBtmDCI_52.236008_5.481822@1306269964"
    },
    "wof:country":"NL",
    "wof:geomhash":"cb12530bcc578ce002b7547a56d5e7c0",
    "wof:hierarchy":[
        {
            "continent_id":-1,
            "country_id":85633337,
            "locality_id":101807075,
            "neighbourhood_id":-1,
            "region_id":85687043,
            "venue_id":270324983
        }
    ],
    "wof:id":270324983,
    "wof:lastmodified":1449010078,
    "wof:name":"Bak Speciaal",
    "wof:parent_id":-1,
    "wof:placetype":"venue",
    "wof:superseded_by":[],
    "wof:supersedes":[],
    "wof:tags":[]
},
  "bbox": [5.481822,52.236008,5.481822,52.236008],
  "geometry": {"coordinates":[5.481822,52.236008],"type":"Point"}
}