{
  "id": 320747389,
  "type": "Feature",
  "properties": {
    "edtf:cessation":"u",
    "edtf:inception":"u",
    "geom:area":0.0,
    "geom:bbox":"4.89693,52.095219,4.89693,52.095219",
    "geom:latitude":52.095219,
    "geom:longitude":4.89693,
    "iso:country":"NL",
    "sg:address":"Geestdorp 11",
    "sg:city":"Woerden",
    "sg:classifiers":[],
    "sg:orig_category":"Zuivelproducten And Spijsoli?n Gh",
    "sg:owner":"simplegeo",
    "sg:phone":"+31 348 412 449",
    "sg:postcode":"3444 BC",
    "sg:province":"Utrecht",
    "src:geom":"simplegeo",
    "wof:belongsto":[
        85859935,
        85633337,
        101808435,
        85687039
    ],
    "wof:breaches":[],
    "wof:concordances":{
        "sg:id":"SG_1fgtUfEywLNpoMJxnVm28U_52.095219_4.896930@1306270002"
    },
    "wof:country":"NL",
    "wof:geomhash":"4a57b577a7a168d03476c644e2d3027b",
    "wof:hierarchy":[
        {
            "continent_id":-1,
            "country_id":85633337,
            "locality_id":101808435,
            "neighbourhood_id":85859935,
            "region_id":85687039,
            "venue_id":320747389
        }
    ],
    "wof:id":320747389,
    "wof:lastmodified":1449011940,
    "wof:name":"Kaashandel De Rijn",
    "wof:parent_id":85859935,
    "wof:placetype":"venue",
    "wof:superseded_by":[],
    "wof:supersedes":[],
    "wof:tags":[]
},
  "bbox": [4.89693,52.095219,4.89693,52.095219],
  "geometry": {"coordinates":[4.89693,52.095219],"type":"Point"}
}