{
  "id": 303195835,
  "type": "Feature",
  "properties": {
    "edtf:cessation":"u",
    "edtf:inception":"u",
    "geom:area":0.0,
    "geom:bbox":"4.462261,52.155483,4.462261,52.155483",
    "geom:latitude":52.155483,
    "geom:longitude":4.462261,
    "iso:country":"NL",
    "sg:address":"Smaragdln 1",
    "sg:city":"Leiden",
    "sg:classifiers":[],
    "sg:orig_category":"Schilders",
    "sg:owner":"simplegeo",
    "sg:phone":"+31 71 576 4427",
    "sg:postcode":"2332 JL",
    "sg:province":"South Holland",
    "src:geom":"simplegeo",
    "wof:belongsto":[
        85798091,
        85633337,
        101751833,
        85687041
    ],
    "wof:breaches":[],
    "wof:concordances":{
        "sg:id":"SG_3uGcvcysuYQynhIS5DEZqi_52.155483_4.462261@1306269981"
    },
    "wof:country":"NL",
    "wof:geomhash":"e152633385e825826aa1e13cd22811b5",
    "wof:hierarchy":[
        {
            "continent_id":-1,
            "country_id":85633337,
            "locality_id":101751833,
            "neighbourhood_id":85798091,
            "region_id":85687041,
            "venue_id":303195835
        }
    ],
    "wof:id":303195835,
    "wof:lastmodified":1448999724,
    "wof:name":"Amsterdam, Schildersbedrijf H L Van",
    "wof:parent_id":85798091,
    "wof:placetype":"venue",
    "wof:superseded_by":[],
    "wof:supersedes":[],
    "wof:tags":[]
},
  "bbox": [4.462261,52.155483,4.462261,52.155483],
  "geometry": {"coordinates":[4.462261,52.155483],"type":"Point"}
}