{
  "id": 219803651,
  "type": "Feature",
  "properties": {
    "edtf:cessation":"u",
    "edtf:inception":"u",
    "geom:area":0.0,
    "geom:bbox":"4.456189,51.920509,4.456189,51.920509",
    "geom:latitude":51.920509,
    "geom:longitude":4.456189,
    "iso:country":"NL",
    "sg:address":"Heemraadssngl 36",
    "sg:city":"Rotterdam",
    "sg:classifiers":[],
    "sg:orig_category":"Adviesbureaus Bedrijfsorganisatie",
    "sg:owner":"simplegeo",
    "sg:phone":"+31 10 425 9855",
    "sg:postcode":"3021 DB",
    "sg:province":"Zuid-Holland",
    "src:geom":"simplegeo",
    "wof:belongsto":[
        85859777,
        85633337,
        101751843,
        85687041
    ],
    "wof:breaches":[],
    "wof:concordances":{
        "sg:id":"SG_2XDWcchm0ttcGL2DKxq5Aj_51.920509_4.456189@1306269929"
    },
    "wof:country":"NL",
    "wof:geomhash":"8091c1911aa7e324b5715e8e79bcabf4",
    "wof:hierarchy":[
        {
            "continent_id":-1,
            "country_id":85633337,
            "locality_id":101751843,
            "neighbourhood_id":85859777,
            "region_id":85687041,
            "venue_id":219803651
        }
    ],
    "wof:id":219803651,
    "wof:lastmodified":1449073962,
    "wof:name":"Graaff",
    "wof:parent_id":85859777,
    "wof:placetype":"venue",
    "wof:superseded_by":[],
    "wof:supersedes":[],
    "wof:tags":[]
},
  "bbox": [4.456189,51.920509,4.456189,51.920509],
  "geometry": {"coordinates":[4.456189,51.920509],"type":"Point"}
}