{
  "id": 319824673,
  "type": "Feature",
  "properties": {
    "edtf:cessation":"u",
    "edtf:inception":"u",
    "geom:area":0.0,
    "geom:bbox":"5.770395,51.004822,5.770395,51.004822",
    "geom:latitude":51.004822,
    "geom:longitude":5.770395,
    "iso:country":"NL",
    "sg:address":"Mauritsln 65",
    "sg:city":"Urmond",
    "sg:classifiers":[
        {
            "category":"Travel",
            "subcategory":"Hotels & Motels",
            "type":"Entertainment"
        }
    ],
    "sg:owner":"simplegeo",
    "sg:phone":"+31 46 433 8573",
    "sg:postcode":"6129 EL",
    "sg:province":"Limburg",
    "sg:website":"http://www.valk.com",
    "src:geom":"simplegeo",
    "wof:belongsto":[
        85797937,
        85633337,
        85687033
    ],
    "wof:breaches":[],
    "wof:concordances":{
        "sg:id":"SG_358IuCiaXdl01moNCxtojk_51.004822_5.770395@1306269991"
    },
    "wof:country":"NL",
    "wof:geomhash":"d83d13f42a686432c80c6950a7ac977c",
    "wof:hierarchy":[
        {
            "continent_id":-1,
            "country_id":85633337,
            "locality_id":-1,
            "neighbourhood_id":85797937,
            "region_id":85687033,
            "venue_id":319824673
        }
    ],
    "wof:id":319824673,
    "wof:lastmodified":1449024346,
    "wof:name":"Valk Stein-Urmond, Van Der",
    "wof:parent_id":85797937,
    "wof:placetype":"venue",
    "wof:superseded_by":[],
    "wof:supersedes":[],
    "wof:tags":[]
},
  "bbox": [5.770395,51.004822,5.770395,51.004822],
  "geometry": {"coordinates":[5.770395,51.004822],"type":"Point"}
}