{
  "id": 219824589,
  "type": "Feature",
  "properties": {
    "edtf:cessation":"u",
    "edtf:inception":"u",
    "geom:area":0.0,
    "geom:bbox":"5.224283,52.247627,5.224283,52.247627",
    "geom:latitude":52.247627,
    "geom:longitude":5.224283,
    "iso:country":"NL",
    "sg:address":"Slangenwg 40",
    "sg:city":"Laren Nh",
    "sg:classifiers":[],
    "sg:orig_category":"Adviesbureaus Bedrijfsorganisatie",
    "sg:owner":"simplegeo",
    "sg:phone":"+31 35 525 5584",
    "sg:postcode":"1251 RV",
    "sg:province":"Noord-Holland",
    "src:geom":"simplegeo",
    "wof:belongsto":[
        85798173,
        85633337,
        101837933,
        85687053
    ],
    "wof:breaches":[],
    "wof:concordances":{
        "sg:id":"SG_4jj2KGPYqyTzoWcq46a5ns_52.247627_5.224283@1306269929"
    },
    "wof:country":"NL",
    "wof:geomhash":"37c57244fa092a75da725fc72c4655a5",
    "wof:hierarchy":[
        {
            "continent_id":-1,
            "country_id":85633337,
            "locality_id":101837933,
            "neighbourhood_id":85798173,
            "region_id":85687053,
            "venue_id":219824589
        }
    ],
    "wof:id":219824589,
    "wof:lastmodified":1449071647,
    "wof:name":"Im4U Bv",
    "wof:parent_id":85798173,
    "wof:placetype":"venue",
    "wof:superseded_by":[],
    "wof:supersedes":[],
    "wof:tags":[]
},
  "bbox": [5.224283,52.247627,5.224283,52.247627],
  "geometry": {"coordinates":[5.224283,52.247627],"type":"Point"}
}