{
  "id": 336922919,
  "type": "Feature",
  "properties": {
    "edtf:cessation":"u",
    "edtf:inception":"u",
    "geom:area":0.0,
    "geom:bbox":"4.486778,51.925648,4.486778,51.925648",
    "geom:latitude":51.925648,
    "geom:longitude":4.486778,
    "iso:country":"NL",
    "sg:address":"Jonker Fransstr 122A",
    "sg:city":"Rotterdam",
    "sg:classifiers":[],
    "sg:orig_category":"Onroerende Goederen",
    "sg:owner":"simplegeo",
    "sg:phone":"+31 10 423 2498",
    "sg:postcode":"3031 AX",
    "sg:province":"Zuid-Holland",
    "src:geom":"simplegeo",
    "wof:belongsto":[
        85859857,
        85633337,
        101751843,
        85687041
    ],
    "wof:breaches":[],
    "wof:concordances":{
        "sg:id":"SG_66THt55PrfDv9uSSkLjXAd_51.925648_4.486778@1306270007"
    },
    "wof:country":"NL",
    "wof:geomhash":"058170f800ef07a98820e05856aeefdf",
    "wof:hierarchy":[
        {
            "continent_id":-1,
            "country_id":85633337,
            "locality_id":101751843,
            "neighbourhood_id":85859857,
            "region_id":85687041,
            "venue_id":336922919
        }
    ],
    "wof:id":336922919,
    "wof:lastmodified":1448997029,
    "wof:name":"House Investments Bv",
    "wof:parent_id":85859857,
    "wof:placetype":"venue",
    "wof:superseded_by":[],
    "wof:supersedes":[],
    "wof:tags":[]
},
  "bbox": [4.486778,51.925648,4.486778,51.925648],
  "geometry": {"coordinates":[4.486778,51.925648],"type":"Point"}
}