{
  "id": 186286543,
  "type": "Feature",
  "properties": {
    "edtf:cessation":"u",
    "edtf:inception":"u",
    "geom:area":0.0,
    "geom:bbox":"4.532486,52.01799,4.532486,52.01799",
    "geom:latitude":52.01799,
    "geom:longitude":4.532486,
    "iso:country":"NL",
    "sg:address":"Overbuurtsewg 13",
    "sg:city":"Bleiswyk",
    "sg:classifiers":[],
    "sg:orig_category":"Veilingen En Venduhuizen",
    "sg:owner":"simplegeo",
    "sg:phone":"+31 10 521 2799",
    "sg:postcode":"2665 CA",
    "sg:province":"Zuid-Holland",
    "src:geom":"simplegeo",
    "wof:belongsto":[
        85798199,
        85633337,
        101807025,
        85687041
    ],
    "wof:breaches":[],
    "wof:concordances":{
        "sg:id":"SG_3JcVKHSw4e8kzOzMamoV21_52.017990_4.532486@1306269911"
    },
    "wof:country":"NL",
    "wof:geomhash":"5b4120c9da2b1796ca912449eeb4470a",
    "wof:hierarchy":[
        {
            "continent_id":-1,
            "country_id":85633337,
            "locality_id":101807025,
            "neighbourhood_id":85798199,
            "region_id":85687041,
            "venue_id":186286543
        }
    ],
    "wof:id":186286543,
    "wof:lastmodified":1449051093,
    "wof:name":"Domeinen",
    "wof:parent_id":85798199,
    "wof:placetype":"venue",
    "wof:superseded_by":[],
    "wof:supersedes":[],
    "wof:tags":[]
},
  "bbox": [4.532486,52.01799,4.532486,52.01799],
  "geometry": {"coordinates":[4.532486,52.01799],"type":"Point"}
}