{
  "id": 236659305,
  "type": "Feature",
  "properties": {
    "edtf:cessation":"u",
    "edtf:inception":"u",
    "geom:area":0.0,
    "geom:bbox":"5.08764,52.161224,5.08764,52.161224",
    "geom:latitude":52.161224,
    "geom:longitude":5.08764,
    "iso:country":"NL",
    "sg:address":"Bethuneweg 1",
    "sg:city":"Tienhoven Ut",
    "sg:classifiers":[],
    "sg:orig_category":"Autokeuringen",
    "sg:owner":"simplegeo",
    "sg:phone":"+31 346 562 798",
    "sg:postcode":"3612 AX",
    "sg:province":"Utrecht",
    "src:geom":"simplegeo",
    "wof:belongsto":[
        85798231,
        85633337,
        85687039
    ],
    "wof:breaches":[],
    "wof:concordances":{
        "sg:id":"SG_41HIxYKV5Xwyz9a5rgVK7o_52.161224_5.087640@1306269939"
    },
    "wof:country":"NL",
    "wof:geomhash":"7cc93882f2cb18554f00cc7f6056ba3b",
    "wof:hierarchy":[
        {
            "continent_id":-1,
            "country_id":85633337,
            "locality_id":-1,
            "neighbourhood_id":85798231,
            "region_id":85687039,
            "venue_id":236659305
        }
    ],
    "wof:id":236659305,
    "wof:lastmodified":1449001939,
    "wof:name":"Vof Gebr. Van Der Linden",
    "wof:parent_id":85798231,
    "wof:placetype":"venue",
    "wof:superseded_by":[],
    "wof:supersedes":[],
    "wof:tags":[]
},
  "bbox": [5.08764,52.161224,5.08764,52.161224],
  "geometry": {"coordinates":[5.08764,52.161224],"type":"Point"}
}