{
  "id": 235939333,
  "type": "Feature",
  "properties": {
    "edtf:cessation":"u",
    "edtf:inception":"u",
    "geom:area":0.0,
    "geom:bbox":"6.597786,53.082981,6.597786,53.082981",
    "geom:latitude":53.082981,
    "geom:longitude":6.597786,
    "iso:country":"NL",
    "sg:address":"Nijverheidsweg 25",
    "sg:city":"Tynaarlo",
    "sg:classifiers":[],
    "sg:orig_category":"Airconditioning And Ventilatie",
    "sg:owner":"simplegeo",
    "sg:phone":"+31 592 461 100",
    "sg:postcode":"9482 WB",
    "sg:province":"Drenthe",
    "src:geom":"simplegeo",
    "wof:belongsto":[
        85633337,
        101807259,
        85687051
    ],
    "wof:breaches":[],
    "wof:concordances":{
        "sg:id":"SG_6wgDgo6ryh7hZnoRnHkhFy_53.082981_6.597786@1306269933"
    },
    "wof:country":"NL",
    "wof:geomhash":"8df51e66427b9462414a030d3efd6260",
    "wof:hierarchy":[
        {
            "continent_id":-1,
            "country_id":85633337,
            "locality_id":101807259,
            "neighbourhood_id":-1,
            "region_id":85687051,
            "venue_id":235939333
        }
    ],
    "wof:id":235939333,
    "wof:lastmodified":1449008356,
    "wof:name":"Joco Benelux Bv",
    "wof:parent_id":-1,
    "wof:placetype":"venue",
    "wof:superseded_by":[],
    "wof:supersedes":[],
    "wof:tags":[]
},
  "bbox": [6.597786,53.082981,6.597786,53.082981],
  "geometry": {"coordinates":[6.597786,53.082981],"type":"Point"}
}