{
  "id": 320469159,
  "type": "Feature",
  "properties": {
    "edtf:cessation":"u",
    "edtf:inception":"u",
    "geom:area":0.0,
    "geom:bbox":"4.711998,52.014404,4.711998,52.014404",
    "geom:latitude":52.014404,
    "geom:longitude":4.711998,
    "iso:country":"NL",
    "sg:address":"Conventstr 100",
    "sg:city":"Gouda",
    "sg:classifiers":[],
    "sg:orig_category":"Grafisch Ontwerpers",
    "sg:owner":"simplegeo",
    "sg:phone":"+31 182 583 360",
    "sg:postcode":"2801 EX",
    "sg:province":"South Holland",
    "src:geom":"simplegeo",
    "wof:belongsto":[
        85797883,
        85633337,
        85687041
    ],
    "wof:breaches":[],
    "wof:concordances":{
        "sg:id":"SG_0RagjbSB3fzJYgLYddesOu_52.014404_4.711998@1306269998"
    },
    "wof:country":"NL",
    "wof:geomhash":"78c618fe7ed3a089451b7d9ade5175fd",
    "wof:hierarchy":[
        {
            "continent_id":-1,
            "country_id":85633337,
            "locality_id":-1,
            "neighbourhood_id":85797883,
            "region_id":85687041,
            "venue_id":320469159
        }
    ],
    "wof:id":320469159,
    "wof:lastmodified":1449015053,
    "wof:name":"Antoine Koster",
    "wof:parent_id":85797883,
    "wof:placetype":"venue",
    "wof:superseded_by":[],
    "wof:supersedes":[],
    "wof:tags":[]
},
  "bbox": [4.711998,52.014404,4.711998,52.014404],
  "geometry": {"coordinates":[4.711998,52.014404],"type":"Point"}
}