{
  "id": 270080275,
  "type": "Feature",
  "properties": {
    "edtf:cessation":"u",
    "edtf:inception":"u",
    "geom:area":0.0,
    "geom:bbox":"5.089019,51.551086,5.089019,51.551086",
    "geom:latitude":51.551086,
    "geom:longitude":5.089019,
    "iso:country":"NL",
    "sg:address":"Piusstr 96",
    "sg:city":"Tilburg",
    "sg:classifiers":[],
    "sg:orig_category":"Fitnesscentra",
    "sg:owner":"simplegeo",
    "sg:phone":"+31 13 542 0006",
    "sg:postcode":"5021 JC",
    "sg:province":"North Brabant",
    "src:geom":"simplegeo",
    "wof:belongsto":[
        85797033,
        85633337,
        101751817,
        85687035
    ],
    "wof:breaches":[],
    "wof:concordances":{
        "sg:id":"SG_1HgPqc5Dz94xoXjh0PGmfI_51.551086_5.089019@1306269961"
    },
    "wof:country":"NL",
    "wof:geomhash":"4caba9c31931f4a7e1db7b21651d1619",
    "wof:hierarchy":[
        {
            "continent_id":-1,
            "country_id":85633337,
            "locality_id":101751817,
            "neighbourhood_id":85797033,
            "region_id":85687035,
            "venue_id":270080275
        }
    ],
    "wof:id":270080275,
    "wof:lastmodified":1449011066,
    "wof:name":"Women'S World",
    "wof:parent_id":85797033,
    "wof:placetype":"venue",
    "wof:superseded_by":[],
    "wof:supersedes":[],
    "wof:tags":[]
},
  "bbox": [5.089019,51.551086,5.089019,51.551086],
  "geometry": {"coordinates":[5.089019,51.551086],"type":"Point"}
}