{
  "id": 186429577,
  "type": "Feature",
  "properties": {
    "edtf:cessation":"u",
    "edtf:inception":"u",
    "geom:area":0.0,
    "geom:bbox":"5.918603,50.940414,5.918603,50.940414",
    "geom:latitude":50.940414,
    "geom:longitude":5.918603,
    "iso:country":"NL",
    "sg:address":"De Gyselaar 55",
    "sg:city":"Amstenrade",
    "sg:classifiers":[],
    "sg:orig_category":"Verenigingen En Stichtingen",
    "sg:owner":"simplegeo",
    "sg:phone":"+31 46 442 1956",
    "sg:postcode":"6436 AT",
    "sg:province":"Limburg",
    "src:geom":"simplegeo",
    "wof:belongsto":[
        85797993,
        85633337,
        101839191,
        85687033
    ],
    "wof:breaches":[],
    "wof:concordances":{
        "sg:id":"SG_4CMuB7kPrk0lW8OjUgLuNJ_50.940414_5.918603@1306269912"
    },
    "wof:country":"NL",
    "wof:geomhash":"444e57daee43014a1864f693827cf7a9",
    "wof:hierarchy":[
        {
            "continent_id":-1,
            "country_id":85633337,
            "locality_id":101839191,
            "neighbourhood_id":85797993,
            "region_id":85687033,
            "venue_id":186429577
        }
    ],
    "wof:id":186429577,
    "wof:lastmodified":1449052899,
    "wof:name":"Koeteleboet",
    "wof:parent_id":85797993,
    "wof:placetype":"venue",
    "wof:superseded_by":[],
    "wof:supersedes":[],
    "wof:tags":[]
},
  "bbox": [5.918603,50.940414,5.918603,50.940414],
  "geometry": {"coordinates":[5.918603,50.940414],"type":"Point"}
}