{
  "id": 236437061,
  "type": "Feature",
  "properties": {
    "edtf:cessation":"u",
    "edtf:inception":"u",
    "geom:area":0.0,
    "geom:bbox":"5.413807,51.959831,5.413807,51.959831",
    "geom:latitude":51.959831,
    "geom:longitude":5.413807,
    "iso:country":"NL",
    "sg:address":"Kapelstr 3",
    "sg:city":"Maurik",
    "sg:classifiers":[],
    "sg:orig_category":"Artsen - Huisartsen",
    "sg:owner":"simplegeo",
    "sg:phone":"+31 344 691 220",
    "sg:postcode":"4021 AA",
    "sg:province":"Gelderland",
    "src:geom":"simplegeo",
    "wof:belongsto":[
        85633337,
        101808637,
        85687043
    ],
    "wof:breaches":[],
    "wof:concordances":{
        "sg:id":"SG_21L6HRfYsn1BhxPDRxMUbC_51.959831_5.413807@1306269937"
    },
    "wof:country":"NL",
    "wof:geomhash":"532243b695723cd410dd3941cef3d7f7",
    "wof:hierarchy":[
        {
            "continent_id":-1,
            "country_id":85633337,
            "locality_id":101808637,
            "neighbourhood_id":-1,
            "region_id":85687043,
            "venue_id":236437061
        }
    ],
    "wof:id":236437061,
    "wof:lastmodified":1449004149,
    "wof:name":"Eck, T G M Van",
    "wof:parent_id":-1,
    "wof:placetype":"venue",
    "wof:superseded_by":[],
    "wof:supersedes":[],
    "wof:tags":[]
},
  "bbox": [5.413807,51.959831,5.413807,51.959831],
  "geometry": {"coordinates":[5.413807,51.959831],"type":"Point"}
}