{
  "id": 202517679,
  "type": "Feature",
  "properties": {
    "edtf:cessation":"u",
    "edtf:inception":"u",
    "geom:area":0.0,
    "geom:bbox":"5.716413,50.848728,5.716413,50.848728",
    "geom:latitude":50.848728,
    "geom:longitude":5.716413,
    "iso:country":"NL",
    "sg:address":"Scharnerweg 67",
    "sg:city":"Maastricht",
    "sg:classifiers":[
        {
            "category":"Communications",
            "subcategory":"Television Station",
            "type":"Services"
        }
    ],
    "sg:owner":"simplegeo",
    "sg:phone":"+31 43 363 3733",
    "sg:postcode":"6224 JB",
    "sg:province":"Limburg",
    "sg:tags":[
        "video",
        "audio",
        "verhuur"
    ],
    "src:geom":"simplegeo",
    "wof:belongsto":[
        85798687,
        85633337,
        101751803,
        85687033
    ],
    "wof:breaches":[],
    "wof:concordances":{
        "sg:id":"SG_3Ojxgs4AEQYy9VmqQVpMJT_50.848728_5.716413@1306269915"
    },
    "wof:country":"NL",
    "wof:geomhash":"8f80d54a4c26029321deaa4d65515315",
    "wof:hierarchy":[
        {
            "continent_id":-1,
            "country_id":85633337,
            "locality_id":101751803,
            "neighbourhood_id":85798687,
            "region_id":85687033,
            "venue_id":202517679
        }
    ],
    "wof:id":202517679,
    "wof:lastmodified":1449061548,
    "wof:name":"Euro Video",
    "wof:parent_id":85798687,
    "wof:placetype":"venue",
    "wof:superseded_by":[],
    "wof:supersedes":[],
    "wof:tags":[
        "video",
        "audio",
        "verhuur"
    ]
},
  "bbox": [5.716413,50.848728,5.716413,50.848728],
  "geometry": {"coordinates":[5.716413,50.848728],"type":"Point"}
}