{
  "id": 202443203,
  "type": "Feature",
  "properties": {
    "edtf:cessation":"u",
    "edtf:inception":"u",
    "geom:area":0.0,
    "geom:bbox":"4.647102,52.136555,4.647102,52.136555",
    "geom:latitude":52.136555,
    "geom:longitude":4.647102,
    "iso:country":"NL",
    "sg:address":"Nijverheidsweg 2",
    "sg:city":"Alphen A/D Rijn",
    "sg:classifiers":[],
    "sg:orig_category":"Verhuur Audiovisuele Apparatuur",
    "sg:owner":"simplegeo",
    "sg:phone":"+31 172 437 278",
    "sg:postcode":"2404 HD",
    "sg:province":"Zuid-Holland",
    "src:geom":"simplegeo",
    "wof:belongsto":[
        85633337,
        101751837,
        85687041
    ],
    "wof:breaches":[],
    "wof:concordances":{
        "sg:id":"SG_20LJ3nYOVuKxNpHyEYQ9fb_52.136555_4.647102@1306269915"
    },
    "wof:country":"NL",
    "wof:geomhash":"a9d3a5461286ee5d94c53a0391dfa15b",
    "wof:hierarchy":[
        {
            "continent_id":-1,
            "country_id":85633337,
            "locality_id":101751837,
            "neighbourhood_id":-1,
            "region_id":85687041,
            "venue_id":202443203
        }
    ],
    "wof:id":202443203,
    "wof:lastmodified":1449062197,
    "wof:name":"Vof Skyline Sound & Light",
    "wof:parent_id":-1,
    "wof:placetype":"venue",
    "wof:superseded_by":[],
    "wof:supersedes":[],
    "wof:tags":[]
},
  "bbox": [4.647102,52.136555,4.647102,52.136555],
  "geometry": {"coordinates":[4.647102,52.136555],"type":"Point"}
}