{
  "id": 303976045,
  "type": "Feature",
  "properties": {
    "edtf:cessation":"u",
    "edtf:inception":"u",
    "geom:area":0.0,
    "geom:bbox":"5.55328,52.214062,5.55328,52.214062",
    "geom:latitude":52.214062,
    "geom:longitude":5.55328,
    "iso:country":"NL",
    "sg:address":"Achterridderwg 1",
    "sg:city":"Putten",
    "sg:classifiers":[],
    "sg:orig_category":"Homeopathie",
    "sg:owner":"simplegeo",
    "sg:phone":"+31 341 492 728",
    "sg:postcode":"3882 LM",
    "sg:province":"Gelderland",
    "src:geom":"simplegeo",
    "wof:belongsto":[
        85633337,
        85687043
    ],
    "wof:breaches":[],
    "wof:concordances":{
        "sg:id":"SG_0735aSVYn4OmuJVr8bTCtC_52.214062_5.553280@1306269989"
    },
    "wof:country":"NL",
    "wof:geomhash":"60ef36b6edc81ecb0bc4f6a6c3ae2b5b",
    "wof:hierarchy":[
        {
            "continent_id":-1,
            "country_id":85633337,
            "locality_id":-1,
            "neighbourhood_id":-1,
            "region_id":85687043,
            "venue_id":303976045
        }
    ],
    "wof:id":303976045,
    "wof:lastmodified":1448999131,
    "wof:name":"Weeren, J H Van",
    "wof:parent_id":-1,
    "wof:placetype":"venue",
    "wof:superseded_by":[],
    "wof:supersedes":[],
    "wof:tags":[]
},
  "bbox": [5.55328,52.214062,5.55328,52.214062],
  "geometry": {"coordinates":[5.55328,52.214062],"type":"Point"}
}