{
  "id": 236086345,
  "type": "Feature",
  "properties": {
    "edtf:cessation":"u",
    "edtf:inception":"u",
    "geom:area":0.0,
    "geom:bbox":"5.602145,52.252956,5.602145,52.252956",
    "geom:latitude":52.252956,
    "geom:longitude":5.602145,
    "iso:country":"NL",
    "sg:address":"Groeneveltstraat 17",
    "sg:city":"Putten",
    "sg:classifiers":[],
    "sg:orig_category":"Technische Studies And Onderzoek",
    "sg:owner":"simplegeo",
    "sg:phone":"+31 341 354 310",
    "sg:postcode":"3882 XC",
    "sg:province":"Gelderland",
    "src:geom":"simplegeo",
    "wof:belongsto":[
        85633337,
        101837827,
        85687043
    ],
    "wof:breaches":[],
    "wof:concordances":{
        "sg:id":"SG_5g67Mki2DrUzRqZpE1FWmS_52.252956_5.602145@1306269934"
    },
    "wof:country":"NL",
    "wof:geomhash":"1846904005493f7792d86e07cd1e884e",
    "wof:hierarchy":[
        {
            "continent_id":-1,
            "country_id":85633337,
            "locality_id":101837827,
            "neighbourhood_id":-1,
            "region_id":85687043,
            "venue_id":236086345
        }
    ],
    "wof:id":236086345,
    "wof:lastmodified":1449003943,
    "wof:name":"Machiels Consultancy",
    "wof:parent_id":-1,
    "wof:placetype":"venue",
    "wof:superseded_by":[],
    "wof:supersedes":[],
    "wof:tags":[]
},
  "bbox": [5.602145,52.252956,5.602145,52.252956],
  "geometry": {"coordinates":[5.602145,52.252956],"type":"Point"}
}