{
  "id": 252762951,
  "type": "Feature",
  "properties": {
    "edtf:cessation":"u",
    "edtf:inception":"u",
    "geom:area":0.0,
    "geom:bbox":"6.317219,52.440556,6.317219,52.440556",
    "geom:latitude":52.440556,
    "geom:longitude":6.317219,
    "iso:country":"NL",
    "sg:address":"Dwarswg 10",
    "sg:city":"Lemelerveld",
    "sg:classifiers":[
        {
            "category":"Sports & Exercise",
            "subcategory":"Stables",
            "type":"Entertainment"
        }
    ],
    "sg:owner":"simplegeo",
    "sg:phone":"+31 572 371 494",
    "sg:postcode":"8152 DG",
    "sg:province":"Overijssel",
    "sg:tags":[
        "maneges"
    ],
    "src:geom":"simplegeo",
    "wof:belongsto":[
        85633337,
        85687045
    ],
    "wof:breaches":[],
    "wof:concordances":{
        "sg:id":"SG_4mpSInFvveQINmnz8vooJW_52.440556_6.317219@1306269943"
    },
    "wof:country":"NL",
    "wof:geomhash":"5d545581d5cc23ff0cc62ab0fa24f462",
    "wof:hierarchy":[
        {
            "continent_id":-1,
            "country_id":85633337,
            "locality_id":-1,
            "neighbourhood_id":-1,
            "region_id":85687045,
            "venue_id":252762951
        }
    ],
    "wof:id":252762951,
    "wof:lastmodified":1449006167,
    "wof:name":"Hogelinde, De",
    "wof:parent_id":-1,
    "wof:placetype":"venue",
    "wof:superseded_by":[],
    "wof:supersedes":[],
    "wof:tags":[
        "maneges"
    ]
},
  "bbox": [6.317219,52.440556,6.317219,52.440556],
  "geometry": {"coordinates":[6.317219,52.440556],"type":"Point"}
}