{
  "id": 219175339,
  "type": "Feature",
  "properties": {
    "edtf:cessation":"u",
    "edtf:inception":"u",
    "geom:area":0.0,
    "geom:bbox":"6.5828,52.233871,6.5828,52.233871",
    "geom:latitude":52.233871,
    "geom:longitude":6.5828,
    "iso:country":"NL",
    "sg:address":"Laarstr 33",
    "sg:city":"Goor",
    "sg:classifiers":[
        {
            "category":"Professional",
            "subcategory":"",
            "type":"Services"
        }
    ],
    "sg:owner":"simplegeo",
    "sg:phone":"+31 547 260 475",
    "sg:postcode":"7471 DA",
    "sg:province":"Overijssel",
    "sg:tags":[
        "leasing"
    ],
    "sg:website":"http://www.reallease.nl",
    "src:geom":"simplegeo",
    "wof:belongsto":[
        85633337,
        101807197,
        85687045
    ],
    "wof:breaches":[],
    "wof:concordances":{
        "sg:id":"SG_3XjspIGWzXtdToIPKyog6l_52.233871_6.582800@1306269924"
    },
    "wof:country":"NL",
    "wof:geomhash":"69710c2f0626e004648dc3f8f845f1f1",
    "wof:hierarchy":[
        {
            "continent_id":-1,
            "country_id":85633337,
            "locality_id":101807197,
            "neighbourhood_id":-1,
            "region_id":85687045,
            "venue_id":219175339
        }
    ],
    "wof:id":219175339,
    "wof:lastmodified":1449072835,
    "wof:name":"Reallease Bv",
    "wof:parent_id":-1,
    "wof:placetype":"venue",
    "wof:superseded_by":[],
    "wof:supersedes":[],
    "wof:tags":[
        "leasing"
    ]
},
  "bbox": [6.5828,52.233871,6.5828,52.233871],
  "geometry": {"coordinates":[6.5828,52.233871],"type":"Point"}
}