{
  "id": 320095165,
  "type": "Feature",
  "properties": {
    "edtf:cessation":"u",
    "edtf:inception":"u",
    "geom:area":0.0,
    "geom:bbox":"4.901882,52.553566,4.901882,52.553566",
    "geom:latitude":52.553566,
    "geom:longitude":4.901882,
    "iso:country":"NL",
    "sg:address":"Insulindewg 23",
    "sg:city":"Middenbeemster",
    "sg:classifiers":[
        {
            "category":"Retail",
            "subcategory":"Auto Repair",
            "type":"Services"
        }
    ],
    "sg:owner":"simplegeo",
    "sg:phone":"+31 299 683 215",
    "sg:postcode":"1462 MJ",
    "sg:province":"Noord-Holland",
    "sg:tags":[
        "garage"
    ],
    "src:geom":"simplegeo",
    "wof:belongsto":[
        85633337,
        101807365,
        85687053
    ],
    "wof:breaches":[],
    "wof:concordances":{
        "sg:id":"SG_33sIQ7Ou4n1W8h2FgWClce_52.553566_4.901882@1306269994"
    },
    "wof:country":"NL",
    "wof:geomhash":"d2b79af81ed0b2b7e7999fd5ae9db145",
    "wof:hierarchy":[
        {
            "continent_id":-1,
            "country_id":85633337,
            "locality_id":101807365,
            "neighbourhood_id":-1,
            "region_id":85687053,
            "venue_id":320095165
        }
    ],
    "wof:id":320095165,
    "wof:lastmodified":1449013159,
    "wof:name":"Noord, Van",
    "wof:parent_id":-1,
    "wof:placetype":"venue",
    "wof:superseded_by":[],
    "wof:supersedes":[],
    "wof:tags":[
        "garage"
    ]
},
  "bbox": [4.901882,52.553566,4.901882,52.553566],
  "geometry": {"coordinates":[4.901882,52.553566],"type":"Point"}
}