{
  "id": 320431769,
  "type": "Feature",
  "properties": {
    "edtf:cessation":"u",
    "edtf:inception":"u",
    "geom:area":0.0,
    "geom:bbox":"5.454371,52.973049,5.454371,52.973049",
    "geom:latitude":52.973049,
    "geom:longitude":5.454371,
    "iso:country":"NL",
    "sg:address":"Spoardyk 76",
    "sg:city":"Workum",
    "sg:classifiers":[],
    "sg:orig_category":"Goederenvervoer Over De Weg",
    "sg:owner":"simplegeo",
    "sg:phone":"+31 515 542 359",
    "sg:postcode":"8711 CK",
    "sg:province":"Provincie Friesland",
    "src:geom":"simplegeo",
    "wof:belongsto":[
        85633337,
        101807455,
        85687055
    ],
    "wof:breaches":[],
    "wof:concordances":{
        "sg:id":"SG_3Z8MrKlv8bUYRuXVf8y4vL_52.973049_5.454371@1306269998"
    },
    "wof:country":"NL",
    "wof:geomhash":"4ec1aad6549bb985aad1b403e181e60b",
    "wof:hierarchy":[
        {
            "continent_id":-1,
            "country_id":85633337,
            "locality_id":101807455,
            "neighbourhood_id":-1,
            "region_id":85687055,
            "venue_id":320431769
        }
    ],
    "wof:id":320431769,
    "wof:lastmodified":1449011756,
    "wof:name":"H. Kok",
    "wof:parent_id":-1,
    "wof:placetype":"venue",
    "wof:superseded_by":[],
    "wof:supersedes":[],
    "wof:tags":[]
},
  "bbox": [5.454371,52.973049,5.454371,52.973049],
  "geometry": {"coordinates":[5.454371,52.973049],"type":"Point"}
}