{
  "id": 185736351,
  "type": "Feature",
  "properties": {
    "edtf:cessation":"u",
    "edtf:inception":"u",
    "geom:area":0.0,
    "geom:bbox":"4.785121,52.495941,4.785121,52.495941",
    "geom:latitude":52.495941,
    "geom:longitude":4.785121,
    "iso:country":"NL",
    "sg:address":"Leliestr 3",
    "sg:city":"Wormerveer",
    "sg:classifiers":[],
    "sg:orig_category":"Keukens",
    "sg:owner":"simplegeo",
    "sg:phone":"+31 75 621 0977",
    "sg:postcode":"1521 WR",
    "sg:province":"North Holland",
    "src:geom":"simplegeo",
    "wof:belongsto":[
        85798723,
        85633337,
        85687053
    ],
    "wof:breaches":[],
    "wof:concordances":{
        "sg:id":"SG_7Q5IGSllIoIBJjKHMQxNSq_52.495941_4.785121@1306269907"
    },
    "wof:country":"NL",
    "wof:geomhash":"d61c62348caa52a01b52acb3557994d4",
    "wof:hierarchy":[
        {
            "continent_id":-1,
            "country_id":85633337,
            "locality_id":-1,
            "neighbourhood_id":85798723,
            "region_id":85687053,
            "venue_id":185736351
        }
    ],
    "wof:id":185736351,
    "wof:lastmodified":1449008171,
    "wof:name":"Clappers, Fred",
    "wof:parent_id":85798723,
    "wof:placetype":"venue",
    "wof:superseded_by":[],
    "wof:supersedes":[],
    "wof:tags":[]
},
  "bbox": [4.785121,52.495941,4.785121,52.495941],
  "geometry": {"coordinates":[4.785121,52.495941],"type":"Point"}
}