{
  "id": 319849383,
  "type": "Feature",
  "properties": {
    "edtf:cessation":"u",
    "edtf:inception":"u",
    "geom:area":0.0,
    "geom:bbox":"6.435793,51.948112,6.435793,51.948112",
    "geom:latitude":51.948112,
    "geom:longitude":6.435793,
    "iso:country":"NL",
    "sg:address":"Doetinchemseweg 119",
    "sg:city":"Westendorp",
    "sg:classifiers":[],
    "sg:orig_category":"Hout Gh",
    "sg:owner":"simplegeo",
    "sg:phone":"+31 315 298 206",
    "sg:postcode":"7054 BA",
    "sg:province":"Gelderland",
    "src:geom":"simplegeo",
    "wof:belongsto":[
        85633337,
        85687043
    ],
    "wof:breaches":[],
    "wof:concordances":{
        "sg:id":"SG_6rqx05nGU6XywlkuwTkCav_51.948112_6.435793@1306269991"
    },
    "wof:country":"NL",
    "wof:geomhash":"7958d5a42a017178c3fbfec80bc4ded9",
    "wof:hierarchy":[
        {
            "continent_id":-1,
            "country_id":85633337,
            "locality_id":-1,
            "neighbourhood_id":-1,
            "region_id":85687043,
            "venue_id":319849383
        }
    ],
    "wof:id":319849383,
    "wof:lastmodified":1449024238,
    "wof:name":"Rowe Handelsonderneming",
    "wof:parent_id":-1,
    "wof:placetype":"venue",
    "wof:superseded_by":[],
    "wof:supersedes":[],
    "wof:tags":[]
},
  "bbox": [6.435793,51.948112,6.435793,51.948112],
  "geometry": {"coordinates":[6.435793,51.948112],"type":"Point"}
}