{
  "id": 286655293,
  "type": "Feature",
  "properties": {
    "edtf:cessation":"u",
    "edtf:inception":"u",
    "geom:area":0.0,
    "geom:bbox":"6.457315,52.606258,6.457315,52.606258",
    "geom:latitude":52.606258,
    "geom:longitude":6.457315,
    "iso:country":"NL",
    "sg:address":"Langewyk 31",
    "sg:city":"Dedemsvaart",
    "sg:classifiers":[],
    "sg:orig_category":"Bestratingen",
    "sg:owner":"simplegeo",
    "sg:phone":"+31 523 611 257",
    "sg:postcode":"7701 AA",
    "sg:province":"NL.08",
    "src:geom":"simplegeo",
    "wof:belongsto":[
        85633337,
        85687045
    ],
    "wof:breaches":[],
    "wof:concordances":{
        "sg:id":"SG_2lvnUg9XZQMcdfWJSsEhxr_52.606258_6.457315@1306269971"
    },
    "wof:country":"NL",
    "wof:geomhash":"dd7c088d97562577baa360df952280da",
    "wof:hierarchy":[
        {
            "continent_id":-1,
            "country_id":85633337,
            "locality_id":-1,
            "neighbourhood_id":-1,
            "region_id":85687045,
            "venue_id":286655293
        }
    ],
    "wof:id":286655293,
    "wof:lastmodified":1449016874,
    "wof:name":"Mol",
    "wof:parent_id":-1,
    "wof:placetype":"venue",
    "wof:superseded_by":[],
    "wof:supersedes":[],
    "wof:tags":[]
},
  "bbox": [6.457315,52.606258,6.457315,52.606258],
  "geometry": {"coordinates":[6.457315,52.606258],"type":"Point"}
}