{
  "id": 320669111,
  "type": "Feature",
  "properties": {
    "edtf:cessation":"u",
    "edtf:inception":"u",
    "geom:area":0.0,
    "geom:bbox":"5.435611,51.913929,5.435611,51.913929",
    "geom:latitude":51.913929,
    "geom:longitude":5.435611,
    "iso:country":"NL",
    "sg:address":"Zuiderhavenwg 46",
    "sg:city":"Tiel",
    "sg:classifiers":[
        {
            "category":"Home & Garden",
            "subcategory":"Garden Supply",
            "type":"Retail Goods"
        }
    ],
    "sg:owner":"simplegeo",
    "sg:phone":"+31 344 618 323",
    "sg:postcode":"4004 JJ",
    "sg:province":"Gelderland",
    "sg:tags":[
        "zand",
        "en",
        "grind"
    ],
    "src:geom":"simplegeo",
    "wof:belongsto":[
        85797481,
        85633337,
        101809879,
        85687043
    ],
    "wof:breaches":[],
    "wof:concordances":{
        "sg:id":"SG_4nbWGxAcQieeDOV8GwItUl_51.913929_5.435611@1306270001"
    },
    "wof:country":"NL",
    "wof:geomhash":"28672e612a1e998228beed01ba0e1d30",
    "wof:hierarchy":[
        {
            "continent_id":-1,
            "country_id":85633337,
            "locality_id":101809879,
            "neighbourhood_id":85797481,
            "region_id":85687043,
            "venue_id":320669111
        }
    ],
    "wof:id":320669111,
    "wof:lastmodified":1449011675,
    "wof:name":"Tlc Tielse Loswal Combinatie Vof",
    "wof:parent_id":85797481,
    "wof:placetype":"venue",
    "wof:superseded_by":[],
    "wof:supersedes":[],
    "wof:tags":[
        "zand",
        "en",
        "grind"
    ]
},
  "bbox": [5.435611,51.913929,5.435611,51.913929],
  "geometry": {"coordinates":[5.435611,51.913929],"type":"Point"}
}