{
  "id": 236572021,
  "type": "Feature",
  "properties": {
    "edtf:cessation":"u",
    "edtf:inception":"u",
    "geom:area":0.0,
    "geom:bbox":"5.785135,53.254532,5.785135,53.254532",
    "geom:latitude":53.254532,
    "geom:longitude":5.785135,
    "iso:country":"NL",
    "sg:address":"Greate Buorren 10",
    "sg:city":"Britsum",
    "sg:classifiers":[],
    "sg:orig_category":"Autokeuringen",
    "sg:owner":"simplegeo",
    "sg:phone":"+31 58 257 1352",
    "sg:postcode":"9055 MT",
    "sg:province":"Provincie Friesland",
    "src:geom":"simplegeo",
    "wof:belongsto":[
        85633337,
        101806105,
        85687055
    ],
    "wof:breaches":[],
    "wof:concordances":{
        "sg:id":"SG_2dDmWleNZMi6ZAvJLpaSgd_53.254532_5.785135@1306269939"
    },
    "wof:country":"NL",
    "wof:geomhash":"d2467be3c3dfa5f3804287fbd0948cec",
    "wof:hierarchy":[
        {
            "continent_id":-1,
            "country_id":85633337,
            "locality_id":101806105,
            "neighbourhood_id":-1,
            "region_id":85687055,
            "venue_id":236572021
        }
    ],
    "wof:id":236572021,
    "wof:lastmodified":1449003714,
    "wof:name":"Garage Hoepel",
    "wof:parent_id":-1,
    "wof:placetype":"venue",
    "wof:superseded_by":[],
    "wof:supersedes":[],
    "wof:tags":[]
},
  "bbox": [5.785135,53.254532,5.785135,53.254532],
  "geometry": {"coordinates":[5.785135,53.254532],"type":"Point"}
}