{
  "id": 319940147,
  "type": "Feature",
  "properties": {
    "edtf:cessation":"u",
    "edtf:inception":"u",
    "geom:area":0.0,
    "geom:bbox":"5.972906,51.526505,5.972906,51.526505",
    "geom:latitude":51.526505,
    "geom:longitude":5.972906,
    "iso:country":"NL",
    "sg:address":"De Bleek 32",
    "sg:city":"Venray",
    "sg:classifiers":[],
    "sg:orig_category":"Huishoudapparatuur, Televisies And Radio'S",
    "sg:owner":"simplegeo",
    "sg:phone":"+31 478 588 120",
    "sg:postcode":"5801 MD",
    "sg:province":"Limburg",
    "src:geom":"simplegeo",
    "wof:belongsto":[
        85798561,
        85633337,
        101839289,
        85687033
    ],
    "wof:breaches":[],
    "wof:concordances":{
        "sg:id":"SG_0Kzi5XNaOR3Mp5W3HQKlhN_51.526505_5.972906@1306269992"
    },
    "wof:country":"NL",
    "wof:geomhash":"b9eb3463ba4599d3fb999fc5fd07168c",
    "wof:hierarchy":[
        {
            "continent_id":-1,
            "country_id":85633337,
            "locality_id":101839289,
            "neighbourhood_id":85798561,
            "region_id":85687033,
            "venue_id":319940147
        }
    ],
    "wof:id":319940147,
    "wof:lastmodified":1449024285,
    "wof:name":"Ma'S Service Voor Onderdelen/Onderdelenc",
    "wof:parent_id":85798561,
    "wof:placetype":"venue",
    "wof:superseded_by":[],
    "wof:supersedes":[],
    "wof:tags":[]
},
  "bbox": [5.972906,51.526505,5.972906,51.526505],
  "geometry": {"coordinates":[5.972906,51.526505],"type":"Point"}
}