{
  "id": 270517241,
  "type": "Feature",
  "properties": {
    "edtf:cessation":"u",
    "edtf:inception":"u",
    "geom:area":0.0,
    "geom:bbox":"6.262538,52.613628,6.262538,52.613628",
    "geom:latitude":52.613628,
    "geom:longitude":6.262538,
    "iso:country":"NL",
    "sg:address":"Mr. J.B.Kanlaan 32",
    "sg:city":"Punthorst",
    "sg:classifiers":[
        {
            "category":"Education",
            "subcategory":"Preschool",
            "type":"Public Place"
        }
    ],
    "sg:owner":"simplegeo",
    "sg:phone":"+31 529 481 264",
    "sg:postcode":"7715 PM",
    "sg:province":"NL.08",
    "sg:tags":[
        "kleuteronderwijs",
        "basis-"
    ],
    "src:geom":"simplegeo",
    "wof:belongsto":[
        85633337,
        101855405,
        85687045
    ],
    "wof:breaches":[],
    "wof:concordances":{
        "sg:id":"SG_1vBRfWcLcKBrzGjrPHXhXt_52.613628_6.262538@1306269966"
    },
    "wof:country":"NL",
    "wof:geomhash":"be3e4712a03a211c237dab4f0e5495c4",
    "wof:hierarchy":[
        {
            "continent_id":-1,
            "country_id":85633337,
            "locality_id":101855405,
            "neighbourhood_id":-1,
            "region_id":85687045,
            "venue_id":270517241
        }
    ],
    "wof:id":270517241,
    "wof:lastmodified":1449010058,
    "wof:name":"Dr. Maarten Luther School Met De Bijbel",
    "wof:parent_id":-1,
    "wof:placetype":"venue",
    "wof:superseded_by":[],
    "wof:supersedes":[],
    "wof:tags":[
        "kleuteronderwijs",
        "basis-"
    ]
},
  "bbox": [6.262538,52.613628,6.262538,52.613628],
  "geometry": {"coordinates":[6.262538,52.613628],"type":"Point"}
}