{
  "id": 319871285,
  "type": "Feature",
  "properties": {
    "edtf:cessation":"u",
    "edtf:inception":"u",
    "geom:area":0.0,
    "geom:bbox":"6.382883,53.158257,6.382883,53.158257",
    "geom:latitude":53.158257,
    "geom:longitude":6.382883,
    "iso:country":"NL",
    "sg:address":"De Helling 26",
    "sg:city":"Leek",
    "sg:classifiers":[],
    "sg:orig_category":"Houtgroothandel Rondhout",
    "sg:owner":"simplegeo",
    "sg:phone":"+31 594 641 840",
    "sg:postcode":"9351 DM",
    "sg:province":"Groningen",
    "src:geom":"simplegeo",
    "wof:belongsto":[
        85633337,
        101837999,
        85687059
    ],
    "wof:breaches":[],
    "wof:concordances":{
        "sg:id":"SG_3rTNFlzJbN6h7HJeK8ZTyt_53.158257_6.382883@1306269992"
    },
    "wof:country":"NL",
    "wof:geomhash":"7d89e1986a4976b03706ec38506ee682",
    "wof:hierarchy":[
        {
            "continent_id":-1,
            "country_id":85633337,
            "locality_id":101837999,
            "neighbourhood_id":-1,
            "region_id":85687059,
            "venue_id":319871285
        }
    ],
    "wof:id":319871285,
    "wof:lastmodified":1449024324,
    "wof:name":"Niesing",
    "wof:parent_id":-1,
    "wof:placetype":"venue",
    "wof:superseded_by":[],
    "wof:supersedes":[],
    "wof:tags":[]
},
  "bbox": [6.382883,53.158257,6.382883,53.158257],
  "geometry": {"coordinates":[6.382883,53.158257],"type":"Point"}
}