{
  "id": 319988123,
  "type": "Feature",
  "properties": {
    "edtf:cessation":"u",
    "edtf:inception":"u",
    "geom:area":0.0,
    "geom:bbox":"5.485677,51.866207,5.485677,51.866207",
    "geom:latitude":51.866207,
    "geom:longitude":5.485677,
    "iso:country":"NL",
    "sg:address":"Nieuweweg 11",
    "sg:city":"Wamel",
    "sg:classifiers":[],
    "sg:orig_category":"Huizensloop And Bouwrijp Maken",
    "sg:owner":"simplegeo",
    "sg:phone":"+31 487 501 160",
    "sg:postcode":"6659 KL",
    "sg:province":"Gelderland",
    "src:geom":"simplegeo",
    "wof:belongsto":[
        85633337,
        85687043
    ],
    "wof:breaches":[],
    "wof:concordances":{
        "sg:id":"SG_3JXf1bwuRFvvNfSBcsrHU2_51.866207_5.485677@1306269993"
    },
    "wof:country":"NL",
    "wof:geomhash":"9fad94f1589d0cc5583443da2cef6d8f",
    "wof:hierarchy":[
        {
            "continent_id":-1,
            "country_id":85633337,
            "locality_id":-1,
            "neighbourhood_id":-1,
            "region_id":85687043,
            "venue_id":319988123
        }
    ],
    "wof:id":319988123,
    "wof:lastmodified":1449024336,
    "wof:name":"Loonbedrijf Willie Melis",
    "wof:parent_id":-1,
    "wof:placetype":"venue",
    "wof:superseded_by":[],
    "wof:supersedes":[],
    "wof:tags":[]
},
  "bbox": [5.485677,51.866207,5.485677,51.866207],
  "geometry": {"coordinates":[5.485677,51.866207],"type":"Point"}
}