{
  "id": 219680039,
  "type": "Feature",
  "properties": {
    "edtf:cessation":"u",
    "edtf:inception":"u",
    "geom:area":0.0,
    "geom:bbox":"5.273384,52.177181,5.273384,52.177181",
    "geom:latitude":52.177181,
    "geom:longitude":5.273384,
    "iso:country":"NL",
    "sg:address":"Dorresteinwg 66A",
    "sg:city":"Soest",
    "sg:classifiers":[],
    "sg:orig_category":"Administratie- En Boekhoudkantoren",
    "sg:owner":"simplegeo",
    "sg:phone":"+31 35 601 4359",
    "sg:postcode":"3762 KK",
    "sg:province":"Utrecht",
    "src:geom":"simplegeo",
    "wof:belongsto":[
        85797031,
        85633337,
        85687039
    ],
    "wof:breaches":[],
    "wof:concordances":{
        "sg:id":"SG_5jrT3HkitieIOH3PRQVix2_52.177181_5.273384@1306269928"
    },
    "wof:country":"NL",
    "wof:geomhash":"029d158e2ba8dc8cb1ecbbab094498a0",
    "wof:hierarchy":[
        {
            "continent_id":-1,
            "country_id":85633337,
            "locality_id":-1,
            "neighbourhood_id":85797031,
            "region_id":85687039,
            "venue_id":219680039
        }
    ],
    "wof:id":219680039,
    "wof:lastmodified":1449072869,
    "wof:name":"Lookman Administratiekantoor, E H",
    "wof:parent_id":85797031,
    "wof:placetype":"venue",
    "wof:superseded_by":[],
    "wof:supersedes":[],
    "wof:tags":[]
},
  "bbox": [5.273384,52.177181,5.273384,52.177181],
  "geometry": {"coordinates":[5.273384,52.177181],"type":"Point"}
}