{
  "id": 320784671,
  "type": "Feature",
  "properties": {
    "edtf:cessation":"u",
    "edtf:inception":"u",
    "geom:area":0.0,
    "geom:bbox":"5.144526,52.302074,5.144526,52.302074",
    "geom:latitude":52.302074,
    "geom:longitude":5.144526,
    "iso:country":"NL",
    "sg:address":"Nesciohof 62",
    "sg:city":"Naarden",
    "sg:classifiers":[],
    "sg:orig_category":"Jachthavens - Jachtwerven",
    "sg:owner":"simplegeo",
    "sg:phone":"+31 35 693 5307",
    "sg:postcode":"1411 WX",
    "sg:province":"Noord-Holland",
    "src:geom":"simplegeo",
    "wof:belongsto":[
        85797683,
        85633337,
        85687053
    ],
    "wof:breaches":[],
    "wof:concordances":{
        "sg:id":"SG_6vfICStjITn6jxbqISZbJD_52.302074_5.144526@1306270002"
    },
    "wof:country":"NL",
    "wof:geomhash":"3b70ebc85e7fae62b1ff0e78ade4a9bf",
    "wof:hierarchy":[
        {
            "continent_id":-1,
            "country_id":85633337,
            "locality_id":-1,
            "neighbourhood_id":85797683,
            "region_id":85687053,
            "venue_id":320784671
        }
    ],
    "wof:id":320784671,
    "wof:lastmodified":1449013763,
    "wof:name":"Aqua Technics",
    "wof:parent_id":85797683,
    "wof:placetype":"venue",
    "wof:superseded_by":[],
    "wof:supersedes":[],
    "wof:tags":[]
},
  "bbox": [5.144526,52.302074,5.144526,52.302074],
  "geometry": {"coordinates":[5.144526,52.302074],"type":"Point"}
}