{
  "id": 253264223,
  "type": "Feature",
  "properties": {
    "edtf:cessation":"u",
    "edtf:inception":"u",
    "geom:area":0.0,
    "geom:bbox":"4.859674,52.364826,4.859674,52.364826",
    "geom:latitude":52.364826,
    "geom:longitude":4.859674,
    "iso:country":"NL",
    "sg:address":"Postjesweg 2",
    "sg:city":"Amsterdam",
    "sg:classifiers":[],
    "sg:orig_category":"Meubelzaken, Woning- And Keukeninrichting",
    "sg:owner":"simplegeo",
    "sg:phone":"+31 20 612 6853",
    "sg:postcode":"1057 EA",
    "sg:province":"North Holland",
    "src:geom":"simplegeo",
    "wof:belongsto":[
        85798223,
        85633337,
        101751893,
        85687053
    ],
    "wof:breaches":[],
    "wof:concordances":{
        "sg:id":"SG_3fl9j1wgrMFWSEWezxmEit_52.364826_4.859674@1306269947"
    },
    "wof:country":"NL",
    "wof:geomhash":"ef58a8b5e382420056bf9f195ac24da6",
    "wof:hierarchy":[
        {
            "continent_id":-1,
            "country_id":85633337,
            "locality_id":101751893,
            "neighbourhood_id":85798223,
            "region_id":85687053,
            "venue_id":253264223
        }
    ],
    "wof:id":253264223,
    "wof:lastmodified":1449064753,
    "wof:name":"Conrad Meubelen",
    "wof:parent_id":85798223,
    "wof:placetype":"venue",
    "wof:superseded_by":[],
    "wof:supersedes":[],
    "wof:tags":[]
},
  "bbox": [4.859674,52.364826,4.859674,52.364826],
  "geometry": {"coordinates":[4.859674,52.364826],"type":"Point"}
}