{
  "id": 186442593,
  "type": "Feature",
  "properties": {
    "edtf:cessation":"u",
    "edtf:inception":"u",
    "geom:area":0.0,
    "geom:bbox":"6.161457,51.362366,6.161457,51.362366",
    "geom:latitude":51.362366,
    "geom:longitude":6.161457,
    "iso:country":"NL",
    "sg:address":"Tegelsewg 65",
    "sg:city":"Venlo",
    "sg:classifiers":[],
    "sg:orig_category":"Verenigingen En Stichtingen",
    "sg:owner":"simplegeo",
    "sg:phone":"+31 77 351 3066",
    "sg:postcode":"5912 BB",
    "sg:province":"Limburg",
    "src:geom":"simplegeo",
    "wof:belongsto":[
        85797131,
        85633337,
        101839287,
        85687033
    ],
    "wof:breaches":[],
    "wof:concordances":{
        "sg:id":"SG_2T4byhBiQGdiUKUX4Q5L36_51.362366_6.161457@1306269912"
    },
    "wof:country":"NL",
    "wof:geomhash":"d396459ecb61fb2fd6687c8331ba1929",
    "wof:hierarchy":[
        {
            "continent_id":-1,
            "country_id":85633337,
            "locality_id":101839287,
            "neighbourhood_id":85797131,
            "region_id":85687033,
            "venue_id":186442593
        }
    ],
    "wof:id":186442593,
    "wof:lastmodified":1449051549,
    "wof:name":"Marokkaans Moskee, Ver",
    "wof:parent_id":85797131,
    "wof:placetype":"venue",
    "wof:superseded_by":[],
    "wof:supersedes":[],
    "wof:tags":[]
},
  "bbox": [6.161457,51.362366,6.161457,51.362366],
  "geometry": {"coordinates":[6.161457,51.362366],"type":"Point"}
}