{
  "id": 169718021,
  "type": "Feature",
  "properties": {
    "edtf:cessation":"u",
    "edtf:inception":"u",
    "geom:area":0.0,
    "geom:bbox":"5.931744,52.206512,5.931744,52.206512",
    "geom:latitude":52.206512,
    "geom:longitude":5.931744,
    "iso:country":"NL",
    "sg:address":"Bructerenln 3",
    "sg:city":"Apeldoorn",
    "sg:classifiers":[],
    "sg:orig_category":"Kappers",
    "sg:owner":"simplegeo",
    "sg:phone":"+31 55 355 3430",
    "sg:postcode":"7312 HL",
    "sg:province":"Gelderland",
    "src:geom":"simplegeo",
    "wof:belongsto":[
        85797465,
        85633337,
        101751853,
        85687043
    ],
    "wof:breaches":[],
    "wof:concordances":{
        "sg:id":"SG_2oSQmPgymjRwQMId2qJBap_52.206512_5.931744@1306269905"
    },
    "wof:country":"NL",
    "wof:geomhash":"f5a3035540a0e5ef872e031ad7ade68e",
    "wof:hierarchy":[
        {
            "continent_id":-1,
            "country_id":85633337,
            "locality_id":101751853,
            "neighbourhood_id":85797465,
            "region_id":85687043,
            "venue_id":169718021
        }
    ],
    "wof:id":169718021,
    "wof:lastmodified":1449033397,
    "wof:name":"Kwant, B J",
    "wof:parent_id":85797465,
    "wof:placetype":"venue",
    "wof:superseded_by":[],
    "wof:supersedes":[],
    "wof:tags":[]
},
  "bbox": [5.931744,52.206512,5.931744,52.206512],
  "geometry": {"coordinates":[5.931744,52.206512],"type":"Point"}
}