{
  "id": 203376335,
  "type": "Feature",
  "properties": {
    "edtf:cessation":"u",
    "edtf:inception":"u",
    "geom:area":0.0,
    "geom:bbox":"-75.923759,38.823399,-75.923759,38.823399",
    "geom:latitude":38.823399,
    "geom:longitude":-75.923759,
    "iso:country":"NL",
    "sg:address":"Wernhoutsewg 146",
    "sg:city":"Wernhout",
    "sg:classifiers":[],
    "sg:orig_category":"Land- En Tuinbouw - Loonbedrijven",
    "sg:owner":"simplegeo",
    "sg:phone":"+31 76 597 3128",
    "sg:postcode":"4884 MD",
    "sg:province":"Maryland",
    "src:geom":"simplegeo",
    "wof:belongsto":[
        85688501,
        85633793,
        85949443,
        102082179,
        85812685
    ],
    "wof:breaches":[],
    "wof:concordances":{
        "sg:id":"SG_0e9OsHoxbU6BESbDA8XUPc_38.823399_-75.923759@1306269923"
    },
    "wof:country":"NL",
    "wof:geomhash":"4e46249b71849b23c9da1f6e5fafcf84",
    "wof:hierarchy":[
        {
            "continent_id":-1,
            "country_id":85633793,
            "county_id":102082179,
            "locality_id":85949443,
            "neighbourhood_id":85812685,
            "region_id":85688501,
            "venue_id":203376335
        }
    ],
    "wof:id":203376335,
    "wof:lastmodified":1449025565,
    "wof:name":"John De Jong",
    "wof:parent_id":85812685,
    "wof:placetype":"venue",
    "wof:superseded_by":[],
    "wof:supersedes":[],
    "wof:tags":[]
},
  "bbox": [-75.923759,38.823399,-75.923759,38.823399],
  "geometry": {"coordinates":[-75.923759,38.823399],"type":"Point"}
}