{
  "id": 336731865,
  "type": "Feature",
  "properties": {
    "edtf:cessation":"u",
    "edtf:inception":"u",
    "geom:area":0.0,
    "geom:bbox":"5.125117,52.098328,5.125117,52.098328",
    "geom:latitude":52.098328,
    "geom:longitude":5.125117,
    "iso:country":"NL",
    "sg:address":"Hooghiemstraplein 105",
    "sg:city":"Utrecht",
    "sg:classifiers":[
        {
            "category":"Professional",
            "subcategory":"Accounting & Tax Preparation",
            "type":"Services"
        }
    ],
    "sg:owner":"simplegeo",
    "sg:phone":"+31 30 273 6030",
    "sg:postcode":"3514 AX",
    "sg:province":"Utrecht",
    "sg:tags":[
        "accountant"
    ],
    "src:geom":"simplegeo",
    "wof:belongsto":[
        85798515,
        85633337,
        101751827,
        85687039
    ],
    "wof:breaches":[],
    "wof:concordances":{
        "sg:id":"SG_21yfkVYR3J54OziyymmHpA_52.098328_5.125117@1306270005"
    },
    "wof:country":"NL",
    "wof:geomhash":"f83b56db99d5c94f86b51e8c0b80a5be",
    "wof:hierarchy":[
        {
            "continent_id":-1,
            "country_id":85633337,
            "locality_id":101751827,
            "neighbourhood_id":85798515,
            "region_id":85687039,
            "venue_id":336731865
        }
    ],
    "wof:id":336731865,
    "wof:lastmodified":1448997899,
    "wof:name":"C3G Training & Coaching",
    "wof:parent_id":85798515,
    "wof:placetype":"venue",
    "wof:superseded_by":[],
    "wof:supersedes":[],
    "wof:tags":[
        "accountant"
    ]
},
  "bbox": [5.125117,52.098328,5.125117,52.098328],
  "geometry": {"coordinates":[5.125117,52.098328],"type":"Point"}
}