{
  "id": 303340799,
  "type": "Feature",
  "properties": {
    "edtf:cessation":"u",
    "edtf:inception":"u",
    "geom:area":0.0,
    "geom:bbox":"5.029275,52.136246,5.029275,52.136246",
    "geom:latitude":52.136246,
    "geom:longitude":5.029275,
    "iso:country":"NL",
    "sg:address":"Bisonspoor 1024",
    "sg:city":"Maarssen",
    "sg:classifiers":[],
    "sg:orig_category":"Schoenen",
    "sg:owner":"simplegeo",
    "sg:phone":"+31 346 555 847",
    "sg:postcode":"3605 KC",
    "sg:province":"Noord-Holland",
    "src:geom":"simplegeo",
    "wof:belongsto":[
        85797965,
        85633337,
        85687039
    ],
    "wof:breaches":[],
    "wof:concordances":{
        "sg:id":"SG_2yjy1Fk9nHBHl6Cx0Gk0Dq_52.136246_5.029275@1306269982"
    },
    "wof:country":"NL",
    "wof:geomhash":"64477752b48bee6b8de46128bde34241",
    "wof:hierarchy":[
        {
            "continent_id":-1,
            "country_id":85633337,
            "locality_id":-1,
            "neighbourhood_id":85797965,
            "region_id":85687039,
            "venue_id":303340799
        }
    ],
    "wof:id":303340799,
    "wof:lastmodified":1449000007,
    "wof:name":"Haren Bv, Van",
    "wof:parent_id":85797965,
    "wof:placetype":"venue",
    "wof:superseded_by":[],
    "wof:supersedes":[],
    "wof:tags":[]
},
  "bbox": [5.029275,52.136246,5.029275,52.136246],
  "geometry": {"coordinates":[5.029275,52.136246],"type":"Point"}
}