{
  "id": 286766759,
  "type": "Feature",
  "properties": {
    "edtf:cessation":"u",
    "edtf:inception":"u",
    "geom:area":0.0,
    "geom:bbox":"4.140652,51.826584,4.140652,51.826584",
    "geom:latitude":51.826584,
    "geom:longitude":4.140652,
    "iso:country":"NL",
    "sg:address":"De Zicht 2",
    "sg:city":"Hellevoetsluis",
    "sg:classifiers":[],
    "sg:orig_category":"Binnenhuisarchitecten",
    "sg:owner":"simplegeo",
    "sg:phone":"+31 181 321 795",
    "sg:postcode":"3224 BB",
    "sg:province":"South Holland",
    "src:geom":"simplegeo",
    "wof:belongsto":[
        85633337,
        101808501,
        85687041
    ],
    "wof:breaches":[],
    "wof:concordances":{
        "sg:id":"SG_2wIvlBaGVk6P2d3fCeSRKe_51.826584_4.140652@1306269973"
    },
    "wof:country":"NL",
    "wof:geomhash":"4219c01dfddfdc25d5f4c739a7237a81",
    "wof:hierarchy":[
        {
            "continent_id":-1,
            "country_id":85633337,
            "locality_id":101808501,
            "neighbourhood_id":-1,
            "region_id":85687041,
            "venue_id":286766759
        }
    ],
    "wof:id":286766759,
    "wof:lastmodified":1449015125,
    "wof:name":"B.G.M. Vreeburg",
    "wof:parent_id":-1,
    "wof:placetype":"venue",
    "wof:superseded_by":[],
    "wof:supersedes":[],
    "wof:tags":[]
},
  "bbox": [4.140652,51.826584,4.140652,51.826584],
  "geometry": {"coordinates":[4.140652,51.826584],"type":"Point"}
}