{
  "id": 303774439,
  "type": "Feature",
  "properties": {
    "edtf:cessation":"u",
    "edtf:inception":"u",
    "geom:area":0.0,
    "geom:bbox":"5.672656,50.83519,5.672656,50.83519",
    "geom:latitude":50.83519,
    "geom:longitude":5.672656,
    "iso:country":"NL",
    "sg:address":"Jekermolenwg 90",
    "sg:city":"Maastricht",
    "sg:classifiers":[],
    "sg:orig_category":"Drukkerijen",
    "sg:owner":"simplegeo",
    "sg:phone":"+31 43 325 0551",
    "sg:postcode":"6213 NA",
    "sg:province":"Limburg",
    "src:geom":"simplegeo",
    "wof:belongsto":[
        85797109,
        85633337,
        85687033
    ],
    "wof:breaches":[],
    "wof:concordances":{
        "sg:id":"SG_7MehlB0dCdHi64FcEdfuCd_50.835190_5.672656@1306269987"
    },
    "wof:country":"NL",
    "wof:geomhash":"5e930faf05b43fe91126a1ef3f13f3e6",
    "wof:hierarchy":[
        {
            "continent_id":-1,
            "country_id":85633337,
            "locality_id":-1,
            "neighbourhood_id":85797109,
            "region_id":85687033,
            "venue_id":303774439
        }
    ],
    "wof:id":303774439,
    "wof:lastmodified":1448999067,
    "wof:name":"Meusen, Drukkerij",
    "wof:parent_id":85797109,
    "wof:placetype":"venue",
    "wof:superseded_by":[],
    "wof:supersedes":[],
    "wof:tags":[]
},
  "bbox": [5.672656,50.83519,5.672656,50.83519],
  "geometry": {"coordinates":[5.672656,50.83519],"type":"Point"}
}