{
  "id": 202997101,
  "type": "Feature",
  "properties": {
    "edtf:cessation":"u",
    "edtf:inception":"u",
    "geom:area":0.0,
    "geom:bbox":"5.067795,51.544266,5.067795,51.544266",
    "geom:latitude":51.544266,
    "geom:longitude":5.067795,
    "iso:country":"NL",
    "sg:address":"Ringbaan Z 305",
    "sg:city":"Tilburg",
    "sg:classifiers":[],
    "sg:orig_category":"Verzekeringen - Verzekeringskantoren",
    "sg:owner":"simplegeo",
    "sg:phone":"+31 13 535 8196",
    "sg:postcode":"5025 SZ",
    "sg:province":"Noord-Brabant",
    "src:geom":"simplegeo",
    "wof:belongsto":[
        85797843,
        85633337,
        101751817,
        85687035
    ],
    "wof:breaches":[],
    "wof:concordances":{
        "sg:id":"SG_3FhitH9LFsw6OY5z0kedjj_51.544266_5.067795@1306269920"
    },
    "wof:country":"NL",
    "wof:geomhash":"b2ec43d8ac4bad9bb561813173d29a90",
    "wof:hierarchy":[
        {
            "continent_id":-1,
            "country_id":85633337,
            "locality_id":101751817,
            "neighbourhood_id":85797843,
            "region_id":85687035,
            "venue_id":202997101
        }
    ],
    "wof:id":202997101,
    "wof:lastmodified":1449062218,
    "wof:name":"Ooms & Partn",
    "wof:parent_id":85797843,
    "wof:placetype":"venue",
    "wof:superseded_by":[],
    "wof:supersedes":[],
    "wof:tags":[]
},
  "bbox": [5.067795,51.544266,5.067795,51.544266],
  "geometry": {"coordinates":[5.067795,51.544266],"type":"Point"}
}