{
  "id": 252997401,
  "type": "Feature",
  "properties": {
    "edtf:cessation":"u",
    "edtf:inception":"u",
    "geom:area":0.0,
    "geom:bbox":"5.500854,52.51284,5.500854,52.51284",
    "geom:latitude":52.51284,
    "geom:longitude":5.500854,
    "iso:country":"NL",
    "sg:address":"Plantage 140",
    "sg:city":"Lelystad",
    "sg:classifiers":[],
    "sg:orig_category":"Metaalbewerking",
    "sg:owner":"simplegeo",
    "sg:phone":"+31 6 14677017",
    "sg:postcode":"8212 VJ",
    "sg:province":"NL.",
    "src:geom":"simplegeo",
    "wof:belongsto":[
        85633337,
        101751873,
        85687049
    ],
    "wof:breaches":[],
    "wof:concordances":{
        "sg:id":"SG_3REeoRHgLY9608wQBjIoLi_52.512840_5.500854@1306269945"
    },
    "wof:country":"NL",
    "wof:geomhash":"78e899ff586867c83dcdcc327ec100bc",
    "wof:hierarchy":[
        {
            "continent_id":-1,
            "country_id":85633337,
            "locality_id":101751873,
            "neighbourhood_id":-1,
            "region_id":85687049,
            "venue_id":252997401
        }
    ],
    "wof:id":252997401,
    "wof:lastmodified":1449006325,
    "wof:name":"Revano",
    "wof:parent_id":-1,
    "wof:placetype":"venue",
    "wof:superseded_by":[],
    "wof:supersedes":[],
    "wof:tags":[]
},
  "bbox": [5.500854,52.51284,5.500854,52.51284],
  "geometry": {"coordinates":[5.500854,52.51284],"type":"Point"}
}