{
  "id": 202454295,
  "type": "Feature",
  "properties": {
    "edtf:cessation":"u",
    "edtf:inception":"u",
    "geom:area":0.0,
    "geom:bbox":"6.566702,52.511696,6.566702,52.511696",
    "geom:latitude":52.511696,
    "geom:longitude":6.566702,
    "iso:country":"NL",
    "sg:address":"Beerzerweg 1",
    "sg:city":"Marienberg",
    "sg:classifiers":[],
    "sg:orig_category":"Verhuur Bouwmachines",
    "sg:owner":"simplegeo",
    "sg:phone":"+31 523 258 200",
    "sg:postcode":"7692 PB",
    "sg:province":"NL.08",
    "src:geom":"simplegeo",
    "wof:belongsto":[
        85633337,
        85687045
    ],
    "wof:breaches":[],
    "wof:concordances":{
        "sg:id":"SG_5HOJRvv4BS27x1rtCQTYHm_52.511696_6.566702@1306269915"
    },
    "wof:country":"NL",
    "wof:geomhash":"1cb88005424b2ba901c025be7584f040",
    "wof:hierarchy":[
        {
            "continent_id":-1,
            "country_id":85633337,
            "locality_id":-1,
            "neighbourhood_id":-1,
            "region_id":85687045,
            "venue_id":202454295
        }
    ],
    "wof:id":202454295,
    "wof:lastmodified":1449062410,
    "wof:name":"Europese Machine Verhuur (E.M.V.) Bv",
    "wof:parent_id":-1,
    "wof:placetype":"venue",
    "wof:superseded_by":[],
    "wof:supersedes":[],
    "wof:tags":[]
},
  "bbox": [6.566702,52.511696,6.566702,52.511696],
  "geometry": {"coordinates":[6.566702,52.511696],"type":"Point"}
}