{
  "id": 269960991,
  "type": "Feature",
  "properties": {
    "edtf:cessation":"u",
    "edtf:inception":"u",
    "geom:area":0.0,
    "geom:bbox":"5.671303,50.856991,5.671303,50.856991",
    "geom:latitude":50.856991,
    "geom:longitude":5.671303,
    "iso:country":"NL",
    "sg:address":"Brusselseweg 241",
    "sg:city":"Maastricht",
    "sg:classifiers":[],
    "sg:orig_category":"Film-, Tv- And Videoproductie",
    "sg:owner":"simplegeo",
    "sg:phone":"+31 43 347 4489",
    "sg:postcode":"6217 GV",
    "sg:province":"Limburg",
    "src:geom":"simplegeo",
    "wof:belongsto":[
        85798317,
        85633337,
        101751803,
        85687033
    ],
    "wof:breaches":[],
    "wof:concordances":{
        "sg:id":"SG_04ID8DCV7a9VYpXYTUu9Oa_50.856991_5.671303@1306269960"
    },
    "wof:country":"NL",
    "wof:geomhash":"ca225dbd64512b87f5ff45e0ef59d48c",
    "wof:hierarchy":[
        {
            "continent_id":-1,
            "country_id":85633337,
            "locality_id":101751803,
            "neighbourhood_id":85798317,
            "region_id":85687033,
            "venue_id":269960991
        }
    ],
    "wof:id":269960991,
    "wof:lastmodified":1449037912,
    "wof:name":"241 Productions",
    "wof:parent_id":85798317,
    "wof:placetype":"venue",
    "wof:superseded_by":[],
    "wof:supersedes":[],
    "wof:tags":[]
},
  "bbox": [5.671303,50.856991,5.671303,50.856991],
  "geometry": {"coordinates":[5.671303,50.856991],"type":"Point"}
}