{
  "id": 303141203,
  "type": "Feature",
  "properties": {
    "edtf:cessation":"u",
    "edtf:inception":"u",
    "geom:area":0.0,
    "geom:bbox":"5.074292,52.501507,5.074292,52.501507",
    "geom:latitude":52.501507,
    "geom:longitude":5.074292,
    "iso:country":"NL",
    "sg:address":"Hyacintenstr 22",
    "sg:city":"Volendam",
    "sg:classifiers":[
        {
            "category":"Food & Beverages",
            "subcategory":"Bakery",
            "type":"Retail Goods"
        }
    ],
    "sg:owner":"simplegeo",
    "sg:phone":"+31 299 363 981",
    "sg:postcode":"1131 HW",
    "sg:province":"Noord-Holland",
    "sg:tags":[
        "brood",
        "en",
        "banket"
    ],
    "src:geom":"simplegeo",
    "wof:belongsto":[
        85798047,
        85633337,
        85687053
    ],
    "wof:breaches":[],
    "wof:concordances":{
        "sg:id":"SG_6nSLHGpuz2GnJAHeIv95tA_52.501507_5.074292@1306269980"
    },
    "wof:country":"NL",
    "wof:geomhash":"31b6f5c5edb652e8ce842f0b8d249cb3",
    "wof:hierarchy":[
        {
            "continent_id":-1,
            "country_id":85633337,
            "locality_id":-1,
            "neighbourhood_id":85798047,
            "region_id":85687053,
            "venue_id":303141203
        }
    ],
    "wof:id":303141203,
    "wof:lastmodified":1448998974,
    "wof:name":"Konings",
    "wof:parent_id":85798047,
    "wof:placetype":"venue",
    "wof:superseded_by":[],
    "wof:supersedes":[],
    "wof:tags":[
        "brood",
        "en",
        "banket"
    ]
},
  "bbox": [5.074292,52.501507,5.074292,52.501507],
  "geometry": {"coordinates":[5.074292,52.501507],"type":"Point"}
}