{
  "id": 253555681,
  "type": "Feature",
  "properties": {
    "edtf:cessation":"u",
    "edtf:inception":"u",
    "geom:area":0.0,
    "geom:bbox":"5.733152,52.720364,5.733152,52.720364",
    "geom:latitude":52.720364,
    "geom:longitude":5.733152,
    "iso:country":"NL",
    "sg:address":"Streek 18",
    "sg:city":"Emmeloord",
    "sg:classifiers":[
        {
            "category":"Personal",
            "subcategory":"Nail Salon",
            "type":"Services"
        }
    ],
    "sg:owner":"simplegeo",
    "sg:phone":"+31 527 262 204",
    "sg:postcode":"8302 MD",
    "sg:province":"NL.",
    "sg:tags":[
        "pedicure"
    ],
    "src:geom":"simplegeo",
    "wof:belongsto":[
        85633337,
        101807245,
        85687049
    ],
    "wof:breaches":[],
    "wof:concordances":{
        "sg:id":"SG_3ZKpRzgFF8sziVeUbeqpPz_52.720364_5.733152@1306269951"
    },
    "wof:country":"NL",
    "wof:geomhash":"1094ded194a6eeb31248c64a91a9f987",
    "wof:hierarchy":[
        {
            "continent_id":-1,
            "country_id":85633337,
            "locality_id":101807245,
            "neighbourhood_id":-1,
            "region_id":85687049,
            "venue_id":253555681
        }
    ],
    "wof:id":253555681,
    "wof:lastmodified":1449065354,
    "wof:name":"Jousma, Jelly",
    "wof:parent_id":-1,
    "wof:placetype":"venue",
    "wof:superseded_by":[],
    "wof:supersedes":[],
    "wof:tags":[
        "pedicure"
    ]
},
  "bbox": [5.733152,52.720364,5.733152,52.720364],
  "geometry": {"coordinates":[5.733152,52.720364],"type":"Point"}
}