{
  "id": 303047103,
  "type": "Feature",
  "properties": {
    "edtf:cessation":"u",
    "edtf:inception":"u",
    "geom:area":0.0,
    "geom:bbox":"5.717082,51.814117,5.717082,51.814117",
    "geom:latitude":51.814117,
    "geom:longitude":5.717082,
    "iso:country":"NL",
    "sg:address":"Heilige Stoel 3920",
    "sg:city":"Wijchen",
    "sg:classifiers":[],
    "sg:orig_category":"Boekhouders",
    "sg:owner":"simplegeo",
    "sg:phone":"+31 24 641 3568",
    "sg:postcode":"6601 WL",
    "sg:province":"Gelderland",
    "src:geom":"simplegeo",
    "wof:belongsto":[
        85797047,
        85633337,
        101754761,
        85687043
    ],
    "wof:breaches":[],
    "wof:concordances":{
        "sg:id":"SG_0uqZFJIGGK5taAXC8RqAQz_51.814117_5.717082@1306269979"
    },
    "wof:country":"NL",
    "wof:geomhash":"4b258e636e1b37655cb65f218277d7e7",
    "wof:hierarchy":[
        {
            "continent_id":-1,
            "country_id":85633337,
            "locality_id":101754761,
            "neighbourhood_id":85797047,
            "region_id":85687043,
            "venue_id":303047103
        }
    ],
    "wof:id":303047103,
    "wof:lastmodified":1448999696,
    "wof:name":"J. Van Den Bos Administratiekantoor",
    "wof:parent_id":85797047,
    "wof:placetype":"venue",
    "wof:superseded_by":[],
    "wof:supersedes":[],
    "wof:tags":[]
},
  "bbox": [5.717082,51.814117,5.717082,51.814117],
  "geometry": {"coordinates":[5.717082,51.814117],"type":"Point"}
}