{
  "id": 320088169,
  "type": "Feature",
  "properties": {
    "edtf:cessation":"u",
    "edtf:inception":"u",
    "geom:area":0.0,
    "geom:bbox":"5.574277,51.931946,5.574277,51.931946",
    "geom:latitude":51.931946,
    "geom:longitude":5.574277,
    "iso:country":"NL",
    "sg:address":"Batteryenwg 5",
    "sg:city":"Kesteren",
    "sg:classifiers":[
        {
            "category":"Retail",
            "subcategory":"Auto Repair",
            "type":"Services"
        }
    ],
    "sg:owner":"simplegeo",
    "sg:phone":"+31 488 482 828",
    "sg:postcode":"4041 DA",
    "sg:province":"Gelderland",
    "sg:tags":[
        "garage"
    ],
    "src:geom":"simplegeo",
    "wof:belongsto":[
        85633337,
        101808713,
        85687043
    ],
    "wof:breaches":[],
    "wof:concordances":{
        "sg:id":"SG_1BwEpKShfSHbNtZcGx5ToW_51.931946_5.574277@1306269994"
    },
    "wof:country":"NL",
    "wof:geomhash":"74799b56285ce2c868f8de237f094656",
    "wof:hierarchy":[
        {
            "continent_id":-1,
            "country_id":85633337,
            "locality_id":101808713,
            "neighbourhood_id":-1,
            "region_id":85687043,
            "venue_id":320088169
        }
    ],
    "wof:id":320088169,
    "wof:lastmodified":1449014140,
    "wof:name":"Leeuwen, Van",
    "wof:parent_id":-1,
    "wof:placetype":"venue",
    "wof:superseded_by":[],
    "wof:supersedes":[],
    "wof:tags":[
        "garage"
    ]
},
  "bbox": [5.574277,51.931946,5.574277,51.931946],
  "geometry": {"coordinates":[5.574277,51.931946],"type":"Point"}
}