{
  "id": 320478519,
  "type": "Feature",
  "properties": {
    "edtf:cessation":"u",
    "edtf:inception":"u",
    "geom:area":0.0,
    "geom:bbox":"6.990593,53.169846,6.990593,53.169846",
    "geom:latitude":53.169846,
    "geom:longitude":6.990593,
    "iso:country":"NL",
    "sg:address":"Scheemdermeers Wg 35",
    "sg:city":"Scheemda",
    "sg:classifiers":[],
    "sg:orig_category":"Grafisch Ontwerpers",
    "sg:owner":"simplegeo",
    "sg:phone":"+31 597 592 013",
    "sg:postcode":"9679 TP",
    "sg:province":"Groningen",
    "src:geom":"simplegeo",
    "wof:belongsto":[
        85633337,
        85687059
    ],
    "wof:breaches":[],
    "wof:concordances":{
        "sg:id":"SG_1sYIFKbOJSDjVG4BLPIwZy_53.169846_6.990593@1306269998"
    },
    "wof:country":"NL",
    "wof:geomhash":"2a6a7a5cba52b082f86973d98826cf8b",
    "wof:hierarchy":[
        {
            "continent_id":-1,
            "country_id":85633337,
            "locality_id":-1,
            "neighbourhood_id":-1,
            "region_id":85687059,
            "venue_id":320478519
        }
    ],
    "wof:id":320478519,
    "wof:lastmodified":1449011384,
    "wof:name":"Fundamental Graphics",
    "wof:parent_id":-1,
    "wof:placetype":"venue",
    "wof:superseded_by":[],
    "wof:supersedes":[],
    "wof:tags":[]
},
  "bbox": [6.990593,53.169846,6.990593,53.169846],
  "geometry": {"coordinates":[6.990593,53.169846],"type":"Point"}
}