{
  "id": 303724397,
  "type": "Feature",
  "properties": {
    "edtf:cessation":"u",
    "edtf:inception":"u",
    "geom:area":0.0,
    "geom:bbox":"5.582689,52.140972,5.582689,52.140972",
    "geom:latitude":52.140972,
    "geom:longitude":5.582689,
    "iso:country":"NL",
    "sg:address":"Schoutenstraat 8",
    "sg:city":"Barneveld",
    "sg:classifiers":[],
    "sg:orig_category":"Diverse Opleidingen And Onderwijs",
    "sg:owner":"simplegeo",
    "sg:phone":"+31 342 414 204",
    "sg:postcode":"3771 CJ",
    "sg:province":"Gelderland",
    "src:geom":"simplegeo",
    "wof:belongsto":[
        85633337,
        101807053,
        85687043
    ],
    "wof:breaches":[],
    "wof:concordances":{
        "sg:id":"SG_4dBzCVtdAVhBGOo98gFLHH_52.140972_5.582689@1306269987"
    },
    "wof:country":"NL",
    "wof:geomhash":"610ed5902d122a79be93547c11d8d9da",
    "wof:hierarchy":[
        {
            "continent_id":-1,
            "country_id":85633337,
            "locality_id":101807053,
            "neighbourhood_id":-1,
            "region_id":85687043,
            "venue_id":303724397
        }
    ],
    "wof:id":303724397,
    "wof:lastmodified":1449000516,
    "wof:name":"G.N. Van Den Horst",
    "wof:parent_id":-1,
    "wof:placetype":"venue",
    "wof:superseded_by":[],
    "wof:supersedes":[],
    "wof:tags":[]
},
  "bbox": [5.582689,52.140972,5.582689,52.140972],
  "geometry": {"coordinates":[5.582689,52.140972],"type":"Point"}
}