{
  "id": 236398003,
  "type": "Feature",
  "properties": {
    "edtf:cessation":"u",
    "edtf:inception":"u",
    "geom:area":0.0,
    "geom:bbox":"6.717738,52.159336,6.717738,52.159336",
    "geom:latitude":52.159336,
    "geom:longitude":6.717738,
    "iso:country":"NL",
    "sg:address":"De Schutte 14",
    "sg:city":"Haaksbergen",
    "sg:classifiers":[],
    "sg:orig_category":"Artiesten/Gezelschappen",
    "sg:owner":"simplegeo",
    "sg:phone":"+31 53 572 6338",
    "sg:postcode":"7482 HL",
    "sg:province":"Overijssel",
    "src:geom":"simplegeo",
    "wof:belongsto":[
        85633337,
        101807203,
        85687045
    ],
    "wof:breaches":[],
    "wof:concordances":{
        "sg:id":"SG_7a2oUKPKNpgMpvUQsS66bF_52.159336_6.717738@1306269937"
    },
    "wof:country":"NL",
    "wof:geomhash":"0a5ad40e80ad098b4dd268f319a3bac9",
    "wof:hierarchy":[
        {
            "continent_id":-1,
            "country_id":85633337,
            "locality_id":101807203,
            "neighbourhood_id":-1,
            "region_id":85687045,
            "venue_id":236398003
        }
    ],
    "wof:id":236398003,
    "wof:lastmodified":1449001874,
    "wof:name":"Karel Van De Kate",
    "wof:parent_id":-1,
    "wof:placetype":"venue",
    "wof:superseded_by":[],
    "wof:supersedes":[],
    "wof:tags":[]
},
  "bbox": [6.717738,52.159336,6.717738,52.159336],
  "geometry": {"coordinates":[6.717738,52.159336],"type":"Point"}
}