{
  "id": 185642855,
  "type": "Feature",
  "properties": {
    "edtf:cessation":"u",
    "edtf:inception":"u",
    "geom:area":0.0,
    "geom:bbox":"5.067086,51.690407,5.067086,51.690407",
    "geom:latitude":51.690407,
    "geom:longitude":5.067086,
    "iso:country":"NL",
    "sg:address":"Grotestraat 218",
    "sg:city":"Waalwijk",
    "sg:classifiers":[],
    "sg:orig_category":"Kappers",
    "sg:owner":"simplegeo",
    "sg:phone":"+31 416 650 589",
    "sg:postcode":"5141 HE",
    "sg:province":"North Brabant",
    "src:geom":"simplegeo",
    "wof:belongsto":[
        85633337,
        101839403,
        85687035
    ],
    "wof:breaches":[],
    "wof:concordances":{
        "sg:id":"SG_7mbzXQ5S9imLzXb3FuO1YO_51.690407_5.067086@1306269906"
    },
    "wof:country":"NL",
    "wof:geomhash":"98e66d2e4844f59e4610b89655d5cfdb",
    "wof:hierarchy":[
        {
            "continent_id":-1,
            "country_id":85633337,
            "locality_id":101839403,
            "neighbourhood_id":-1,
            "region_id":85687035,
            "venue_id":185642855
        }
    ],
    "wof:id":185642855,
    "wof:lastmodified":1449006688,
    "wof:name":"Walter De Rooij Coiffures",
    "wof:parent_id":-1,
    "wof:placetype":"venue",
    "wof:superseded_by":[],
    "wof:supersedes":[],
    "wof:tags":[]
},
  "bbox": [5.067086,51.690407,5.067086,51.690407],
  "geometry": {"coordinates":[5.067086,51.690407],"type":"Point"}
}