{
  "id": 286778381,
  "type": "Feature",
  "properties": {
    "edtf:cessation":"u",
    "edtf:inception":"u",
    "geom:area":0.0,
    "geom:bbox":"6.773704,52.240528,6.773704,52.240528",
    "geom:latitude":52.240528,
    "geom:longitude":6.773704,
    "iso:country":"NL",
    "sg:address":"Granaatstraat 78",
    "sg:city":"Hengelo Ov",
    "sg:classifiers":[],
    "sg:orig_category":"Binnenhuisarchitecten",
    "sg:owner":"simplegeo",
    "sg:phone":"+31 74 291 3212",
    "sg:postcode":"7554 TR",
    "sg:province":"Overijssel",
    "src:geom":"simplegeo",
    "wof:belongsto":[
        85797029,
        85633337,
        85687045
    ],
    "wof:breaches":[],
    "wof:concordances":{
        "sg:id":"SG_2BadHSo4VWEciDQTnoA9oJ_52.240528_6.773704@1306269973"
    },
    "wof:country":"NL",
    "wof:geomhash":"02a2307ea24d260259df98570d0147f3",
    "wof:hierarchy":[
        {
            "continent_id":-1,
            "country_id":85633337,
            "locality_id":-1,
            "neighbourhood_id":85797029,
            "region_id":85687045,
            "venue_id":286778381
        }
    ],
    "wof:id":286778381,
    "wof:lastmodified":1449015211,
    "wof:name":"J.A. Van Netten Interieur Architekt",
    "wof:parent_id":85797029,
    "wof:placetype":"venue",
    "wof:superseded_by":[],
    "wof:supersedes":[],
    "wof:tags":[]
},
  "bbox": [6.773704,52.240528,6.773704,52.240528],
  "geometry": {"coordinates":[6.773704,52.240528],"type":"Point"}
}