{
  "id": 236960329,
  "type": "Feature",
  "properties": {
    "edtf:cessation":"u",
    "edtf:inception":"u",
    "geom:area":0.0,
    "geom:bbox":"5.796412,53.202496,5.796412,53.202496",
    "geom:latitude":53.202496,
    "geom:longitude":5.796412,
    "iso:country":"NL",
    "sg:address":"St Jacobsstr 46",
    "sg:city":"Leeuwarden",
    "sg:classifiers":[],
    "sg:orig_category":"Makelaars En Adviseurs Onroerende Goederen",
    "sg:owner":"simplegeo",
    "sg:phone":"+31 58 215 8578",
    "sg:postcode":"8911 HV",
    "sg:province":"Friesland",
    "sg:website":"http://www.woonkrant.nl",
    "src:geom":"simplegeo",
    "wof:belongsto":[
        85797735,
        85633337,
        101751907,
        85687055
    ],
    "wof:breaches":[],
    "wof:concordances":{
        "sg:id":"SG_56M3YLzJ1GlIsC6jD7fRKm_53.202496_5.796412@1306269942"
    },
    "wof:country":"NL",
    "wof:geomhash":"1c2ea2d629b9627799d0b024dde49d5e",
    "wof:hierarchy":[
        {
            "continent_id":-1,
            "country_id":85633337,
            "locality_id":101751907,
            "neighbourhood_id":85797735,
            "region_id":85687055,
            "venue_id":236960329
        }
    ],
    "wof:id":236960329,
    "wof:lastmodified":1449004132,
    "wof:name":"Metz",
    "wof:parent_id":85797735,
    "wof:placetype":"venue",
    "wof:superseded_by":[],
    "wof:supersedes":[],
    "wof:tags":[]
},
  "bbox": [5.796412,53.202496,5.796412,53.202496],
  "geometry": {"coordinates":[5.796412,53.202496],"type":"Point"}
}