{
  "id": 203211113,
  "type": "Feature",
  "properties": {
    "edtf:cessation":"u",
    "edtf:inception":"u",
    "geom:area":0.0,
    "geom:bbox":"5.897735,51.982952,5.897735,51.982952",
    "geom:latitude":51.982952,
    "geom:longitude":5.897735,
    "iso:country":"NL",
    "sg:address":"Oude Kraan 74",
    "sg:city":"Arnhem",
    "sg:classifiers":[],
    "sg:orig_category":"Verzekerings- Maatschappijen",
    "sg:owner":"simplegeo",
    "sg:phone":"+31 26 352 5109",
    "sg:postcode":"6811 LL",
    "sg:province":"Gelderland",
    "sg:website":"http://www.relan.nl",
    "src:geom":"simplegeo",
    "wof:belongsto":[
        85797665,
        85633337,
        85687043
    ],
    "wof:breaches":[],
    "wof:concordances":{
        "sg:id":"SG_5Bdn5hRQfyyHHivngGSCdR_51.982952_5.897735@1306269922"
    },
    "wof:country":"NL",
    "wof:geomhash":"b62d868b691301925889f0406a33ca38",
    "wof:hierarchy":[
        {
            "continent_id":-1,
            "country_id":85633337,
            "locality_id":-1,
            "neighbourhood_id":85797665,
            "region_id":85687043,
            "venue_id":203211113
        }
    ],
    "wof:id":203211113,
    "wof:lastmodified":1449025385,
    "wof:name":"Relan Zekerheid",
    "wof:parent_id":85797665,
    "wof:placetype":"venue",
    "wof:superseded_by":[],
    "wof:supersedes":[],
    "wof:tags":[]
},
  "bbox": [5.897735,51.982952,5.897735,51.982952],
  "geometry": {"coordinates":[5.897735,51.982952],"type":"Point"}
}