{
  "id": 320684493,
  "type": "Feature",
  "properties": {
    "edtf:cessation":"u",
    "edtf:inception":"u",
    "geom:area":0.0,
    "geom:bbox":"-111.930344,34.168091,-111.930344,34.168091",
    "geom:latitude":34.168091,
    "geom:longitude":-111.930344,
    "iso:country":"NL",
    "sg:address":"Handelswg 12",
    "sg:city":"Wervershoof",
    "sg:classifiers":[],
    "sg:orig_category":"Ziekenvervoer",
    "sg:owner":"simplegeo",
    "sg:phone":"+31 229 581 212",
    "sg:postcode":"1693 AZ",
    "sg:province":"Arizona",
    "src:geom":"simplegeo",
    "wof:belongsto":[
        85633793,
        85688719
    ],
    "wof:breaches":[],
    "wof:concordances":{
        "sg:id":"SG_6ezKuwAzF850A7EGLN9Alj_34.168091_-111.930344@1306270001"
    },
    "wof:country":"NL",
    "wof:geomhash":"6fb9ff332afc5b10d8ae6dfcfe7e020b",
    "wof:hierarchy":[
        {
            "continent_id":-1,
            "country_id":85633793,
            "locality_id":-1,
            "neighbourhood_id":-1,
            "region_id":85688719,
            "venue_id":320684493
        }
    ],
    "wof:id":320684493,
    "wof:lastmodified":1449012188,
    "wof:name":"Koggen, De",
    "wof:parent_id":-1,
    "wof:placetype":"venue",
    "wof:superseded_by":[],
    "wof:supersedes":[],
    "wof:tags":[]
},
  "bbox": [-111.930344,34.168091,-111.930344,34.168091],
  "geometry": {"coordinates":[-111.930344,34.168091],"type":"Point"}
}