{
  "id": 320000393,
  "type": "Feature",
  "properties": {
    "edtf:cessation":"u",
    "edtf:inception":"u",
    "geom:area":0.0,
    "geom:bbox":"6.789712,52.266361,6.789712,52.266361",
    "geom:latitude":52.266361,
    "geom:longitude":6.789712,
    "iso:country":"NL",
    "sg:address":"Steynstr 38",
    "sg:city":"Hengelo Ov",
    "sg:classifiers":[],
    "sg:orig_category":"Hulpverlening Sociaal",
    "sg:owner":"simplegeo",
    "sg:phone":"+31 74 250 8010",
    "sg:postcode":"7551 GL",
    "sg:province":"Overijssel",
    "src:geom":"simplegeo",
    "wof:belongsto":[
        85798709,
        85633337,
        85687045
    ],
    "wof:breaches":[],
    "wof:concordances":{
        "sg:id":"SG_0aVNIHfKj097nLDWAzVeUJ_52.266361_6.789712@1306269993"
    },
    "wof:country":"NL",
    "wof:geomhash":"8b91088d24e733301df890e36265562d",
    "wof:hierarchy":[
        {
            "continent_id":-1,
            "country_id":85633337,
            "locality_id":-1,
            "neighbourhood_id":85798709,
            "region_id":85687045,
            "venue_id":320000393
        }
    ],
    "wof:id":320000393,
    "wof:lastmodified":1449011852,
    "wof:name":"Jarabee Twente, Sticht",
    "wof:parent_id":85798709,
    "wof:placetype":"venue",
    "wof:superseded_by":[],
    "wof:supersedes":[],
    "wof:tags":[]
},
  "bbox": [6.789712,52.266361,6.789712,52.266361],
  "geometry": {"coordinates":[6.789712,52.266361],"type":"Point"}
}