{
  "id": 320093191,
  "type": "Feature",
  "properties": {
    "edtf:cessation":"u",
    "edtf:inception":"u",
    "geom:area":0.0,
    "geom:bbox":"6.147833,51.425304,6.147833,51.425304",
    "geom:latitude":51.425304,
    "geom:longitude":6.147833,
    "iso:country":"NL",
    "sg:address":"Lottumsewg 53",
    "sg:city":"Grubbenvorst",
    "sg:classifiers":[
        {
            "category":"Retail",
            "subcategory":"Auto Repair",
            "type":"Services"
        }
    ],
    "sg:owner":"simplegeo",
    "sg:phone":"+31 77 366 3168",
    "sg:postcode":"5971 BV",
    "sg:province":"Limburg",
    "sg:tags":[
        "garage"
    ],
    "src:geom":"simplegeo",
    "wof:belongsto":[
        85798541,
        85633337,
        85687033
    ],
    "wof:breaches":[],
    "wof:concordances":{
        "sg:id":"SG_7Bnh7AWiyqOl43qbBSGGNV_51.425304_6.147833@1306269994"
    },
    "wof:country":"NL",
    "wof:geomhash":"94ad2e674514b31889c4b458c6b2d3f7",
    "wof:hierarchy":[
        {
            "continent_id":-1,
            "country_id":85633337,
            "locality_id":-1,
            "neighbourhood_id":85798541,
            "region_id":85687033,
            "venue_id":320093191
        }
    ],
    "wof:id":320093191,
    "wof:lastmodified":1449011266,
    "wof:name":"Muijres",
    "wof:parent_id":85798541,
    "wof:placetype":"venue",
    "wof:superseded_by":[],
    "wof:supersedes":[],
    "wof:tags":[
        "garage"
    ]
},
  "bbox": [6.147833,51.425304,6.147833,51.425304],
  "geometry": {"coordinates":[6.147833,51.425304],"type":"Point"}
}