{
  "id": 320093207,
  "type": "Feature",
  "properties": {
    "edtf:cessation":"u",
    "edtf:inception":"u",
    "geom:area":0.0,
    "geom:bbox":"5.747559,51.411297,5.747559,51.411297",
    "geom:latitude":51.411297,
    "geom:longitude":5.747559,
    "iso:country":"NL",
    "sg:address":"Ommelsewg 44",
    "sg:city":"Asten",
    "sg:classifiers":[
        {
            "category":"Retail",
            "subcategory":"Auto Repair",
            "type":"Services"
        }
    ],
    "sg:owner":"simplegeo",
    "sg:phone":"+31 493 692 774",
    "sg:postcode":"5721 WV",
    "sg:province":"Noord-Brabant",
    "sg:tags":[
        "garage"
    ],
    "src:geom":"simplegeo",
    "wof:belongsto":[
        85633337,
        101809687,
        85687035
    ],
    "wof:breaches":[],
    "wof:concordances":{
        "sg:id":"SG_5RrpfAJG6HV1n2YgnmFhZr_51.411297_5.747559@1306269994"
    },
    "wof:country":"NL",
    "wof:geomhash":"d5fc38d4f9d016438d63a485dd50f454",
    "wof:hierarchy":[
        {
            "continent_id":-1,
            "country_id":85633337,
            "locality_id":101809687,
            "neighbourhood_id":-1,
            "region_id":85687035,
            "venue_id":320093207
        }
    ],
    "wof:id":320093207,
    "wof:lastmodified":1449011267,
    "wof:name":"Moosdijk Vof, F Van De",
    "wof:parent_id":-1,
    "wof:placetype":"venue",
    "wof:superseded_by":[],
    "wof:supersedes":[],
    "wof:tags":[
        "garage"
    ]
},
  "bbox": [5.747559,51.411297,5.747559,51.411297],
  "geometry": {"coordinates":[5.747559,51.411297],"type":"Point"}
}