{
  "id": 220081965,
  "type": "Feature",
  "properties": {
    "edtf:cessation":"u",
    "edtf:inception":"u",
    "geom:area":0.0,
    "geom:bbox":"5.644496,51.463352,5.644496,51.463352",
    "geom:latitude":51.463352,
    "geom:longitude":5.644496,
    "iso:country":"NL",
    "sg:address":"Kaukasus 23",
    "sg:city":"Helmond",
    "sg:classifiers":[],
    "sg:orig_category":"Adviesbureaus Personeel",
    "sg:owner":"simplegeo",
    "sg:phone":"+31 492 574 554",
    "sg:postcode":"5706 PK",
    "sg:province":"North Brabant",
    "src:geom":"simplegeo",
    "wof:belongsto":[
        85798473,
        85633337,
        85687035
    ],
    "wof:breaches":[],
    "wof:concordances":{
        "sg:id":"SG_5h009pBVrw6Ra62hxemCKF_51.463352_5.644496@1306269931"
    },
    "wof:country":"NL",
    "wof:geomhash":"09a5bb2ee76444faebb34b37b7883001",
    "wof:hierarchy":[
        {
            "continent_id":-1,
            "country_id":85633337,
            "locality_id":-1,
            "neighbourhood_id":85798473,
            "region_id":85687035,
            "venue_id":220081965
        }
    ],
    "wof:id":220081965,
    "wof:lastmodified":1449074268,
    "wof:name":"Hd Consultancy",
    "wof:parent_id":85798473,
    "wof:placetype":"venue",
    "wof:superseded_by":[],
    "wof:supersedes":[],
    "wof:tags":[]
},
  "bbox": [5.644496,51.463352,5.644496,51.463352],
  "geometry": {"coordinates":[5.644496,51.463352],"type":"Point"}
}