{
  "id": 320498893,
  "type": "Feature",
  "properties": {
    "edtf:cessation":"u",
    "edtf:inception":"u",
    "geom:area":0.0,
    "geom:bbox":"4.42293,51.929569,4.42293,51.929569",
    "geom:latitude":51.929569,
    "geom:longitude":4.42293,
    "iso:country":"NL",
    "sg:address":"Overschiesewg 10-I",
    "sg:city":"Rotterdam",
    "sg:classifiers":[],
    "sg:orig_category":"Grafisch Ontwerpers",
    "sg:owner":"simplegeo",
    "sg:phone":"+31 10 262 0805",
    "sg:postcode":"3044 EE",
    "sg:province":"South Holland",
    "src:geom":"simplegeo",
    "wof:belongsto":[
        85859747,
        85633337,
        101751843,
        85687041
    ],
    "wof:breaches":[],
    "wof:concordances":{
        "sg:id":"SG_5VkklM5VDEi1gbbvjXrLhh_51.929569_4.422930@1306269999"
    },
    "wof:country":"NL",
    "wof:geomhash":"132d60cc276a26d0f4baf152e5a344d3",
    "wof:hierarchy":[
        {
            "continent_id":-1,
            "country_id":85633337,
            "locality_id":101751843,
            "neighbourhood_id":85859747,
            "region_id":85687041,
            "venue_id":320498893
        }
    ],
    "wof:id":320498893,
    "wof:lastmodified":1449014065,
    "wof:name":"Vak Apart Bv",
    "wof:parent_id":85859747,
    "wof:placetype":"venue",
    "wof:superseded_by":[],
    "wof:supersedes":[],
    "wof:tags":[]
},
  "bbox": [4.42293,51.929569,4.42293,51.929569],
  "geometry": {"coordinates":[4.42293,51.929569],"type":"Point"}
}