{
  "id": 286933949,
  "type": "Feature",
  "properties": {
    "edtf:cessation":"u",
    "edtf:inception":"u",
    "geom:area":0.0,
    "geom:bbox":"4.622066,52.203625,4.622066,52.203625",
    "geom:latitude":52.203625,
    "geom:longitude":4.622066,
    "iso:country":"NL",
    "sg:address":"De Lasso 3",
    "sg:city":"Roelofarendsveen",
    "sg:classifiers":[],
    "sg:orig_category":"Bloemen And Planten",
    "sg:owner":"simplegeo",
    "sg:phone":"+31 71 331 9109",
    "sg:postcode":"2371 GV",
    "sg:province":"Zuid-Holland",
    "src:geom":"simplegeo",
    "wof:belongsto":[
        85633337,
        101808479,
        85687041
    ],
    "wof:breaches":[],
    "wof:concordances":{
        "sg:id":"SG_3VC9yIaIbRxhMNScoAEarN_52.203625_4.622066@1306269975"
    },
    "wof:country":"NL",
    "wof:geomhash":"5011ade6939057374a9ab4f80364e03a",
    "wof:hierarchy":[
        {
            "continent_id":-1,
            "country_id":85633337,
            "locality_id":101808479,
            "neighbourhood_id":-1,
            "region_id":85687041,
            "venue_id":286933949
        }
    ],
    "wof:id":286933949,
    "wof:lastmodified":1449015766,
    "wof:name":"Zwet Ruiten Bv",
    "wof:parent_id":-1,
    "wof:placetype":"venue",
    "wof:superseded_by":[],
    "wof:supersedes":[],
    "wof:tags":[]
},
  "bbox": [4.622066,52.203625,4.622066,52.203625],
  "geometry": {"coordinates":[4.622066,52.203625],"type":"Point"}
}