{
  "id": 236971659,
  "type": "Feature",
  "properties": {
    "edtf:cessation":"u",
    "edtf:inception":"u",
    "geom:area":0.0,
    "geom:bbox":"5.037057,51.961643,5.037057,51.961643",
    "geom:latitude":51.961643,
    "geom:longitude":5.037057,
    "iso:country":"NL",
    "sg:address":"De Laak 16",
    "sg:city":"Lexmond",
    "sg:classifiers":[],
    "sg:orig_category":"Makelaars En Adviseurs Onroerende Goederen",
    "sg:owner":"simplegeo",
    "sg:phone":"+31 347 341 180",
    "sg:postcode":"4128 CB",
    "sg:province":"Zuid-Holland",
    "sg:website":"http://www.spekbouw.nl",
    "src:geom":"simplegeo",
    "wof:belongsto":[
        85633337,
        101808491,
        85687041
    ],
    "wof:breaches":[],
    "wof:concordances":{
        "sg:id":"SG_0O597CjbtxwmwHD4ugDdMC_51.961643_5.037057@1306269942"
    },
    "wof:country":"NL",
    "wof:geomhash":"30e42c1dab64505b9829ffee4a6e2f05",
    "wof:hierarchy":[
        {
            "continent_id":-1,
            "country_id":85633337,
            "locality_id":101808491,
            "neighbourhood_id":-1,
            "region_id":85687041,
            "venue_id":236971659
        }
    ],
    "wof:id":236971659,
    "wof:lastmodified":1449003294,
    "wof:name":"Spek, H",
    "wof:parent_id":-1,
    "wof:placetype":"venue",
    "wof:superseded_by":[],
    "wof:supersedes":[],
    "wof:tags":[]
},
  "bbox": [5.037057,51.961643,5.037057,51.961643],
  "geometry": {"coordinates":[5.037057,51.961643],"type":"Point"}
}