{
  "id": 320716613,
  "type": "Feature",
  "properties": {
    "edtf:cessation":"u",
    "edtf:inception":"u",
    "geom:area":0.0,
    "geom:bbox":"4.656634,51.782074,4.656634,51.782074",
    "geom:latitude":51.782074,
    "geom:longitude":4.656634,
    "iso:country":"NL",
    "sg:address":"Langedaal 19",
    "sg:city":"Dordrecht",
    "sg:classifiers":[],
    "sg:orig_category":"Zonweringen",
    "sg:owner":"simplegeo",
    "sg:phone":"+31 78 617 7656",
    "sg:postcode":"3317 MA",
    "sg:province":"South Holland",
    "sg:website":"http://www.dekal.nl",
    "src:geom":"simplegeo",
    "wof:belongsto":[
        85797265,
        85633337,
        85687041
    ],
    "wof:breaches":[],
    "wof:concordances":{
        "sg:id":"SG_47yOXtNohpDdcyAKz7GXx7_51.782074_4.656634@1306270001"
    },
    "wof:country":"NL",
    "wof:geomhash":"5f2fd95cfe72da26d9e0d6eed35680dc",
    "wof:hierarchy":[
        {
            "continent_id":-1,
            "country_id":85633337,
            "locality_id":-1,
            "neighbourhood_id":85797265,
            "region_id":85687041,
            "venue_id":320716613
        }
    ],
    "wof:id":320716613,
    "wof:lastmodified":1449011783,
    "wof:name":"Faas Zonwering",
    "wof:parent_id":85797265,
    "wof:placetype":"venue",
    "wof:superseded_by":[],
    "wof:supersedes":[],
    "wof:tags":[]
},
  "bbox": [4.656634,51.782074,4.656634,51.782074],
  "geometry": {"coordinates":[4.656634,51.782074],"type":"Point"}
}