{
  "id": 186616097,
  "type": "Feature",
  "properties": {
    "edtf:cessation":"u",
    "edtf:inception":"u",
    "geom:area":0.0,
    "geom:bbox":"5.780455,51.275688,5.780455,51.275688",
    "geom:latitude":51.275688,
    "geom:longitude":5.780455,
    "iso:country":"NL",
    "sg:address":"Past Maespln 13",
    "sg:city":"Nederweert Eind",
    "sg:classifiers":[],
    "sg:orig_category":"Verenigingsgebouwen",
    "sg:owner":"simplegeo",
    "sg:phone":"+31 495 632 567",
    "sg:postcode":"6034 TE",
    "sg:province":"Limburg",
    "src:geom":"simplegeo",
    "wof:belongsto":[
        85633337,
        101809519,
        85687033
    ],
    "wof:breaches":[],
    "wof:concordances":{
        "sg:id":"SG_4Xiq7KLPWluFK3HIbgskVS_51.275688_5.780455@1306269914"
    },
    "wof:country":"NL",
    "wof:geomhash":"31f77274d5fa4efb8c84b707ac3d30ec",
    "wof:hierarchy":[
        {
            "continent_id":-1,
            "country_id":85633337,
            "locality_id":101809519,
            "neighbourhood_id":-1,
            "region_id":85687033,
            "venue_id":186616097
        }
    ],
    "wof:id":186616097,
    "wof:lastmodified":1449052326,
    "wof:name":"Reigershorst",
    "wof:parent_id":-1,
    "wof:placetype":"venue",
    "wof:superseded_by":[],
    "wof:supersedes":[],
    "wof:tags":[]
},
  "bbox": [5.780455,51.275688,5.780455,51.275688],
  "geometry": {"coordinates":[5.780455,51.275688],"type":"Point"}
}