{
  "id": 252765799,
  "type": "Feature",
  "properties": {
    "edtf:cessation":"u",
    "edtf:inception":"u",
    "geom:area":0.0,
    "geom:bbox":"4.665692,52.507866,4.665692,52.507866",
    "geom:latitude":52.507866,
    "geom:longitude":4.665692,
    "iso:country":"NL",
    "sg:address":"J Steenstr 8",
    "sg:city":"Heemskerk",
    "sg:classifiers":[
        {
            "category":"Sports & Exercise",
            "subcategory":"Stables",
            "type":"Entertainment"
        }
    ],
    "sg:owner":"simplegeo",
    "sg:phone":"+31 251 250 253",
    "sg:postcode":"1964 RA",
    "sg:province":"Noord-Holland",
    "sg:tags":[
        "maneges"
    ],
    "src:geom":"simplegeo",
    "wof:belongsto":[
        85797373,
        85633337,
        85687053
    ],
    "wof:breaches":[],
    "wof:concordances":{
        "sg:id":"SG_32Nr84DxYC7sWY5N1eBVVG_52.507866_4.665692@1306269943"
    },
    "wof:country":"NL",
    "wof:geomhash":"654ed14dbf6d39444ab9aba0ab3670c6",
    "wof:hierarchy":[
        {
            "continent_id":-1,
            "country_id":85633337,
            "locality_id":-1,
            "neighbourhood_id":85797373,
            "region_id":85687053,
            "venue_id":252765799
        }
    ],
    "wof:id":252765799,
    "wof:lastmodified":1449006044,
    "wof:name":"Kolk Bv, Van Der",
    "wof:parent_id":85797373,
    "wof:placetype":"venue",
    "wof:superseded_by":[],
    "wof:supersedes":[],
    "wof:tags":[
        "maneges"
    ]
},
  "bbox": [4.665692,52.507866,4.665692,52.507866],
  "geometry": {"coordinates":[4.665692,52.507866],"type":"Point"}
}