{
  "id": 320059189,
  "type": "Feature",
  "properties": {
    "edtf:cessation":"u",
    "edtf:inception":"u",
    "geom:area":0.0,
    "geom:bbox":"4.310906,51.902733,4.310906,51.902733",
    "geom:latitude":51.902733,
    "geom:longitude":4.310906,
    "iso:country":"NL",
    "sg:address":"Fultonstr 64",
    "sg:city":"Vlaardingen",
    "sg:classifiers":[
        {
            "category":"Retail",
            "subcategory":"Auto Repair",
            "type":"Services"
        }
    ],
    "sg:owner":"simplegeo",
    "sg:phone":"+31 10 460 2515",
    "sg:postcode":"3133 KH",
    "sg:province":"Zuid-Holland",
    "sg:tags":[
        "garage"
    ],
    "src:geom":"simplegeo",
    "wof:belongsto":[
        85798569,
        85633337,
        85687041
    ],
    "wof:breaches":[],
    "wof:concordances":{
        "sg:id":"SG_5pSCfFgsX4TAb0I7tj9gg5_51.902733_4.310906@1306269994"
    },
    "wof:country":"NL",
    "wof:geomhash":"9a5b6e098fe876e16e533470401d3b40",
    "wof:hierarchy":[
        {
            "continent_id":-1,
            "country_id":85633337,
            "locality_id":-1,
            "neighbourhood_id":85798569,
            "region_id":85687041,
            "venue_id":320059189
        }
    ],
    "wof:id":320059189,
    "wof:lastmodified":1449012283,
    "wof:name":"Buisman, T J",
    "wof:parent_id":85798569,
    "wof:placetype":"venue",
    "wof:superseded_by":[],
    "wof:supersedes":[],
    "wof:tags":[
        "garage"
    ]
},
  "bbox": [4.310906,51.902733,4.310906,51.902733],
  "geometry": {"coordinates":[4.310906,51.902733],"type":"Point"}
}