{
  "id": 236634843,
  "type": "Feature",
  "properties": {
    "edtf:cessation":"u",
    "edtf:inception":"u",
    "geom:area":0.0,
    "geom:bbox":"5.31131,51.689816,5.31131,51.689816",
    "geom:latitude":51.689816,
    "geom:longitude":5.31131,
    "iso:country":"NL",
    "sg:address":"Schilderstraat 72",
    "sg:city":"'S Hertogenbosch",
    "sg:classifiers":[],
    "sg:orig_category":"Autokeuringen",
    "sg:owner":"simplegeo",
    "sg:phone":"+31 73 614 1830",
    "sg:postcode":"5211 NM",
    "sg:province":"North Brabant",
    "src:geom":"simplegeo",
    "wof:belongsto":[
        85798203,
        85633337,
        101751809,
        85687035
    ],
    "wof:breaches":[],
    "wof:concordances":{
        "sg:id":"SG_7lqaf4xtaD4R41BZ9VJ6vd_51.689816_5.311310@1306269939"
    },
    "wof:country":"NL",
    "wof:geomhash":"0e043a82e6f7ac6789b05854a808109d",
    "wof:hierarchy":[
        {
            "continent_id":-1,
            "country_id":85633337,
            "locality_id":101751809,
            "neighbourhood_id":85798203,
            "region_id":85687035,
            "venue_id":236634843
        }
    ],
    "wof:id":236634843,
    "wof:lastmodified":1449003182,
    "wof:name":"Rolo",
    "wof:parent_id":85798203,
    "wof:placetype":"venue",
    "wof:superseded_by":[],
    "wof:supersedes":[],
    "wof:tags":[]
},
  "bbox": [5.31131,51.689816,5.31131,51.689816],
  "geometry": {"coordinates":[5.31131,51.689816],"type":"Point"}
}