{
  "id": 236963491,
  "type": "Feature",
  "properties": {
    "edtf:cessation":"u",
    "edtf:inception":"u",
    "geom:area":0.0,
    "geom:bbox":"6.672033,53.406368,6.672033,53.406368",
    "geom:latitude":53.406368,
    "geom:longitude":6.672033,
    "iso:country":"NL",
    "sg:address":"M J Bultenastr 6",
    "sg:city":"Uithuizen",
    "sg:classifiers":[],
    "sg:orig_category":"Makelaars En Adviseurs Onroerende Goederen",
    "sg:owner":"simplegeo",
    "sg:phone":"+31 595 431 455",
    "sg:postcode":"9981 JB",
    "sg:province":"Groningen",
    "src:geom":"simplegeo",
    "wof:belongsto":[
        85633337,
        101807513,
        85687059
    ],
    "wof:breaches":[],
    "wof:concordances":{
        "sg:id":"SG_4nJ0i1IU6zprcFEKlxPtIw_53.406368_6.672033@1306269942"
    },
    "wof:country":"NL",
    "wof:geomhash":"065addb158f8f41bfaaef6e896da27cf",
    "wof:hierarchy":[
        {
            "continent_id":-1,
            "country_id":85633337,
            "locality_id":101807513,
            "neighbourhood_id":-1,
            "region_id":85687059,
            "venue_id":236963491
        }
    ],
    "wof:id":236963491,
    "wof:lastmodified":1449001909,
    "wof:name":"Poort Sienot & Woltjer Vof",
    "wof:parent_id":-1,
    "wof:placetype":"venue",
    "wof:superseded_by":[],
    "wof:supersedes":[],
    "wof:tags":[]
},
  "bbox": [6.672033,53.406368,6.672033,53.406368],
  "geometry": {"coordinates":[6.672033,53.406368],"type":"Point"}
}