{
  "id": 320243797,
  "type": "Feature",
  "properties": {
    "edtf:cessation":"u",
    "edtf:inception":"u",
    "geom:area":0.0,
    "geom:bbox":"4.475603,51.923359,4.475603,51.923359",
    "geom:latitude":51.923359,
    "geom:longitude":4.475603,
    "iso:country":"NL",
    "sg:address":"Lijnbaan 30",
    "sg:city":"Rotterdam",
    "sg:classifiers":[],
    "sg:orig_category":"Gespecialiseerde Voeding",
    "sg:owner":"simplegeo",
    "sg:phone":"+31 10 214 1808",
    "sg:postcode":"3012 EP",
    "sg:province":"Zuid-Holland",
    "src:geom":"simplegeo",
    "wof:belongsto":[
        85859817,
        85633337,
        101751843,
        85687041
    ],
    "wof:breaches":[],
    "wof:concordances":{
        "sg:id":"SG_0ngMzae6yP7gMBWZiWUaXt_51.923359_4.475603@1306269996"
    },
    "wof:country":"NL",
    "wof:geomhash":"54b78062dad85818f0e7417ff19027cb",
    "wof:hierarchy":[
        {
            "continent_id":-1,
            "country_id":85633337,
            "locality_id":101751843,
            "neighbourhood_id":85859817,
            "region_id":85687041,
            "venue_id":320243797
        }
    ],
    "wof:id":320243797,
    "wof:lastmodified":1449012486,
    "wof:name":"Java House",
    "wof:parent_id":85859817,
    "wof:placetype":"venue",
    "wof:superseded_by":[],
    "wof:supersedes":[],
    "wof:tags":[]
},
  "bbox": [4.475603,51.923359,4.475603,51.923359],
  "geometry": {"coordinates":[4.475603,51.923359],"type":"Point"}
}