{
  "id": 236801427,
  "type": "Feature",
  "properties": {
    "edtf:cessation":"u",
    "edtf:inception":"u",
    "geom:area":0.0,
    "geom:bbox":"5.93318,52.209259,5.93318,52.209259",
    "geom:latitude":52.209259,
    "geom:longitude":5.93318,
    "iso:country":"NL",
    "sg:address":"Jachtln 336",
    "sg:city":"Apeldoorn",
    "sg:classifiers":[],
    "sg:orig_category":"Autorijscholen",
    "sg:owner":"simplegeo",
    "sg:phone":"+31 55 355 0000",
    "sg:postcode":"7312 GV",
    "sg:province":"Gelderland",
    "src:geom":"simplegeo",
    "wof:belongsto":[
        85797095,
        85633337,
        85687043
    ],
    "wof:breaches":[],
    "wof:concordances":{
        "sg:id":"SG_5IToHxR94C63B4Hwlv4tq5_52.209259_5.933180@1306269941"
    },
    "wof:country":"NL",
    "wof:geomhash":"1c281710e46ad3a4655c29d918bfe4f7",
    "wof:hierarchy":[
        {
            "continent_id":-1,
            "country_id":85633337,
            "locality_id":-1,
            "neighbourhood_id":85797095,
            "region_id":85687043,
            "venue_id":236801427
        }
    ],
    "wof:id":236801427,
    "wof:lastmodified":1449004548,
    "wof:name":"Muller, Verkeersschool",
    "wof:parent_id":85797095,
    "wof:placetype":"venue",
    "wof:superseded_by":[],
    "wof:supersedes":[],
    "wof:tags":[]
},
  "bbox": [5.93318,52.209259,5.93318,52.209259],
  "geometry": {"coordinates":[5.93318,52.209259],"type":"Point"}
}