{
  "id": 320596741,
  "type": "Feature",
  "properties": {
    "edtf:cessation":"u",
    "edtf:inception":"u",
    "geom:area":0.0,
    "geom:bbox":"6.07737,51.49847,6.07737,51.49847",
    "geom:latitude":51.49847,
    "geom:longitude":6.07737,
    "iso:country":"NL",
    "sg:address":"Over De Beek 1",
    "sg:city":"Tienray",
    "sg:classifiers":[
        {
            "category":"Food & Beverages",
            "subcategory":"Fruits & Vegetables",
            "type":"Retail Goods"
        }
    ],
    "sg:owner":"simplegeo",
    "sg:phone":"+31 478 698 176",
    "sg:postcode":"5865 AD",
    "sg:province":"Limburg",
    "sg:tags":[
        "en",
        "groenten"
    ],
    "src:geom":"simplegeo",
    "wof:belongsto":[
        85633337,
        85687033
    ],
    "wof:breaches":[],
    "wof:concordances":{
        "sg:id":"SG_7M53ubPvpQ5wsT41jULtri_51.498470_6.077370@1306270000"
    },
    "wof:country":"NL",
    "wof:geomhash":"7195416f398c4aa678541963335bfe0a",
    "wof:hierarchy":[
        {
            "continent_id":-1,
            "country_id":85633337,
            "locality_id":-1,
            "neighbourhood_id":-1,
            "region_id":85687033,
            "venue_id":320596741
        }
    ],
    "wof:id":320596741,
    "wof:lastmodified":1449013167,
    "wof:name":"Vergeldt, Maatschap",
    "wof:parent_id":-1,
    "wof:placetype":"venue",
    "wof:superseded_by":[],
    "wof:supersedes":[],
    "wof:tags":[
        "en",
        "groenten"
    ]
},
  "bbox": [6.07737,51.49847,6.07737,51.49847],
  "geometry": {"coordinates":[6.07737,51.49847],"type":"Point"}
}