{
  "id": 220174161,
  "type": "Feature",
  "properties": {
    "edtf:cessation":"u",
    "edtf:inception":"u",
    "geom:area":0.0,
    "geom:bbox":"5.274209,51.640823,5.274209,51.640823",
    "geom:latitude":51.640823,
    "geom:longitude":5.274209,
    "iso:country":"NL",
    "sg:address":"Reigersbekstr 21",
    "sg:city":"Vught",
    "sg:classifiers":[],
    "sg:orig_category":"Advocaten En Advocatenkantoren",
    "sg:owner":"simplegeo",
    "sg:phone":"+31 73 684 1618",
    "sg:postcode":"5262 DC",
    "sg:province":"Noord-Brabant",
    "src:geom":"simplegeo",
    "wof:belongsto":[
        85633337,
        101754581,
        85687035
    ],
    "wof:breaches":[],
    "wof:concordances":{
        "sg:id":"SG_4ibUlmwLsAtZSanRod126a_51.640823_5.274209@1306269932"
    },
    "wof:country":"NL",
    "wof:geomhash":"132aae17f4b8686d3a2488b83b863fed",
    "wof:hierarchy":[
        {
            "continent_id":-1,
            "country_id":85633337,
            "locality_id":101754581,
            "neighbourhood_id":-1,
            "region_id":85687035,
            "venue_id":220174161
        }
    ],
    "wof:id":220174161,
    "wof:lastmodified":1449074135,
    "wof:name":"Jonkergouw, Mr J M",
    "wof:parent_id":-1,
    "wof:placetype":"venue",
    "wof:superseded_by":[],
    "wof:supersedes":[],
    "wof:tags":[]
},
  "bbox": [5.274209,51.640823,5.274209,51.640823],
  "geometry": {"coordinates":[5.274209,51.640823],"type":"Point"}
}