{
  "id": 269973379,
  "type": "Feature",
  "properties": {
    "edtf:cessation":"u",
    "edtf:inception":"u",
    "geom:area":0.0,
    "geom:bbox":"5.221255,51.374889,5.221255,51.374889",
    "geom:latitude":51.374889,
    "geom:longitude":5.221255,
    "iso:country":"NL",
    "sg:address":"Hendrik Consciencelaan 34",
    "sg:city":"Bladel",
    "sg:classifiers":[],
    "sg:orig_category":"Film-, Tv- And Videoproductie",
    "sg:owner":"simplegeo",
    "sg:phone":"+31 497 360 693",
    "sg:postcode":"5531 VD",
    "sg:province":"North Brabant",
    "src:geom":"simplegeo",
    "wof:belongsto":[
        85633337,
        101810317,
        85687035
    ],
    "wof:breaches":[],
    "wof:concordances":{
        "sg:id":"SG_3rZAB9Ikv1ZoxDS16tMUYM_51.374889_5.221255@1306269960"
    },
    "wof:country":"NL",
    "wof:geomhash":"d4d652a31acf88e9881e661c8cf3ee16",
    "wof:hierarchy":[
        {
            "continent_id":-1,
            "country_id":85633337,
            "locality_id":101810317,
            "neighbourhood_id":-1,
            "region_id":85687035,
            "venue_id":269973379
        }
    ],
    "wof:id":269973379,
    "wof:lastmodified":1449037592,
    "wof:name":"P A Kleijn",
    "wof:parent_id":-1,
    "wof:placetype":"venue",
    "wof:superseded_by":[],
    "wof:supersedes":[],
    "wof:tags":[]
},
  "bbox": [5.221255,51.374889,5.221255,51.374889],
  "geometry": {"coordinates":[5.221255,51.374889],"type":"Point"}
}