{
  "id": 269881189,
  "type": "Feature",
  "properties": {
    "edtf:cessation":"u",
    "edtf:inception":"u",
    "geom:area":0.0,
    "geom:bbox":"3.844621,51.738659,3.844621,51.738659",
    "geom:latitude":51.738659,
    "geom:longitude":3.844621,
    "iso:country":"NL",
    "sg:address":"Baken 40",
    "sg:city":"Scharendyke",
    "sg:classifiers":[],
    "sg:orig_category":"Fietsen En Bromfietsen",
    "sg:owner":"simplegeo",
    "sg:phone":"+31 111 671 327",
    "sg:postcode":"4322 AG",
    "sg:province":"Zeeland",
    "src:geom":"simplegeo",
    "wof:belongsto":[
        85633337,
        101808393,
        85687037
    ],
    "wof:breaches":[],
    "wof:concordances":{
        "sg:id":"SG_2wL52DiE5ZdwzzPxSd40Hc_51.738659_3.844621@1306269959"
    },
    "wof:country":"NL",
    "wof:geomhash":"487316965afe6c775ec0ac15c108731a",
    "wof:hierarchy":[
        {
            "continent_id":-1,
            "country_id":85633337,
            "locality_id":101808393,
            "neighbourhood_id":-1,
            "region_id":85687037,
            "venue_id":269881189
        }
    ],
    "wof:id":269881189,
    "wof:lastmodified":1449037541,
    "wof:name":"Dongen & Zn, Tweewielers A M Van",
    "wof:parent_id":-1,
    "wof:placetype":"venue",
    "wof:superseded_by":[],
    "wof:supersedes":[],
    "wof:tags":[]
},
  "bbox": [3.844621,51.738659,3.844621,51.738659],
  "geometry": {"coordinates":[3.844621,51.738659],"type":"Point"}
}