{
  "id": 270469671,
  "type": "Feature",
  "properties": {
    "edtf:cessation":"u",
    "edtf:inception":"u",
    "geom:area":0.0,
    "geom:bbox":"5.106063,51.554459,5.106063,51.554459",
    "geom:latitude":51.554459,
    "geom:longitude":5.106063,
    "iso:country":"NL",
    "sg:address":"Lourdesplein 1",
    "sg:city":"Tilburg",
    "sg:classifiers":[
        {
            "category":"Education",
            "subcategory":"Preschool",
            "type":"Public Place"
        }
    ],
    "sg:owner":"simplegeo",
    "sg:phone":"+31 13 542 3084",
    "sg:postcode":"5017 AK",
    "sg:province":"North Brabant",
    "sg:tags":[
        "kleuteronderwijs",
        "basis-"
    ],
    "src:geom":"simplegeo",
    "wof:belongsto":[
        85798343,
        85633337,
        85687035
    ],
    "wof:breaches":[],
    "wof:concordances":{
        "sg:id":"SG_58M9XCXB7cpdaTDobYbj1w_51.554459_5.106063@1306269966"
    },
    "wof:country":"NL",
    "wof:geomhash":"10f528d5c9a861873d74ffbe3b89adea",
    "wof:hierarchy":[
        {
            "continent_id":-1,
            "country_id":85633337,
            "locality_id":-1,
            "neighbourhood_id":85798343,
            "region_id":85687035,
            "venue_id":270469671
        }
    ],
    "wof:id":270469671,
    "wof:lastmodified":1449011153,
    "wof:name":"Andreasschool",
    "wof:parent_id":85798343,
    "wof:placetype":"venue",
    "wof:superseded_by":[],
    "wof:supersedes":[],
    "wof:tags":[
        "kleuteronderwijs",
        "basis-"
    ]
},
  "bbox": [5.106063,51.554459,5.106063,51.554459],
  "geometry": {"coordinates":[5.106063,51.554459],"type":"Point"}
}