{
  "id": 236337623,
  "type": "Feature",
  "properties": {
    "edtf:cessation":"u",
    "edtf:inception":"u",
    "geom:area":0.0,
    "geom:bbox":"4.42128,51.941422,4.42128,51.941422",
    "geom:latitude":51.941422,
    "geom:longitude":4.42128,
    "iso:country":"NL",
    "sg:address":"Delftwg 25",
    "sg:city":"Rotterdam",
    "sg:classifiers":[],
    "sg:orig_category":"Architecten En Architectenbureaus",
    "sg:owner":"simplegeo",
    "sg:phone":"+31 10 245 0012",
    "sg:postcode":"3043 CC",
    "sg:province":"Zuid-Holland",
    "src:geom":"simplegeo",
    "wof:belongsto":[
        85859761,
        85633337,
        101751843,
        85687041
    ],
    "wof:breaches":[],
    "wof:concordances":{
        "sg:id":"SG_0wgMsccbmHAak0N3VoySWs_51.941422_4.421280@1306269937"
    },
    "wof:country":"NL",
    "wof:geomhash":"4c4827dc6456cf83066680517d82a7c8",
    "wof:hierarchy":[
        {
            "continent_id":-1,
            "country_id":85633337,
            "locality_id":101751843,
            "neighbourhood_id":85859761,
            "region_id":85687041,
            "venue_id":236337623
        }
    ],
    "wof:id":236337623,
    "wof:lastmodified":1449003151,
    "wof:name":"Manintveld",
    "wof:parent_id":85859761,
    "wof:placetype":"venue",
    "wof:superseded_by":[],
    "wof:supersedes":[],
    "wof:tags":[]
},
  "bbox": [4.42128,51.941422,4.42128,51.941422],
  "geometry": {"coordinates":[4.42128,51.941422],"type":"Point"}
}