{
  "id": 320063235,
  "type": "Feature",
  "properties": {
    "edtf:cessation":"u",
    "edtf:inception":"u",
    "geom:area":0.0,
    "geom:bbox":"5.48069,51.990444,5.48069,51.990444",
    "geom:latitude":51.990444,
    "geom:longitude":5.48069,
    "iso:country":"NL",
    "sg:address":"Elsterstrwg 51",
    "sg:city":"Elst Ut",
    "sg:classifiers":[
        {
            "category":"Retail",
            "subcategory":"Auto Repair",
            "type":"Services"
        }
    ],
    "sg:owner":"simplegeo",
    "sg:phone":"+31 318 471 986",
    "sg:postcode":"3922 GE",
    "sg:province":"Utrecht",
    "sg:tags":[
        "garage"
    ],
    "src:geom":"simplegeo",
    "wof:belongsto":[
        85633337,
        101808451,
        85687039
    ],
    "wof:breaches":[],
    "wof:concordances":{
        "sg:id":"SG_2g7fIcQdyquqDuQmCDSnni_51.990444_5.480690@1306269994"
    },
    "wof:country":"NL",
    "wof:geomhash":"b737b18c177a972ded714261f9c5b0c5",
    "wof:hierarchy":[
        {
            "continent_id":-1,
            "country_id":85633337,
            "locality_id":101808451,
            "neighbourhood_id":-1,
            "region_id":85687039,
            "venue_id":320063235
        }
    ],
    "wof:id":320063235,
    "wof:lastmodified":1449011567,
    "wof:name":"Dam Jr Bv, D Van",
    "wof:parent_id":-1,
    "wof:placetype":"venue",
    "wof:superseded_by":[],
    "wof:supersedes":[],
    "wof:tags":[
        "garage"
    ]
},
  "bbox": [5.48069,51.990444,5.48069,51.990444],
  "geometry": {"coordinates":[5.48069,51.990444],"type":"Point"}
}