{
  "id": 252836179,
  "type": "Feature",
  "properties": {
    "edtf:cessation":"u",
    "edtf:inception":"u",
    "geom:area":0.0,
    "geom:bbox":"4.746927,51.617558,4.746927,51.617558",
    "geom:latitude":51.617558,
    "geom:longitude":4.746927,
    "iso:country":"NL",
    "sg:address":"Grensoord 3",
    "sg:city":"Breda",
    "sg:classifiers":[
        {
            "category":"Utilities",
            "subcategory":"Cable",
            "type":"Services"
        }
    ],
    "sg:owner":"simplegeo",
    "sg:phone":"+31 76 541 1242",
    "sg:postcode":"4824 LC",
    "sg:province":"Noord-Brabant",
    "sg:tags":[
        "masseur",
        "en",
        "heilgymnasten"
    ],
    "src:geom":"simplegeo",
    "wof:belongsto":[
        85797613,
        85633337,
        101751811,
        85687035
    ],
    "wof:breaches":[],
    "wof:concordances":{
        "sg:id":"SG_7LKHieErEcW1USE3cxVjqb_51.617558_4.746927@1306269944"
    },
    "wof:country":"NL",
    "wof:geomhash":"0d3e55402715c55044112ac54edf669c",
    "wof:hierarchy":[
        {
            "continent_id":-1,
            "country_id":85633337,
            "locality_id":101751811,
            "neighbourhood_id":85797613,
            "region_id":85687035,
            "venue_id":252836179
        }
    ],
    "wof:id":252836179,
    "wof:lastmodified":1449006122,
    "wof:name":"Zon Centrum, De",
    "wof:parent_id":85797613,
    "wof:placetype":"venue",
    "wof:superseded_by":[],
    "wof:supersedes":[],
    "wof:tags":[
        "masseur",
        "en",
        "heilgymnasten"
    ]
},
  "bbox": [4.746927,51.617558,4.746927,51.617558],
  "geometry": {"coordinates":[4.746927,51.617558],"type":"Point"}
}