{
  "id": 336811475,
  "type": "Feature",
  "properties": {
    "edtf:cessation":"u",
    "edtf:inception":"u",
    "geom:area":0.0,
    "geom:bbox":"6.80993,52.2943,6.80993,52.2943",
    "geom:latitude":52.2943,
    "geom:longitude":6.80993,
    "iso:country":"NL",
    "sg:address":"Brusselstraat 79",
    "sg:city":"Hengelo Ov",
    "sg:classifiers":[],
    "sg:orig_category":"Onderhoud And Reparatie Kantoorapparatuur",
    "sg:owner":"simplegeo",
    "sg:phone":"+31 74 277 3060",
    "sg:postcode":"7559 NW",
    "sg:province":"Overijssel",
    "src:geom":"simplegeo",
    "wof:belongsto":[
        85797623,
        85633337,
        101751869,
        85687045
    ],
    "wof:breaches":[],
    "wof:concordances":{
        "sg:id":"SG_7HtO3JxZKy9Fg1n6HrE1r3_52.294300_6.809930@1306270006"
    },
    "wof:country":"NL",
    "wof:geomhash":"e472ab7eaa7352ca2eca4ce27dc0e538",
    "wof:hierarchy":[
        {
            "continent_id":-1,
            "country_id":85633337,
            "locality_id":101751869,
            "neighbourhood_id":85797623,
            "region_id":85687045,
            "venue_id":336811475
        }
    ],
    "wof:id":336811475,
    "wof:lastmodified":1448997470,
    "wof:name":"Mno",
    "wof:parent_id":85797623,
    "wof:placetype":"venue",
    "wof:superseded_by":[],
    "wof:supersedes":[],
    "wof:tags":[]
},
  "bbox": [6.80993,52.2943,6.80993,52.2943],
  "geometry": {"coordinates":[6.80993,52.2943],"type":"Point"}
}