{
  "id": 303476785,
  "type": "Feature",
  "properties": {
    "edtf:cessation":"u",
    "edtf:inception":"u",
    "geom:area":0.0,
    "geom:bbox":"4.653204,51.822983,4.653204,51.822983",
    "geom:latitude":51.822983,
    "geom:longitude":4.653204,
    "iso:country":"NL",
    "sg:address":"Dollard 1",
    "sg:city":"Zwyndrecht",
    "sg:classifiers":[
        {
            "category":"Food & Beverages",
            "subcategory":"Candy",
            "type":"Retail Goods"
        }
    ],
    "sg:owner":"simplegeo",
    "sg:phone":"+31 78 620 9276",
    "sg:postcode":"3332 EE",
    "sg:province":"Zuid-Holland",
    "sg:tags":[
        "sport-",
        "en",
        "spelartikelen"
    ],
    "sg:website":"http://www.voorwinden.nl",
    "src:geom":"simplegeo",
    "wof:belongsto":[
        85798169,
        85633337,
        101754633,
        85687041
    ],
    "wof:breaches":[],
    "wof:concordances":{
        "sg:id":"SG_2GAVXnE9OREuICLJMgPfBN_51.822983_4.653204@1306269984"
    },
    "wof:country":"NL",
    "wof:geomhash":"d759d4c297a393939cf8ea626ae7c3fb",
    "wof:hierarchy":[
        {
            "continent_id":-1,
            "country_id":85633337,
            "locality_id":101754633,
            "neighbourhood_id":85798169,
            "region_id":85687041,
            "venue_id":303476785
        }
    ],
    "wof:id":303476785,
    "wof:lastmodified":1448999109,
    "wof:name":"Voorwinden",
    "wof:parent_id":85798169,
    "wof:placetype":"venue",
    "wof:superseded_by":[],
    "wof:supersedes":[],
    "wof:tags":[
        "sport-",
        "en",
        "spelartikelen"
    ]
},
  "bbox": [4.653204,51.822983,4.653204,51.822983],
  "geometry": {"coordinates":[4.653204,51.822983],"type":"Point"}
}