{
  "id": 303110719,
  "type": "Feature",
  "properties": {
    "edtf:cessation":"u",
    "edtf:inception":"u",
    "geom:area":0.0,
    "geom:bbox":"5.177239,52.693493,5.177239,52.693493",
    "geom:latitude":52.693493,
    "geom:longitude":5.177239,
    "iso:country":"NL",
    "sg:address":"Nieuweweg 15",
    "sg:city":"Hoogkarspel",
    "sg:classifiers":[
        {
            "category":"Bakery",
            "subcategory":"",
            "type":"Food & Drink"
        }
    ],
    "sg:owner":"simplegeo",
    "sg:phone":"+31 228 561 951",
    "sg:postcode":"1616 BA",
    "sg:province":"Noord-Holland",
    "sg:tags":[
        "brood",
        "banket"
    ],
    "src:geom":"simplegeo",
    "wof:belongsto":[
        85633337,
        101837927,
        85687053
    ],
    "wof:breaches":[],
    "wof:concordances":{
        "sg:id":"SG_24EOhZQ7pZ9jq8QD2cspY2_52.693493_5.177239@1306269980"
    },
    "wof:country":"NL",
    "wof:geomhash":"d9f11829f4ee6788df3aee99f6e8ca9f",
    "wof:hierarchy":[
        {
            "continent_id":-1,
            "country_id":85633337,
            "locality_id":101837927,
            "neighbourhood_id":-1,
            "region_id":85687053,
            "venue_id":303110719
        }
    ],
    "wof:id":303110719,
    "wof:lastmodified":1448998916,
    "wof:name":"Echte Bakker Ko En Trudy Koenis",
    "wof:parent_id":-1,
    "wof:placetype":"venue",
    "wof:superseded_by":[],
    "wof:supersedes":[],
    "wof:tags":[
        "brood",
        "banket"
    ]
},
  "bbox": [5.177239,52.693493,5.177239,52.693493],
  "geometry": {"coordinates":[5.177239,52.693493],"type":"Point"}
}