{
  "id": 202865047,
  "type": "Feature",
  "properties": {
    "edtf:cessation":"u",
    "edtf:inception":"u",
    "geom:area":0.0,
    "geom:bbox":"4.750339,52.006733,4.750339,52.006733",
    "geom:latitude":52.006733,
    "geom:longitude":4.750339,
    "iso:country":"NL",
    "sg:address":"Gasthuispolderwg 8",
    "sg:city":"Gouda",
    "sg:classifiers":[],
    "sg:orig_category":"Vertalers",
    "sg:owner":"simplegeo",
    "sg:phone":"+31 182 519 201",
    "sg:postcode":"2807 LL",
    "sg:province":"Zuid-Holland",
    "src:geom":"simplegeo",
    "wof:belongsto":[
        85797133,
        85633337,
        85687041
    ],
    "wof:breaches":[],
    "wof:concordances":{
        "sg:id":"SG_2HsEKqu4ZXJYbpk55cfee5_52.006733_4.750339@1306269919"
    },
    "wof:country":"NL",
    "wof:geomhash":"fb224aacac0e6314a897f533afecd8a9",
    "wof:hierarchy":[
        {
            "continent_id":-1,
            "country_id":85633337,
            "locality_id":-1,
            "neighbourhood_id":85797133,
            "region_id":85687041,
            "venue_id":202865047
        }
    ],
    "wof:id":202865047,
    "wof:lastmodified":1449062030,
    "wof:name":"Duijnstee",
    "wof:parent_id":85797133,
    "wof:placetype":"venue",
    "wof:superseded_by":[],
    "wof:supersedes":[],
    "wof:tags":[]
},
  "bbox": [4.750339,52.006733,4.750339,52.006733],
  "geometry": {"coordinates":[4.750339,52.006733],"type":"Point"}
}