{
  "id": 269818747,
  "type": "Feature",
  "properties": {
    "edtf:cessation":"u",
    "edtf:inception":"u",
    "geom:area":0.0,
    "geom:bbox":"5.134711,52.087448,5.134711,52.087448",
    "geom:latitude":52.087448,
    "geom:longitude":5.134711,
    "iso:country":"NL",
    "sg:address":"Oudwijkerdwarsstraat 105",
    "sg:city":"Utrecht",
    "sg:classifiers":[
        {
            "category":"Fast Food",
            "subcategory":"",
            "type":"Food & Drink"
        }
    ],
    "sg:owner":"simplegeo",
    "sg:phone":"+31 30 252 0455",
    "sg:postcode":"3581 LB",
    "sg:province":"Utrecht",
    "sg:tags":[
        "afhaal",
        "restaurant"
    ],
    "src:geom":"simplegeo",
    "wof:belongsto":[
        85798515,
        85633337,
        101751827,
        85687039
    ],
    "wof:breaches":[],
    "wof:concordances":{
        "sg:id":"SG_2FL1UktDHi6EMKZxKsS7Tp_52.087448_5.134711@1306269958"
    },
    "wof:country":"NL",
    "wof:geomhash":"67506a096e9086a645f215e247e0b966",
    "wof:hierarchy":[
        {
            "continent_id":-1,
            "country_id":85633337,
            "locality_id":101751827,
            "neighbourhood_id":85798515,
            "region_id":85687039,
            "venue_id":269818747
        }
    ],
    "wof:id":269818747,
    "wof:lastmodified":1449037312,
    "wof:name":"Chinees-Indisch Eethuis Ying Bin",
    "wof:parent_id":85798515,
    "wof:placetype":"venue",
    "wof:superseded_by":[],
    "wof:supersedes":[],
    "wof:tags":[
        "afhaal",
        "restaurant"
    ]
},
  "bbox": [5.134711,52.087448,5.134711,52.087448],
  "geometry": {"coordinates":[5.134711,52.087448],"type":"Point"}
}