{
  "id": 320741071,
  "type": "Feature",
  "properties": {
    "edtf:cessation":"u",
    "edtf:inception":"u",
    "geom:area":0.0,
    "geom:bbox":"5.181387,52.737541,5.181387,52.737541",
    "geom:latitude":52.737541,
    "geom:longitude":5.181387,
    "iso:country":"NL",
    "sg:address":"Kleingouw 183",
    "sg:city":"Andijk",
    "sg:classifiers":[],
    "sg:orig_category":"Zuivelproducten And Spijsoli?n Gh",
    "sg:owner":"simplegeo",
    "sg:phone":"+31 228 591 352",
    "sg:postcode":"1619 CJ",
    "sg:province":"North Holland",
    "src:geom":"simplegeo",
    "wof:belongsto":[
        85633337,
        101807357,
        85687053
    ],
    "wof:breaches":[],
    "wof:concordances":{
        "sg:id":"SG_67BRr9MdBEn2OHSeAOgLHK_52.737541_5.181387@1306270002"
    },
    "wof:country":"NL",
    "wof:geomhash":"3f94ec2488a055f46c02015b8f2967ca",
    "wof:hierarchy":[
        {
            "continent_id":-1,
            "country_id":85633337,
            "locality_id":101807357,
            "neighbourhood_id":-1,
            "region_id":85687053,
            "venue_id":320741071
        }
    ],
    "wof:id":320741071,
    "wof:lastmodified":1449011450,
    "wof:name":"Eierhandel Rood Reus",
    "wof:parent_id":-1,
    "wof:placetype":"venue",
    "wof:superseded_by":[],
    "wof:supersedes":[],
    "wof:tags":[]
},
  "bbox": [5.181387,52.737541,5.181387,52.737541],
  "geometry": {"coordinates":[5.181387,52.737541],"type":"Point"}
}