{
  "id": 236648365,
  "type": "Feature",
  "properties": {
    "edtf:cessation":"u",
    "edtf:inception":"u",
    "geom:area":0.0,
    "geom:bbox":"4.581469,51.960533,4.581469,51.960533",
    "geom:latitude":51.960533,
    "geom:longitude":4.581469,
    "iso:country":"NL",
    "sg:address":"Essebaan 2",
    "sg:city":"Capelle A/D Ijssel",
    "sg:classifiers":[],
    "sg:orig_category":"Autokeuringen",
    "sg:owner":"simplegeo",
    "sg:phone":"+31 10 450 8500",
    "sg:postcode":"2908 LK",
    "sg:province":"Zuid-Holland",
    "src:geom":"simplegeo",
    "wof:belongsto":[
        85798779,
        85633337,
        101752769,
        85687041
    ],
    "wof:breaches":[],
    "wof:concordances":{
        "sg:id":"SG_14Dju9ilHt66fXATYLBs10_51.960533_4.581469@1306269939"
    },
    "wof:country":"NL",
    "wof:geomhash":"74a81a0c18fc46c8c22bc615b01c51f5",
    "wof:hierarchy":[
        {
            "continent_id":-1,
            "country_id":85633337,
            "locality_id":101752769,
            "neighbourhood_id":85798779,
            "region_id":85687041,
            "venue_id":236648365
        }
    ],
    "wof:id":236648365,
    "wof:lastmodified":1449002363,
    "wof:name":"Van As Autoschade Capelle Bv",
    "wof:parent_id":85798779,
    "wof:placetype":"venue",
    "wof:superseded_by":[],
    "wof:supersedes":[],
    "wof:tags":[]
},
  "bbox": [4.581469,51.960533,4.581469,51.960533],
  "geometry": {"coordinates":[4.581469,51.960533],"type":"Point"}
}