{
  "id": 286938605,
  "type": "Feature",
  "properties": {
    "edtf:cessation":"u",
    "edtf:inception":"u",
    "geom:area":0.0,
    "geom:bbox":"5.616283,51.933224,5.616283,51.933224",
    "geom:latitude":51.933224,
    "geom:longitude":5.616283,
    "iso:country":"NL",
    "sg:address":"In 'T Land 21",
    "sg:city":"Opheusden",
    "sg:classifiers":[],
    "sg:orig_category":"Bloemen And Planten",
    "sg:owner":"simplegeo",
    "sg:phone":"+31 488 441 369",
    "sg:postcode":"4043 JM",
    "sg:province":"Gelderland",
    "src:geom":"simplegeo",
    "wof:belongsto":[
        85633337,
        85687043
    ],
    "wof:breaches":[],
    "wof:concordances":{
        "sg:id":"SG_0F77iJotM1wSNt3E5Icu4K_51.933224_5.616283@1306269975"
    },
    "wof:country":"NL",
    "wof:geomhash":"ee982e9ec903a28be8d6c3e23f193a62",
    "wof:hierarchy":[
        {
            "continent_id":-1,
            "country_id":85633337,
            "locality_id":-1,
            "neighbourhood_id":-1,
            "region_id":85687043,
            "venue_id":286938605
        }
    ],
    "wof:id":286938605,
    "wof:lastmodified":1449017373,
    "wof:name":"Handelskwekerij De Haar Bv",
    "wof:parent_id":-1,
    "wof:placetype":"venue",
    "wof:superseded_by":[],
    "wof:supersedes":[],
    "wof:tags":[]
},
  "bbox": [5.616283,51.933224,5.616283,51.933224],
  "geometry": {"coordinates":[5.616283,51.933224],"type":"Point"}
}