{
  "id": 236616321,
  "type": "Feature",
  "properties": {
    "edtf:cessation":"u",
    "edtf:inception":"u",
    "geom:area":0.0,
    "geom:bbox":"4.5416,51.853523,4.5416,51.853523",
    "geom:latitude":51.853523,
    "geom:longitude":4.5416,
    "iso:country":"NL",
    "sg:address":"Lindehoevelaan 13",
    "sg:city":"Barendrecht",
    "sg:classifiers":[],
    "sg:orig_category":"Autokeuringen",
    "sg:owner":"simplegeo",
    "sg:phone":"+31 180 620 093",
    "sg:postcode":"2991 EL",
    "sg:province":"Zuid-Holland",
    "src:geom":"simplegeo",
    "wof:belongsto":[
        85797731,
        85633337,
        101754615,
        85687041
    ],
    "wof:breaches":[],
    "wof:concordances":{
        "sg:id":"SG_4nvFABRuMc5UYwE8wFSoMF_51.853523_4.541600@1306269939"
    },
    "wof:country":"NL",
    "wof:geomhash":"d45a3e9c774c69bffc871a49e3c27da8",
    "wof:hierarchy":[
        {
            "continent_id":-1,
            "country_id":85633337,
            "locality_id":101754615,
            "neighbourhood_id":85797731,
            "region_id":85687041,
            "venue_id":236616321
        }
    ],
    "wof:id":236616321,
    "wof:lastmodified":1449004188,
    "wof:name":"M. Van Der Jagt Garagebedrijf",
    "wof:parent_id":85797731,
    "wof:placetype":"venue",
    "wof:superseded_by":[],
    "wof:supersedes":[],
    "wof:tags":[]
},
  "bbox": [4.5416,51.853523,4.5416,51.853523],
  "geometry": {"coordinates":[4.5416,51.853523],"type":"Point"}
}