{
  "id": 236639165,
  "type": "Feature",
  "properties": {
    "edtf:cessation":"u",
    "edtf:inception":"u",
    "geom:area":0.0,
    "geom:bbox":"4.903792,52.357693,4.903792,52.357693",
    "geom:latitude":52.357693,
    "geom:longitude":4.903792,
    "iso:country":"NL",
    "sg:address":"Govert Flinckstraat 412",
    "sg:city":"Amsterdam",
    "sg:classifiers":[],
    "sg:orig_category":"Autokeuringen",
    "sg:owner":"simplegeo",
    "sg:phone":"+31 20 671 8811",
    "sg:postcode":"1074 CJ",
    "sg:province":"Noord-Holland",
    "src:geom":"simplegeo",
    "wof:belongsto":[
        85797363,
        85633337,
        101751893,
        85687053
    ],
    "wof:breaches":[],
    "wof:concordances":{
        "sg:id":"SG_79rRfFqH9Vu46S0iXeejax_52.357693_4.903792@1306269939"
    },
    "wof:country":"NL",
    "wof:geomhash":"78fcc1fad07758091f9afc3b140cec9c",
    "wof:hierarchy":[
        {
            "continent_id":-1,
            "country_id":85633337,
            "locality_id":101751893,
            "neighbourhood_id":85797363,
            "region_id":85687053,
            "venue_id":236639165
        }
    ],
    "wof:id":236639165,
    "wof:lastmodified":1449005234,
    "wof:name":"Scuderia Ranieri",
    "wof:parent_id":85797363,
    "wof:placetype":"venue",
    "wof:superseded_by":[],
    "wof:supersedes":[],
    "wof:tags":[]
},
  "bbox": [4.903792,52.357693,4.903792,52.357693],
  "geometry": {"coordinates":[4.903792,52.357693],"type":"Point"}
}