{
  "id": 286452805,
  "type": "Feature",
  "properties": {
    "edtf:cessation":"u",
    "edtf:inception":"u",
    "geom:area":0.0,
    "geom:bbox":"6.7426,52.167007,6.7426,52.167007",
    "geom:latitude":52.167007,
    "geom:longitude":6.7426,
    "iso:country":"NL",
    "sg:address":"Pijperstr 9",
    "sg:city":"Haaksbergen",
    "sg:classifiers":[],
    "sg:orig_category":"Bedrijfsopleidingen",
    "sg:owner":"simplegeo",
    "sg:phone":"+31 53 572 3385",
    "sg:postcode":"7482 AK",
    "sg:province":"Overijssel",
    "src:geom":"simplegeo",
    "wof:belongsto":[
        85633337,
        101807203,
        85687045
    ],
    "wof:breaches":[],
    "wof:concordances":{
        "sg:id":"SG_33qJKB0PAUd2kH8FpRIJHd_52.167007_6.742600@1306269969"
    },
    "wof:country":"NL",
    "wof:geomhash":"c43ce69ce3aa2ac94ee66bb0afb4368e",
    "wof:hierarchy":[
        {
            "continent_id":-1,
            "country_id":85633337,
            "locality_id":101807203,
            "neighbourhood_id":-1,
            "region_id":85687045,
            "venue_id":286452805
        }
    ],
    "wof:id":286452805,
    "wof:lastmodified":1449015853,
    "wof:name":"Spiegel Bv De",
    "wof:parent_id":-1,
    "wof:placetype":"venue",
    "wof:superseded_by":[],
    "wof:supersedes":[],
    "wof:tags":[]
},
  "bbox": [6.7426,52.167007,6.7426,52.167007],
  "geometry": {"coordinates":[6.7426,52.167007],"type":"Point"}
}