{
  "id": 253145449,
  "type": "Feature",
  "properties": {
    "edtf:cessation":"u",
    "edtf:inception":"u",
    "geom:area":0.0,
    "geom:bbox":"6.082505,51.93951,6.082505,51.93951",
    "geom:latitude":51.93951,
    "geom:longitude":6.082505,
    "iso:country":"NL",
    "sg:address":"Voltastr 51",
    "sg:city":"Zevenaar",
    "sg:classifiers":[],
    "sg:orig_category":"Meubelen",
    "sg:owner":"simplegeo",
    "sg:phone":"+31 316 331 497",
    "sg:postcode":"6902 PT",
    "sg:province":"Gelderland",
    "src:geom":"simplegeo",
    "wof:belongsto":[
        85798461,
        85633337,
        101809869,
        85687043
    ],
    "wof:breaches":[],
    "wof:concordances":{
        "sg:id":"SG_2uYUEhSEYey8f8XKbRaGbX_51.939510_6.082505@1306269946"
    },
    "wof:country":"NL",
    "wof:geomhash":"239722eb2b6d8a748a9002174c28cd90",
    "wof:hierarchy":[
        {
            "continent_id":-1,
            "country_id":85633337,
            "locality_id":101809869,
            "neighbourhood_id":85798461,
            "region_id":85687043,
            "venue_id":253145449
        }
    ],
    "wof:id":253145449,
    "wof:lastmodified":1449063720,
    "wof:name":"Oosterhoff",
    "wof:parent_id":85798461,
    "wof:placetype":"venue",
    "wof:superseded_by":[],
    "wof:supersedes":[],
    "wof:tags":[]
},
  "bbox": [6.082505,51.93951,6.082505,51.93951],
  "geometry": {"coordinates":[6.082505,51.93951],"type":"Point"}
}