{
  "id": 320838803,
  "type": "Feature",
  "properties": {
    "edtf:cessation":"u",
    "edtf:inception":"u",
    "geom:area":0.0,
    "geom:bbox":"5.11937,52.252048,5.11937,52.252048",
    "geom:latitude":52.252048,
    "geom:longitude":5.11937,
    "iso:country":"NL",
    "sg:address":"Cannenburgerwg 37",
    "sg:city":"Ankeveen",
    "sg:classifiers":[],
    "sg:orig_category":"Juridische Adviseurs",
    "sg:owner":"simplegeo",
    "sg:phone":"+31 35 656 4951",
    "sg:postcode":"1244 RG",
    "sg:province":"Noord-Holland",
    "src:geom":"simplegeo",
    "wof:belongsto":[
        85798667,
        85633337,
        85687053
    ],
    "wof:breaches":[],
    "wof:concordances":{
        "sg:id":"SG_3moe8BxNzLR8mVQurUDvUZ_52.252048_5.119370@1306270003"
    },
    "wof:country":"NL",
    "wof:geomhash":"4cdd9079ba68076120f125566cd80585",
    "wof:hierarchy":[
        {
            "continent_id":-1,
            "country_id":85633337,
            "locality_id":-1,
            "neighbourhood_id":85798667,
            "region_id":85687053,
            "venue_id":320838803
        }
    ],
    "wof:id":320838803,
    "wof:lastmodified":1449011704,
    "wof:name":"Recht En Respect",
    "wof:parent_id":85798667,
    "wof:placetype":"venue",
    "wof:superseded_by":[],
    "wof:supersedes":[],
    "wof:tags":[]
},
  "bbox": [5.11937,52.252048,5.11937,52.252048],
  "geometry": {"coordinates":[5.11937,52.252048],"type":"Point"}
}