{
  "id": 286410653,
  "type": "Feature",
  "properties": {
    "edtf:cessation":"u",
    "edtf:inception":"u",
    "geom:area":0.0,
    "geom:bbox":"5.786548,51.464748,5.786548,51.464748",
    "geom:latitude":51.464748,
    "geom:longitude":5.786548,
    "iso:country":"NL",
    "sg:address":"Zandboswg 90",
    "sg:city":"Deurne",
    "sg:classifiers":[],
    "sg:orig_category":"Bedrijfskleding",
    "sg:owner":"simplegeo",
    "sg:phone":"+31 493 321 117",
    "sg:postcode":"5751 CH",
    "sg:province":"North Brabant",
    "src:geom":"simplegeo",
    "wof:belongsto":[
        85798619,
        85633337,
        85687035
    ],
    "wof:breaches":[],
    "wof:concordances":{
        "sg:id":"SG_7WK3XNVn6LaSaD5KJ1JrsM_51.464748_5.786548@1306269968"
    },
    "wof:country":"NL",
    "wof:geomhash":"4ff026ab62495fb3938289c866e1f757",
    "wof:hierarchy":[
        {
            "continent_id":-1,
            "country_id":85633337,
            "locality_id":-1,
            "neighbourhood_id":85798619,
            "region_id":85687035,
            "venue_id":286410653
        }
    ],
    "wof:id":286410653,
    "wof:lastmodified":1449015200,
    "wof:name":"Srs",
    "wof:parent_id":85798619,
    "wof:placetype":"venue",
    "wof:superseded_by":[],
    "wof:supersedes":[],
    "wof:tags":[]
},
  "bbox": [5.786548,51.464748,5.786548,51.464748],
  "geometry": {"coordinates":[5.786548,51.464748],"type":"Point"}
}