{
  "id": 185848599,
  "type": "Feature",
  "properties": {
    "edtf:cessation":"u",
    "edtf:inception":"u",
    "geom:area":0.0,
    "geom:bbox":"5.67574,51.601097,5.67574,51.601097",
    "geom:latitude":51.601097,
    "geom:longitude":5.67574,
    "iso:country":"NL",
    "sg:address":"Kerkstr 57",
    "sg:city":"Boekel",
    "sg:classifiers":[],
    "sg:orig_category":"Kinderkleding",
    "sg:owner":"simplegeo",
    "sg:phone":"+31 492 321 266",
    "sg:postcode":"5427 BB",
    "sg:province":"Noord-Brabant",
    "src:geom":"simplegeo",
    "wof:belongsto":[
        85633337,
        101808169,
        85687035
    ],
    "wof:breaches":[],
    "wof:concordances":{
        "sg:id":"SG_0P9MoBzZ1a8FQMvg1nUlaL_51.601097_5.675740@1306269908"
    },
    "wof:country":"NL",
    "wof:geomhash":"5f097f035a1810eed5c1daa9da78e9c8",
    "wof:hierarchy":[
        {
            "continent_id":-1,
            "country_id":85633337,
            "locality_id":101808169,
            "neighbourhood_id":-1,
            "region_id":85687035,
            "venue_id":185848599
        }
    ],
    "wof:id":185848599,
    "wof:lastmodified":1449006831,
    "wof:name":"Maaike",
    "wof:parent_id":-1,
    "wof:placetype":"venue",
    "wof:superseded_by":[],
    "wof:supersedes":[],
    "wof:tags":[]
},
  "bbox": [5.67574,51.601097,5.67574,51.601097],
  "geometry": {"coordinates":[5.67574,51.601097],"type":"Point"}
}