{
  "id": 236100027,
  "type": "Feature",
  "properties": {
    "edtf:cessation":"u",
    "edtf:inception":"u",
    "geom:area":0.0,
    "geom:bbox":"5.991512,51.190948,5.991512,51.190948",
    "geom:latitude":51.190948,
    "geom:longitude":5.991512,
    "iso:country":"NL",
    "sg:address":"Willem Ii Singel 18",
    "sg:city":"Roermond",
    "sg:classifiers":[],
    "sg:orig_category":"Technische Studies And Onderzoek",
    "sg:owner":"simplegeo",
    "sg:phone":"+31 475 310 140",
    "sg:postcode":"6041 HS",
    "sg:province":"Limburg",
    "src:geom":"simplegeo",
    "wof:belongsto":[
        85797971,
        85633337,
        101839309,
        85687033
    ],
    "wof:breaches":[],
    "wof:concordances":{
        "sg:id":"SG_5zjqXnStiBRNfv6MJXqeGw_51.190948_5.991512@1306269934"
    },
    "wof:country":"NL",
    "wof:geomhash":"0d243c33b3b4aad049274a8a2832fb6f",
    "wof:hierarchy":[
        {
            "continent_id":-1,
            "country_id":85633337,
            "locality_id":101839309,
            "neighbourhood_id":85797971,
            "region_id":85687033,
            "venue_id":236100027
        }
    ],
    "wof:id":236100027,
    "wof:lastmodified":1449004213,
    "wof:name":"R.F.W. Van Ratingen Bv",
    "wof:parent_id":85797971,
    "wof:placetype":"venue",
    "wof:superseded_by":[],
    "wof:supersedes":[],
    "wof:tags":[]
},
  "bbox": [5.991512,51.190948,5.991512,51.190948],
  "geometry": {"coordinates":[5.991512,51.190948],"type":"Point"}
}