{
  "id": 236118971,
  "type": "Feature",
  "properties": {
    "edtf:cessation":"u",
    "edtf:inception":"u",
    "geom:area":0.0,
    "geom:bbox":"5.117857,52.095291,5.117857,52.095291",
    "geom:latitude":52.095291,
    "geom:longitude":5.117857,
    "iso:country":"NL",
    "sg:address":"Predikherenkerkh 8",
    "sg:city":"Utrecht",
    "sg:classifiers":[],
    "sg:orig_category":"Tekstschrijversters",
    "sg:owner":"simplegeo",
    "sg:phone":"+31 30 234 1873",
    "sg:postcode":"3512 TK",
    "sg:province":"Utrecht",
    "src:geom":"simplegeo",
    "wof:belongsto":[
        85798515,
        85633337,
        101751827,
        85687039
    ],
    "wof:breaches":[],
    "wof:concordances":{
        "sg:id":"SG_5stZWI58OUb4mLi1jRa3QT_52.095291_5.117857@1306269934"
    },
    "wof:country":"NL",
    "wof:geomhash":"88ce54bf8585a0575999c23deeda77ad",
    "wof:hierarchy":[
        {
            "continent_id":-1,
            "country_id":85633337,
            "locality_id":101751827,
            "neighbourhood_id":85798515,
            "region_id":85687039,
            "venue_id":236118971
        }
    ],
    "wof:id":236118971,
    "wof:lastmodified":1449004491,
    "wof:name":"Maf",
    "wof:parent_id":85798515,
    "wof:placetype":"venue",
    "wof:superseded_by":[],
    "wof:supersedes":[],
    "wof:tags":[]
},
  "bbox": [5.117857,52.095291,5.117857,52.095291],
  "geometry": {"coordinates":[5.117857,52.095291],"type":"Point"}
}