{
  "id": 236379533,
  "type": "Feature",
  "properties": {
    "edtf:cessation":"u",
    "edtf:inception":"u",
    "geom:area":0.0,
    "geom:bbox":"5.718979,50.844776,5.718979,50.844776",
    "geom:latitude":50.844776,
    "geom:longitude":5.718979,
    "iso:country":"NL",
    "sg:address":"Sibemaweg 35",
    "sg:city":"Maastricht",
    "sg:classifiers":[],
    "sg:orig_category":"Architecten",
    "sg:owner":"simplegeo",
    "sg:phone":"+31 43 363 4284",
    "sg:postcode":"6224 DA",
    "sg:province":"Limburg",
    "src:geom":"simplegeo",
    "wof:belongsto":[
        85797631,
        85633337,
        85687033
    ],
    "wof:breaches":[],
    "wof:concordances":{
        "sg:id":"SG_5PYAoe0zKN639XHidp9gWD_50.844776_5.718979@1306269937"
    },
    "wof:country":"NL",
    "wof:geomhash":"b2174f7c8a5f655336876aa3e359a0b5",
    "wof:hierarchy":[
        {
            "continent_id":-1,
            "country_id":85633337,
            "locality_id":-1,
            "neighbourhood_id":85797631,
            "region_id":85687033,
            "venue_id":236379533
        }
    ],
    "wof:id":236379533,
    "wof:lastmodified":1449003586,
    "wof:name":"Adviesburo Verkeerseducatie Evert Brouwe",
    "wof:parent_id":85797631,
    "wof:placetype":"venue",
    "wof:superseded_by":[],
    "wof:supersedes":[],
    "wof:tags":[]
},
  "bbox": [5.718979,50.844776,5.718979,50.844776],
  "geometry": {"coordinates":[5.718979,50.844776],"type":"Point"}
}