{
  "id": 286309651,
  "type": "Feature",
  "properties": {
    "edtf:cessation":"u",
    "edtf:inception":"u",
    "geom:area":0.0,
    "geom:bbox":"5.051336,51.687778,5.051336,51.687778",
    "geom:latitude":51.687778,
    "geom:longitude":5.051336,
    "iso:country":"NL",
    "sg:address":"Hollandsestraat 8",
    "sg:city":"Waalwijk",
    "sg:classifiers":[
        {
            "category":"Education",
            "subcategory":"Preschool",
            "type":"Public Place"
        }
    ],
    "sg:owner":"simplegeo",
    "sg:phone":"+31 416 334 124",
    "sg:postcode":"5141 HG",
    "sg:province":"Noord-Brabant",
    "sg:tags":[
        "kleuteronderwijs",
        "basis-"
    ],
    "src:geom":"simplegeo",
    "wof:belongsto":[
        85633337,
        101839421,
        85687035
    ],
    "wof:breaches":[],
    "wof:concordances":{
        "sg:id":"SG_1IDoTnMwRjDapLFE4zv1eL_51.687778_5.051336@1306269967"
    },
    "wof:country":"NL",
    "wof:geomhash":"43de352f0d964ffbd694612275425d6f",
    "wof:hierarchy":[
        {
            "continent_id":-1,
            "country_id":85633337,
            "locality_id":101839421,
            "neighbourhood_id":-1,
            "region_id":85687035,
            "venue_id":286309651
        }
    ],
    "wof:id":286309651,
    "wof:lastmodified":1449015825,
    "wof:name":"Prot Chr Basisschool Oranje Nassau",
    "wof:parent_id":-1,
    "wof:placetype":"venue",
    "wof:superseded_by":[],
    "wof:supersedes":[],
    "wof:tags":[
        "kleuteronderwijs",
        "basis-"
    ]
},
  "bbox": [5.051336,51.687778,5.051336,51.687778],
  "geometry": {"coordinates":[5.051336,51.687778],"type":"Point"}
}