{
  "id": 320091639,
  "type": "Feature",
  "properties": {
    "edtf:cessation":"u",
    "edtf:inception":"u",
    "geom:area":0.0,
    "geom:bbox":"4.398756,51.539593,4.398756,51.539593",
    "geom:latitude":51.539593,
    "geom:longitude":4.398756,
    "iso:country":"NL",
    "sg:address":"Kruislandsewg 18",
    "sg:city":"Wouw",
    "sg:classifiers":[
        {
            "category":"Retail",
            "subcategory":"Auto Repair",
            "type":"Services"
        }
    ],
    "sg:owner":"simplegeo",
    "sg:phone":"+31 165 302 230",
    "sg:postcode":"4724 SM",
    "sg:province":"Noord-Brabant",
    "sg:tags":[
        "garage"
    ],
    "src:geom":"simplegeo",
    "wof:belongsto":[
        85633337,
        85687035
    ],
    "wof:breaches":[],
    "wof:concordances":{
        "sg:id":"SG_7iZePjwkAVqCyy2LOBqkpO_51.539593_4.398756@1306269994"
    },
    "wof:country":"NL",
    "wof:geomhash":"b9ee6c991a146f8f32171948adc75376",
    "wof:hierarchy":[
        {
            "continent_id":-1,
            "country_id":85633337,
            "locality_id":-1,
            "neighbourhood_id":-1,
            "region_id":85687035,
            "venue_id":320091639
        }
    ],
    "wof:id":320091639,
    "wof:lastmodified":1449011612,
    "wof:name":"Meer, A Van",
    "wof:parent_id":-1,
    "wof:placetype":"venue",
    "wof:superseded_by":[],
    "wof:supersedes":[],
    "wof:tags":[
        "garage"
    ]
},
  "bbox": [4.398756,51.539593,4.398756,51.539593],
  "geometry": {"coordinates":[4.398756,51.539593],"type":"Point"}
}