{
  "id": 336651457,
  "type": "Feature",
  "properties": {
    "edtf:cessation":"u",
    "edtf:inception":"u",
    "geom:area":0.0,
    "geom:bbox":"5.576315,51.957336,5.576315,51.957336",
    "geom:latitude":51.957336,
    "geom:longitude":5.576315,
    "iso:country":"NL",
    "sg:address":"Herenstr 108",
    "sg:city":"Rhenen",
    "sg:classifiers":[],
    "sg:orig_category":"Accountants - Administratie- Consulenten En -Kantoren",
    "sg:owner":"simplegeo",
    "sg:phone":"+31 317 619 125",
    "sg:postcode":"3911 JH",
    "sg:province":"Utrecht",
    "sg:website":"http://www.boschland.nl",
    "src:geom":"simplegeo",
    "wof:belongsto":[
        85633337,
        101809835,
        85687039
    ],
    "wof:breaches":[],
    "wof:concordances":{
        "sg:id":"SG_5RicuKTJGeB4pbdAPxV3El_51.957336_5.576315@1306270004"
    },
    "wof:country":"NL",
    "wof:geomhash":"877821bc00c8247054bdb6b7717e91c3",
    "wof:hierarchy":[
        {
            "continent_id":-1,
            "country_id":85633337,
            "locality_id":101809835,
            "neighbourhood_id":-1,
            "region_id":85687039,
            "venue_id":336651457
        }
    ],
    "wof:id":336651457,
    "wof:lastmodified":1448997160,
    "wof:name":"Boschland",
    "wof:parent_id":-1,
    "wof:placetype":"venue",
    "wof:superseded_by":[],
    "wof:supersedes":[],
    "wof:tags":[]
},
  "bbox": [5.576315,51.957336,5.576315,51.957336],
  "geometry": {"coordinates":[5.576315,51.957336],"type":"Point"}
}