{
  "id": 202530765,
  "type": "Feature",
  "properties": {
    "edtf:cessation":"u",
    "edtf:inception":"u",
    "geom:area":0.0,
    "geom:bbox":"5.03685,52.450157,5.03685,52.450157",
    "geom:latitude":52.450157,
    "geom:longitude":5.03685,
    "iso:country":"NL",
    "sg:address":"T Spil 34",
    "sg:city":"Monnickendam",
    "sg:classifiers":[
        {
            "category":"Communications",
            "subcategory":"Television Station",
            "type":"Services"
        }
    ],
    "sg:owner":"simplegeo",
    "sg:phone":"+31 299 656 901",
    "sg:postcode":"1141 SG",
    "sg:province":"Noord-Holland",
    "sg:tags":[
        "video",
        "audio",
        "verhuur"
    ],
    "src:geom":"simplegeo",
    "wof:belongsto":[
        85798047,
        85633337,
        85687053
    ],
    "wof:breaches":[],
    "wof:concordances":{
        "sg:id":"SG_0GCAXn6xqc62nmQsBiSRE9_52.450157_5.036850@1306269916"
    },
    "wof:country":"NL",
    "wof:geomhash":"0e8d9ccab6cec0bc32edefe1ffc2d7ef",
    "wof:hierarchy":[
        {
            "continent_id":-1,
            "country_id":85633337,
            "locality_id":-1,
            "neighbourhood_id":85798047,
            "region_id":85687053,
            "venue_id":202530765
        }
    ],
    "wof:id":202530765,
    "wof:lastmodified":1449061462,
    "wof:name":"Videoland Monnickendam",
    "wof:parent_id":85798047,
    "wof:placetype":"venue",
    "wof:superseded_by":[],
    "wof:supersedes":[],
    "wof:tags":[
        "video",
        "audio",
        "verhuur"
    ]
},
  "bbox": [5.03685,52.450157,5.03685,52.450157],
  "geometry": {"coordinates":[5.03685,52.450157],"type":"Point"}
}