{
  "id": 270171667,
  "type": "Feature",
  "properties": {
    "edtf:cessation":"u",
    "edtf:inception":"u",
    "geom:area":0.0,
    "geom:bbox":"5.689252,50.848675,5.689252,50.848675",
    "geom:latitude":50.848675,
    "geom:longitude":5.689252,
    "iso:country":"NL",
    "sg:address":"Platielstr 23",
    "sg:city":"Maastricht",
    "sg:classifiers":[],
    "sg:orig_category":"Fotopersbureaus",
    "sg:owner":"simplegeo",
    "sg:phone":"+31 43 350 0525",
    "sg:postcode":"6211 GV",
    "sg:province":"Limburg",
    "src:geom":"simplegeo",
    "wof:belongsto":[
        85798687,
        85633337,
        101751803,
        85687033
    ],
    "wof:breaches":[],
    "wof:concordances":{
        "sg:id":"SG_0ridhnCVi0se2Kh1hl3KFM_50.848675_5.689252@1306269962"
    },
    "wof:country":"NL",
    "wof:geomhash":"2ccec7757a7b42537088fb6e3002deb0",
    "wof:hierarchy":[
        {
            "continent_id":-1,
            "country_id":85633337,
            "locality_id":101751803,
            "neighbourhood_id":85798687,
            "region_id":85687033,
            "venue_id":270171667
        }
    ],
    "wof:id":270171667,
    "wof:lastmodified":1449011126,
    "wof:name":"Mellaart Vof, Paul",
    "wof:parent_id":85798687,
    "wof:placetype":"venue",
    "wof:superseded_by":[],
    "wof:supersedes":[],
    "wof:tags":[]
},
  "bbox": [5.689252,50.848675,5.689252,50.848675],
  "geometry": {"coordinates":[5.689252,50.848675],"type":"Point"}
}