{
  "id": 287009115,
  "type": "Feature",
  "properties": {
    "edtf:cessation":"u",
    "edtf:inception":"u",
    "geom:area":0.0,
    "geom:bbox":"-77.241432,38.151344,-77.241432,38.151344",
    "geom:latitude":38.151344,
    "geom:longitude":-77.241432,
    "iso:country":"NL",
    "sg:address":"Griftdk Z 109",
    "sg:city":"Lent",
    "sg:classifiers":[],
    "sg:orig_category":"Bloemen En Planten - Groothandel",
    "sg:owner":"simplegeo",
    "sg:phone":"+31 24 323 6046",
    "sg:postcode":"6663 BD",
    "sg:province":"Gelderland",
    "src:geom":"simplegeo",
    "wof:belongsto":[
        85633793,
        85688747
    ],
    "wof:breaches":[],
    "wof:concordances":{
        "sg:id":"SG_5mYdWPLBlilkkEl2Atqjo4_38.151344_-77.241432@1306269975"
    },
    "wof:country":"NL",
    "wof:geomhash":"f3e3a7de053cf8117c72efd7f8075ed4",
    "wof:hierarchy":[
        {
            "continent_id":-1,
            "country_id":85633793,
            "locality_id":-1,
            "neighbourhood_id":-1,
            "region_id":85688747,
            "venue_id":287009115
        }
    ],
    "wof:id":287009115,
    "wof:lastmodified":1449001580,
    "wof:name":"Mtog",
    "wof:parent_id":-1,
    "wof:placetype":"venue",
    "wof:superseded_by":[],
    "wof:supersedes":[],
    "wof:tags":[]
},
  "bbox": [-77.241432,38.151344,-77.241432,38.151344],
  "geometry": {"coordinates":[-77.241432,38.151344],"type":"Point"}
}