{
  "id": 220010561,
  "type": "Feature",
  "properties": {
    "edtf:cessation":"u",
    "edtf:inception":"u",
    "geom:area":0.0,
    "geom:bbox":"4.85337,52.380409,4.85337,52.380409",
    "geom:latitude":52.380409,
    "geom:longitude":4.85337,
    "iso:country":"NL",
    "sg:address":"W De Zwygerln 350-2",
    "sg:city":"Amsterdam",
    "sg:classifiers":[],
    "sg:orig_category":"Adviesbureaus Bouwkunde",
    "sg:owner":"simplegeo",
    "sg:phone":"+31 20 669 3471",
    "sg:postcode":"1055 RD",
    "sg:province":"Noord-Holland",
    "sg:website":"http://www.vanrossumbv.nl",
    "src:geom":"simplegeo",
    "wof:belongsto":[
        85797161,
        85633337,
        101751893,
        85687053
    ],
    "wof:breaches":[],
    "wof:concordances":{
        "sg:id":"SG_5cCy0ipPXYWsQHYsQybV4y_52.380409_4.853370@1306269931"
    },
    "wof:country":"NL",
    "wof:geomhash":"4f0d99a0320f416d18dc85ba999366b5",
    "wof:hierarchy":[
        {
            "continent_id":-1,
            "country_id":85633337,
            "locality_id":101751893,
            "neighbourhood_id":85797161,
            "region_id":85687053,
            "venue_id":220010561
        }
    ],
    "wof:id":220010561,
    "wof:lastmodified":1449074539,
    "wof:name":"Rossum Bouwkunde Amsterdam Bv, Van",
    "wof:parent_id":85797161,
    "wof:placetype":"venue",
    "wof:superseded_by":[],
    "wof:supersedes":[],
    "wof:tags":[]
},
  "bbox": [4.85337,52.380409,4.85337,52.380409],
  "geometry": {"coordinates":[4.85337,52.380409],"type":"Point"}
}