{
  "id": 253514759,
  "type": "Feature",
  "properties": {
    "edtf:cessation":"u",
    "edtf:inception":"u",
    "geom:area":0.0,
    "geom:bbox":"4.329362,51.84948,4.329362,51.84948",
    "geom:latitude":51.84948,
    "geom:longitude":4.329362,
    "iso:country":"NL",
    "sg:address":"H De Lintwg 40",
    "sg:city":"Spykenisse",
    "sg:classifiers":[],
    "sg:orig_category":"Parketvloeren",
    "sg:owner":"simplegeo",
    "sg:phone":"+31 6 11361625",
    "sg:postcode":"3201 EK",
    "sg:province":"Zuid-Holland",
    "src:geom":"simplegeo",
    "wof:belongsto":[
        85798011,
        85633337,
        101751847,
        85687041
    ],
    "wof:breaches":[],
    "wof:concordances":{
        "sg:id":"SG_1TcMQr4TbX7YWVyDIgnghZ_51.849480_4.329362@1306269950"
    },
    "wof:country":"NL",
    "wof:geomhash":"25e30652c95cd1f8880a59b6810f9f70",
    "wof:hierarchy":[
        {
            "continent_id":-1,
            "country_id":85633337,
            "locality_id":101751847,
            "neighbourhood_id":85798011,
            "region_id":85687041,
            "venue_id":253514759
        }
    ],
    "wof:id":253514759,
    "wof:lastmodified":1449064312,
    "wof:name":"Floor Decoration",
    "wof:parent_id":85798011,
    "wof:placetype":"venue",
    "wof:superseded_by":[],
    "wof:supersedes":[],
    "wof:tags":[]
},
  "bbox": [4.329362,51.84948,4.329362,51.84948],
  "geometry": {"coordinates":[4.329362,51.84948],"type":"Point"}
}