{
  "id": 236879573,
  "type": "Feature",
  "properties": {
    "edtf:cessation":"u",
    "edtf:inception":"u",
    "geom:area":0.0,
    "geom:bbox":"6.519445,51.89325,6.519445,51.89325",
    "geom:latitude":51.89325,
    "geom:longitude":6.519445,
    "iso:country":"NL",
    "sg:address":"Gelkinkwg 16A",
    "sg:city":"De Heurne",
    "sg:classifiers":[],
    "sg:orig_category":"Autoteststations",
    "sg:owner":"simplegeo",
    "sg:phone":"+31 6 53565805",
    "sg:postcode":"7095 CB",
    "sg:province":"Gelderland",
    "src:geom":"simplegeo",
    "wof:belongsto":[
        85633337,
        85687043
    ],
    "wof:breaches":[],
    "wof:concordances":{
        "sg:id":"SG_0IfSjsGGB4dYMYK8aQLGlN_51.893250_6.519445@1306269941"
    },
    "wof:country":"NL",
    "wof:geomhash":"bf27768d80a0f69753fc80243bc3eb11",
    "wof:hierarchy":[
        {
            "continent_id":-1,
            "country_id":85633337,
            "locality_id":-1,
            "neighbourhood_id":-1,
            "region_id":85687043,
            "venue_id":236879573
        }
    ],
    "wof:id":236879573,
    "wof:lastmodified":1449001700,
    "wof:name":"Dmg Vof",
    "wof:parent_id":-1,
    "wof:placetype":"venue",
    "wof:superseded_by":[],
    "wof:supersedes":[],
    "wof:tags":[]
},
  "bbox": [6.519445,51.89325,6.519445,51.89325],
  "geometry": {"coordinates":[6.519445,51.89325],"type":"Point"}
}