{
  "id": 203036191,
  "type": "Feature",
  "properties": {
    "edtf:cessation":"u",
    "edtf:inception":"u",
    "geom:area":0.0,
    "geom:bbox":"4.393226,52.146309,4.393226,52.146309",
    "geom:latitude":52.146309,
    "geom:longitude":4.393226,
    "iso:country":"NL",
    "sg:address":"Schoolstr 43",
    "sg:city":"Wassenaar",
    "sg:classifiers":[],
    "sg:orig_category":"Verzekeringen - Verzekeringskantoren",
    "sg:owner":"simplegeo",
    "sg:phone":"+31 70 511 3062",
    "sg:postcode":"2242 KG",
    "sg:province":"South Holland",
    "src:geom":"simplegeo",
    "wof:belongsto":[
        85798163,
        85633337,
        85687041
    ],
    "wof:breaches":[],
    "wof:concordances":{
        "sg:id":"SG_1b2JDUoDpyEkH4wOdMvnW7_52.146309_4.393226@1306269920"
    },
    "wof:country":"NL",
    "wof:geomhash":"2c931e92122bcb8742088810571e0164",
    "wof:hierarchy":[
        {
            "continent_id":-1,
            "country_id":85633337,
            "locality_id":-1,
            "neighbourhood_id":85798163,
            "region_id":85687041,
            "venue_id":203036191
        }
    ],
    "wof:id":203036191,
    "wof:lastmodified":1449025348,
    "wof:name":"Veen, A J Van",
    "wof:parent_id":85798163,
    "wof:placetype":"venue",
    "wof:superseded_by":[],
    "wof:supersedes":[],
    "wof:tags":[]
},
  "bbox": [4.393226,52.146309,4.393226,52.146309],
  "geometry": {"coordinates":[4.393226,52.146309],"type":"Point"}
}