{
  "id": 336958113,
  "type": "Feature",
  "properties": {
    "edtf:cessation":"u",
    "edtf:inception":"u",
    "geom:area":0.0,
    "geom:bbox":"4.26819,51.877911,4.26819,51.877911",
    "geom:latitude":51.877911,
    "geom:longitude":4.26819,
    "iso:country":"NL",
    "sg:address":"Chemiewg 17",
    "sg:city":"Botlek Rt",
    "sg:classifiers":[
        {
            "category":"Retail",
            "subcategory":"Storage",
            "type":"Services"
        }
    ],
    "sg:owner":"simplegeo",
    "sg:phone":"+31 10 438 6044",
    "sg:postcode":"3197 KC",
    "sg:province":"Zuid-Holland",
    "sg:tags":[
        "op-",
        "en",
        "overslagbedrijven"
    ],
    "src:geom":"simplegeo",
    "wof:belongsto":[
        85797123,
        85633337,
        101760475,
        85687041
    ],
    "wof:breaches":[],
    "wof:concordances":{
        "sg:id":"SG_0NPEmx66EA54srnRz3UT2N_51.877911_4.268190@1306270008"
    },
    "wof:country":"NL",
    "wof:geomhash":"a6a641a189e3ea7684965ed998e4a7c5",
    "wof:hierarchy":[
        {
            "continent_id":-1,
            "country_id":85633337,
            "locality_id":101760475,
            "neighbourhood_id":85797123,
            "region_id":85687041,
            "venue_id":336958113
        }
    ],
    "wof:id":336958113,
    "wof:lastmodified":1448997800,
    "wof:name":"Stolthaven",
    "wof:parent_id":85797123,
    "wof:placetype":"venue",
    "wof:superseded_by":[],
    "wof:supersedes":[],
    "wof:tags":[
        "op-",
        "en",
        "overslagbedrijven"
    ]
},
  "bbox": [4.26819,51.877911,4.26819,51.877911],
  "geometry": {"coordinates":[4.26819,51.877911],"type":"Point"}
}