{
  "id": 219259353,
  "type": "Feature",
  "properties": {
    "edtf:cessation":"u",
    "edtf:inception":"u",
    "geom:area":0.0,
    "geom:bbox":"5.970167,50.942184,5.970167,50.942184",
    "geom:latitude":50.942184,
    "geom:longitude":5.970167,
    "iso:country":"NL",
    "sg:address":"Rumpenerstr 7",
    "sg:city":"Brunssum",
    "sg:classifiers":[
        {
            "category":"Shopping",
            "subcategory":"Adult",
            "type":"Retail Goods"
        }
    ],
    "sg:owner":"simplegeo",
    "sg:phone":"+31 45 525 9821",
    "sg:postcode":"6443 CA",
    "sg:province":"Limburg",
    "sg:tags":[
        "lingerie",
        "en",
        "tricotage"
    ],
    "src:geom":"simplegeo",
    "wof:belongsto":[
        85797679,
        85633337,
        101839207,
        85687033
    ],
    "wof:breaches":[],
    "wof:concordances":{
        "sg:id":"SG_0GSazkfMUXzDU30u061JIQ_50.942184_5.970167@1306269924"
    },
    "wof:country":"NL",
    "wof:geomhash":"fa02cdd4bf3fb3e6947627486276c2ff",
    "wof:hierarchy":[
        {
            "continent_id":-1,
            "country_id":85633337,
            "locality_id":101839207,
            "neighbourhood_id":85797679,
            "region_id":85687033,
            "venue_id":219259353
        }
    ],
    "wof:id":219259353,
    "wof:lastmodified":1449071196,
    "wof:name":"Tiny Peeters",
    "wof:parent_id":85797679,
    "wof:placetype":"venue",
    "wof:superseded_by":[],
    "wof:supersedes":[],
    "wof:tags":[
        "lingerie",
        "en",
        "tricotage"
    ]
},
  "bbox": [5.970167,50.942184,5.970167,50.942184],
  "geometry": {"coordinates":[5.970167,50.942184],"type":"Point"}
}