{
  "id": 270155787,
  "type": "Feature",
  "properties": {
    "edtf:cessation":"u",
    "edtf:inception":"u",
    "geom:area":0.0,
    "geom:bbox":"6.688604,53.32497,6.688604,53.32497",
    "geom:latitude":53.32497,
    "geom:longitude":6.688604,
    "iso:country":"NL",
    "sg:address":"Stationswg 42",
    "sg:city":"Stedum",
    "sg:classifiers":[],
    "sg:orig_category":"Fotojournalisten Freelance",
    "sg:owner":"simplegeo",
    "sg:phone":"+31 596 551 922",
    "sg:postcode":"9921 PW",
    "sg:province":"Groningen",
    "src:geom":"simplegeo",
    "wof:belongsto":[
        85633337,
        101807543,
        85687059
    ],
    "wof:breaches":[],
    "wof:concordances":{
        "sg:id":"SG_0RuB40F5wTHLApVrciw7oh_53.324970_6.688604@1306269962"
    },
    "wof:country":"NL",
    "wof:geomhash":"942dc233115c284b33cbb04497e7a85f",
    "wof:hierarchy":[
        {
            "continent_id":-1,
            "country_id":85633337,
            "locality_id":101807543,
            "neighbourhood_id":-1,
            "region_id":85687059,
            "venue_id":270155787
        }
    ],
    "wof:id":270155787,
    "wof:lastmodified":1449010635,
    "wof:name":"Pitt",
    "wof:parent_id":-1,
    "wof:placetype":"venue",
    "wof:superseded_by":[],
    "wof:supersedes":[],
    "wof:tags":[]
},
  "bbox": [6.688604,53.32497,6.688604,53.32497],
  "geometry": {"coordinates":[6.688604,53.32497],"type":"Point"}
}