{
  "id": 320808359,
  "type": "Feature",
  "properties": {
    "edtf:cessation":"u",
    "edtf:inception":"u",
    "geom:area":0.0,
    "geom:bbox":"4.485705,52.283123,4.485705,52.283123",
    "geom:latitude":52.283123,
    "geom:longitude":4.485705,
    "iso:country":"NL",
    "sg:address":"Langevelderln 45",
    "sg:city":"Noordwyk Zh",
    "sg:classifiers":[],
    "sg:orig_category":"Jeugdherbergen",
    "sg:owner":"simplegeo",
    "sg:phone":"+31 252 372 920",
    "sg:postcode":"2204 BC",
    "sg:province":"South Holland",
    "sg:website":"http://www.stayokay.com/noordwijk",
    "src:geom":"simplegeo",
    "wof:belongsto":[
        85798109,
        85633337,
        101837701,
        85687041
    ],
    "wof:breaches":[],
    "wof:concordances":{
        "sg:id":"SG_5P0AwsSJWFI4w7fyv9ayE3_52.283123_4.485705@1306270002"
    },
    "wof:country":"NL",
    "wof:geomhash":"7924c41296b174ab82010cd567efede7",
    "wof:hierarchy":[
        {
            "continent_id":-1,
            "country_id":85633337,
            "locality_id":101837701,
            "neighbourhood_id":85798109,
            "region_id":85687041,
            "venue_id":320808359
        }
    ],
    "wof:id":320808359,
    "wof:lastmodified":1449011432,
    "wof:name":"Stayokay",
    "wof:parent_id":85798109,
    "wof:placetype":"venue",
    "wof:superseded_by":[],
    "wof:supersedes":[],
    "wof:tags":[]
},
  "bbox": [4.485705,52.283123,4.485705,52.283123],
  "geometry": {"coordinates":[4.485705,52.283123],"type":"Point"}
}