{
  "id": 202544155,
  "type": "Feature",
  "properties": {
    "edtf:cessation":"u",
    "edtf:inception":"u",
    "geom:area":0.0,
    "geom:bbox":"5.698104,51.462822,5.698104,51.462822",
    "geom:latitude":51.462822,
    "geom:longitude":5.698104,
    "iso:country":"NL",
    "sg:address":"Rupelstraat 4",
    "sg:city":"Helmond",
    "sg:classifiers":[
        {
            "category":"Communications",
            "subcategory":"Television Station",
            "type":"Services"
        }
    ],
    "sg:owner":"simplegeo",
    "sg:phone":"+31 492 518 446",
    "sg:postcode":"5704 AX",
    "sg:province":"North Brabant",
    "sg:tags":[
        "video",
        "audio",
        "verhuur"
    ],
    "src:geom":"simplegeo",
    "wof:belongsto":[
        85633337,
        101751805,
        85687035
    ],
    "wof:breaches":[],
    "wof:concordances":{
        "sg:id":"SG_55sfJOjr4E3vcsP0Jv8PsM_51.462822_5.698104@1306269916"
    },
    "wof:country":"NL",
    "wof:geomhash":"b805b670f65ff4d252886908cb234534",
    "wof:hierarchy":[
        {
            "continent_id":-1,
            "country_id":85633337,
            "locality_id":101751805,
            "neighbourhood_id":-1,
            "region_id":85687035,
            "venue_id":202544155
        }
    ],
    "wof:id":202544155,
    "wof:lastmodified":1449062646,
    "wof:name":"Zazou Video Entertainment Inkoopgroep",
    "wof:parent_id":-1,
    "wof:placetype":"venue",
    "wof:superseded_by":[],
    "wof:supersedes":[],
    "wof:tags":[
        "video",
        "audio",
        "verhuur"
    ]
},
  "bbox": [5.698104,51.462822,5.698104,51.462822],
  "geometry": {"coordinates":[5.698104,51.462822],"type":"Point"}
}