{
  "id": 320273009,
  "type": "Feature",
  "properties": {
    "edtf:cessation":"u",
    "edtf:inception":"u",
    "geom:area":0.0,
    "geom:bbox":"4.767335,52.959171,4.767335,52.959171",
    "geom:latitude":52.959171,
    "geom:longitude":4.767335,
    "iso:country":"NL",
    "sg:address":"Weststraat 87",
    "sg:city":"Den Helder",
    "sg:classifiers":[],
    "sg:orig_category":"Glaszetten",
    "sg:owner":"simplegeo",
    "sg:phone":"+31 223 621 229",
    "sg:postcode":"1781 BX",
    "sg:province":"Noord-Holland",
    "src:geom":"simplegeo",
    "wof:belongsto":[
        85798051,
        85633337,
        101806071,
        85687053
    ],
    "wof:breaches":[],
    "wof:concordances":{
        "sg:id":"SG_6sFCm6KA2GhrA7TyJhyHjv_52.959171_4.767335@1306269996"
    },
    "wof:country":"NL",
    "wof:geomhash":"d8c1a1c921a4852c8724d11d38a481be",
    "wof:hierarchy":[
        {
            "continent_id":-1,
            "country_id":85633337,
            "locality_id":101806071,
            "neighbourhood_id":85798051,
            "region_id":85687053,
            "venue_id":320273009
        }
    ],
    "wof:id":320273009,
    "wof:lastmodified":1449013198,
    "wof:name":"Glasbedrijf Ossebaar & Zn Vof",
    "wof:parent_id":85798051,
    "wof:placetype":"venue",
    "wof:superseded_by":[],
    "wof:supersedes":[],
    "wof:tags":[]
},
  "bbox": [4.767335,52.959171,4.767335,52.959171],
  "geometry": {"coordinates":[4.767335,52.959171],"type":"Point"}
}