{
  "id": 185619453,
  "type": "Feature",
  "properties": {
    "edtf:cessation":"u",
    "edtf:inception":"u",
    "geom:area":0.0,
    "geom:bbox":"5.292651,52.212269,5.292651,52.212269",
    "geom:latitude":52.212269,
    "geom:longitude":5.292651,
    "iso:country":"NL",
    "sg:address":"Brinkstr 4",
    "sg:city":"Baarn",
    "sg:classifiers":[],
    "sg:orig_category":"Kappers",
    "sg:owner":"simplegeo",
    "sg:phone":"+31 35 541 7060",
    "sg:postcode":"3741 AN",
    "sg:province":"Utrecht",
    "sg:website":"http://www.trendies.nl",
    "src:geom":"simplegeo",
    "wof:belongsto":[
        85798417,
        85633337,
        101837651,
        85687039
    ],
    "wof:breaches":[],
    "wof:concordances":{
        "sg:id":"SG_6x8AmoXFwsZs9KhOCX7m8A_52.212269_5.292651@1306269906"
    },
    "wof:country":"NL",
    "wof:geomhash":"995817614580706405accade4c0c0cce",
    "wof:hierarchy":[
        {
            "continent_id":-1,
            "country_id":85633337,
            "locality_id":101837651,
            "neighbourhood_id":85798417,
            "region_id":85687039,
            "venue_id":185619453
        }
    ],
    "wof:id":185619453,
    "wof:lastmodified":1449006901,
    "wof:name":"Trendies Hairstyling",
    "wof:parent_id":85798417,
    "wof:placetype":"venue",
    "wof:superseded_by":[],
    "wof:supersedes":[],
    "wof:tags":[]
},
  "bbox": [5.292651,52.212269,5.292651,52.212269],
  "geometry": {"coordinates":[5.292651,52.212269],"type":"Point"}
}