{
  "id": 236366267,
  "type": "Feature",
  "properties": {
    "edtf:cessation":"u",
    "edtf:inception":"u",
    "geom:area":0.0,
    "geom:bbox":"5.240222,52.251122,5.240222,52.251122",
    "geom:latitude":52.251122,
    "geom:longitude":5.240222,
    "iso:country":"NL",
    "sg:address":"Heideveldweg 83",
    "sg:city":"Laren Nh",
    "sg:classifiers":[],
    "sg:orig_category":"Architecten",
    "sg:owner":"simplegeo",
    "sg:phone":"+31 35 531 3633",
    "sg:postcode":"1251 XM",
    "sg:province":"Noord-Holland",
    "src:geom":"simplegeo",
    "wof:belongsto":[
        85798173,
        85633337,
        101837933,
        85687053
    ],
    "wof:breaches":[],
    "wof:concordances":{
        "sg:id":"SG_1YkQmw5PGzKnlNsgeNOXMj_52.251122_5.240222@1306269937"
    },
    "wof:country":"NL",
    "wof:geomhash":"ed993356014726b18e803e851016cef2",
    "wof:hierarchy":[
        {
            "continent_id":-1,
            "country_id":85633337,
            "locality_id":101837933,
            "neighbourhood_id":85798173,
            "region_id":85687053,
            "venue_id":236366267
        }
    ],
    "wof:id":236366267,
    "wof:lastmodified":1449004174,
    "wof:name":"Ir. E.A. Gaasbeek",
    "wof:parent_id":85798173,
    "wof:placetype":"venue",
    "wof:superseded_by":[],
    "wof:supersedes":[],
    "wof:tags":[]
},
  "bbox": [5.240222,52.251122,5.240222,52.251122],
  "geometry": {"coordinates":[5.240222,52.251122],"type":"Point"}
}