{
  "id": 252997215,
  "type": "Feature",
  "properties": {
    "edtf:cessation":"u",
    "edtf:inception":"u",
    "geom:area":0.0,
    "geom:bbox":"5.049492,51.86108,5.049492,51.86108",
    "geom:latitude":51.86108,
    "geom:longitude":5.049492,
    "iso:country":"NL",
    "sg:address":"Vyfmolens 16",
    "sg:city":"Kedichem",
    "sg:classifiers":[],
    "sg:orig_category":"Metaalbewerking",
    "sg:owner":"simplegeo",
    "sg:phone":"+31 183 565 609",
    "sg:postcode":"4247 EA",
    "sg:province":"Zuid-Holland",
    "sg:website":"http://www.remola.nl",
    "src:geom":"simplegeo",
    "wof:belongsto":[
        85633337,
        85687041
    ],
    "wof:breaches":[],
    "wof:concordances":{
        "sg:id":"SG_5uk80kcRm4PeGiEvvzQVu8_51.861080_5.049492@1306269945"
    },
    "wof:country":"NL",
    "wof:geomhash":"f306a0a48407ac0e4a29492f3613f611",
    "wof:hierarchy":[
        {
            "continent_id":-1,
            "country_id":85633337,
            "locality_id":-1,
            "neighbourhood_id":-1,
            "region_id":85687041,
            "venue_id":252997215
        }
    ],
    "wof:id":252997215,
    "wof:lastmodified":1449006325,
    "wof:name":"Remola",
    "wof:parent_id":-1,
    "wof:placetype":"venue",
    "wof:superseded_by":[],
    "wof:supersedes":[],
    "wof:tags":[]
},
  "bbox": [5.049492,51.86108,5.049492,51.86108],
  "geometry": {"coordinates":[5.049492,51.86108],"type":"Point"}
}