{
  "id": 270128231,
  "type": "Feature",
  "properties": {
    "edtf:cessation":"u",
    "edtf:inception":"u",
    "geom:area":0.0,
    "geom:bbox":"6.894318,52.227612,6.894318,52.227612",
    "geom:latitude":52.227612,
    "geom:longitude":6.894318,
    "iso:country":"NL",
    "sg:address":"N Beetsstr 29",
    "sg:city":"Enschede",
    "sg:classifiers":[],
    "sg:orig_category":"Fotografie Reclame En Mode",
    "sg:owner":"simplegeo",
    "sg:phone":"+31 53 432 7476",
    "sg:postcode":"7514 CV",
    "sg:province":"Overijssel",
    "src:geom":"simplegeo",
    "wof:belongsto":[
        85798019,
        85633337,
        101754773,
        85687045
    ],
    "wof:breaches":[],
    "wof:concordances":{
        "sg:id":"SG_5UWQgrzSHKHKbr2M4QogcY_52.227612_6.894318@1306269962"
    },
    "wof:country":"NL",
    "wof:geomhash":"0916c1aaa462582174542c286434d65f",
    "wof:hierarchy":[
        {
            "continent_id":-1,
            "country_id":85633337,
            "locality_id":101754773,
            "neighbourhood_id":85798019,
            "region_id":85687045,
            "venue_id":270128231
        }
    ],
    "wof:id":270128231,
    "wof:lastmodified":1449009582,
    "wof:name":"Thoma, Benno",
    "wof:parent_id":85798019,
    "wof:placetype":"venue",
    "wof:superseded_by":[],
    "wof:supersedes":[],
    "wof:tags":[]
},
  "bbox": [6.894318,52.227612,6.894318,52.227612],
  "geometry": {"coordinates":[6.894318,52.227612],"type":"Point"}
}