{
  "id": 220119695,
  "type": "Feature",
  "properties": {
    "edtf:cessation":"u",
    "edtf:inception":"u",
    "geom:area":0.0,
    "geom:bbox":"5.731481,52.719151,5.731481,52.719151",
    "geom:latitude":52.719151,
    "geom:longitude":5.731481,
    "iso:country":"NL",
    "sg:address":"Vyfheerenlanden 28",
    "sg:city":"Emmeloord",
    "sg:classifiers":[],
    "sg:orig_category":"Adviesbureaus",
    "sg:owner":"simplegeo",
    "sg:phone":"+31 527 611 995",
    "sg:postcode":"8302 MJ",
    "sg:province":"Flevoland",
    "src:geom":"simplegeo",
    "wof:belongsto":[
        85633337,
        101807245,
        85687049
    ],
    "wof:breaches":[],
    "wof:concordances":{
        "sg:id":"SG_57BIag3lEUBAKyhH5zi7Rv_52.719151_5.731481@1306269932"
    },
    "wof:country":"NL",
    "wof:geomhash":"6a83f10575c30aaf12debd66c8402e8c",
    "wof:hierarchy":[
        {
            "continent_id":-1,
            "country_id":85633337,
            "locality_id":101807245,
            "neighbourhood_id":-1,
            "region_id":85687049,
            "venue_id":220119695
        }
    ],
    "wof:id":220119695,
    "wof:lastmodified":1449074622,
    "wof:name":"Geerligs",
    "wof:parent_id":-1,
    "wof:placetype":"venue",
    "wof:superseded_by":[],
    "wof:supersedes":[],
    "wof:tags":[]
},
  "bbox": [5.731481,52.719151,5.731481,52.719151],
  "geometry": {"coordinates":[5.731481,52.719151],"type":"Point"}
}