{
  "id": 219813193,
  "type": "Feature",
  "properties": {
    "edtf:cessation":"u",
    "edtf:inception":"u",
    "geom:area":0.0,
    "geom:bbox":"5.216985,52.259087,5.216985,52.259087",
    "geom:latitude":52.259087,
    "geom:longitude":5.216985,
    "iso:country":"NL",
    "sg:address":"Drift 14",
    "sg:city":"Laren Nh",
    "sg:classifiers":[],
    "sg:orig_category":"Adviesbureaus Bedrijfsorganisatie",
    "sg:owner":"simplegeo",
    "sg:phone":"+31 35 538 7663",
    "sg:postcode":"1251 CD",
    "sg:province":"Noord-Holland",
    "src:geom":"simplegeo",
    "wof:belongsto":[
        85798173,
        85633337,
        101837933,
        85687053
    ],
    "wof:breaches":[],
    "wof:concordances":{
        "sg:id":"SG_1q6piMwfGJj7QoyBQiTLLJ_52.259087_5.216985@1306269929"
    },
    "wof:country":"NL",
    "wof:geomhash":"b13f3ce89b063fc61b91fa1d02d1495f",
    "wof:hierarchy":[
        {
            "continent_id":-1,
            "country_id":85633337,
            "locality_id":101837933,
            "neighbourhood_id":85798173,
            "region_id":85687053,
            "venue_id":219813193
        }
    ],
    "wof:id":219813193,
    "wof:lastmodified":1449071305,
    "wof:name":"Hermans, P J",
    "wof:parent_id":85798173,
    "wof:placetype":"venue",
    "wof:superseded_by":[],
    "wof:supersedes":[],
    "wof:tags":[]
},
  "bbox": [5.216985,52.259087,5.216985,52.259087],
  "geometry": {"coordinates":[5.216985,52.259087],"type":"Point"}
}