{
  "id": 320092625,
  "type": "Feature",
  "properties": {
    "edtf:cessation":"u",
    "edtf:inception":"u",
    "geom:area":0.0,
    "geom:bbox":"6.015405,50.849907,6.015405,50.849907",
    "geom:latitude":50.849907,
    "geom:longitude":6.015405,
    "iso:country":"NL",
    "sg:address":"Locht 80E",
    "sg:city":"Kerkrade",
    "sg:classifiers":[
        {
            "category":"Retail",
            "subcategory":"Auto Repair",
            "type":"Services"
        }
    ],
    "sg:owner":"simplegeo",
    "sg:phone":"+31 45 542 7444",
    "sg:postcode":"6465 AJ",
    "sg:province":"Limburg",
    "sg:tags":[
        "garage"
    ],
    "src:geom":"simplegeo",
    "wof:belongsto":[
        85633337,
        85687033
    ],
    "wof:breaches":[],
    "wof:concordances":{
        "sg:id":"SG_0xvhpGuzYyVIsZYe7pBuVG_50.849907_6.015405@1306269994"
    },
    "wof:country":"NL",
    "wof:geomhash":"15ef2536abc7836a1d060ff69e2748af",
    "wof:hierarchy":[
        {
            "continent_id":-1,
            "country_id":85633337,
            "locality_id":-1,
            "neighbourhood_id":-1,
            "region_id":85687033,
            "venue_id":320092625
        }
    ],
    "wof:id":320092625,
    "wof:lastmodified":1449014262,
    "wof:name":"Middegaal Bv",
    "wof:parent_id":-1,
    "wof:placetype":"venue",
    "wof:superseded_by":[],
    "wof:supersedes":[],
    "wof:tags":[
        "garage"
    ]
},
  "bbox": [6.015405,50.849907,6.015405,50.849907],
  "geometry": {"coordinates":[6.015405,50.849907],"type":"Point"}
}