{
  "id": 220150837,
  "type": "Feature",
  "properties": {
    "edtf:cessation":"u",
    "edtf:inception":"u",
    "geom:area":0.0,
    "geom:bbox":"6.791256,52.924438,6.791256,52.924438",
    "geom:latitude":52.924438,
    "geom:longitude":6.791256,
    "iso:country":"NL",
    "sg:address":"Hoofdstr 48A",
    "sg:city":"Borger",
    "sg:classifiers":[],
    "sg:orig_category":"Adviesbureaus",
    "sg:owner":"simplegeo",
    "sg:phone":"+31 599 235 957",
    "sg:postcode":"9531 AH",
    "sg:province":"Drenthe",
    "src:geom":"simplegeo",
    "wof:belongsto":[
        85633337,
        101807275,
        85687051
    ],
    "wof:breaches":[],
    "wof:concordances":{
        "sg:id":"SG_1XSNd0EL2iYcPp5fWTtJcP_52.924438_6.791256@1306269932"
    },
    "wof:country":"NL",
    "wof:geomhash":"ec01e83552467e31cc67daf9c093246f",
    "wof:hierarchy":[
        {
            "continent_id":-1,
            "country_id":85633337,
            "locality_id":101807275,
            "neighbourhood_id":-1,
            "region_id":85687051,
            "venue_id":220150837
        }
    ],
    "wof:id":220150837,
    "wof:lastmodified":1449074074,
    "wof:name":"Veen, E Ter",
    "wof:parent_id":-1,
    "wof:placetype":"venue",
    "wof:superseded_by":[],
    "wof:supersedes":[],
    "wof:tags":[]
},
  "bbox": [6.791256,52.924438,6.791256,52.924438],
  "geometry": {"coordinates":[6.791256,52.924438],"type":"Point"}
}