{
  "id": 219335677,
  "type": "Feature",
  "properties": {
    "edtf:cessation":"u",
    "edtf:inception":"u",
    "geom:area":0.0,
    "geom:bbox":"6.675414,52.364742,6.675414,52.364742",
    "geom:latitude":52.364742,
    "geom:longitude":6.675414,
    "iso:country":"NL",
    "sg:address":"Blauwhuisweg 21",
    "sg:city":"Almelo",
    "sg:classifiers":[],
    "sg:orig_category":"Loodgieterswerk, Verwarming And Sanitaire Installaties",
    "sg:owner":"simplegeo",
    "sg:phone":"+31 546 492 161",
    "sg:postcode":"7603 XW",
    "sg:province":"Overijssel",
    "src:geom":"simplegeo",
    "wof:belongsto":[
        85797827,
        85633337,
        101751863,
        85687045
    ],
    "wof:breaches":[],
    "wof:concordances":{
        "sg:id":"SG_7PhkiSeHkCfUpNoSVNzPVM_52.364742_6.675414@1306269925"
    },
    "wof:country":"NL",
    "wof:geomhash":"c9573b21d6b225e36526393a97fe95a3",
    "wof:hierarchy":[
        {
            "continent_id":-1,
            "country_id":85633337,
            "locality_id":101751863,
            "neighbourhood_id":85797827,
            "region_id":85687045,
            "venue_id":219335677
        }
    ],
    "wof:id":219335677,
    "wof:lastmodified":1449072712,
    "wof:name":"J & J Techniek",
    "wof:parent_id":85797827,
    "wof:placetype":"venue",
    "wof:superseded_by":[],
    "wof:supersedes":[],
    "wof:tags":[]
},
  "bbox": [6.675414,52.364742,6.675414,52.364742],
  "geometry": {"coordinates":[6.675414,52.364742],"type":"Point"}
}