{
  "id": 320524563,
  "type": "Feature",
  "properties": {
    "edtf:cessation":"u",
    "edtf:inception":"u",
    "geom:area":0.0,
    "geom:bbox":"5.260222,51.370232,5.260222,51.370232",
    "geom:latitude":51.370232,
    "geom:longitude":5.260222,
    "iso:country":"NL",
    "sg:address":"De Wijer 2",
    "sg:city":"Hapert",
    "sg:classifiers":[],
    "sg:orig_category":"Granen, Zaden And Diervoeders Gh",
    "sg:owner":"simplegeo",
    "sg:phone":"+31 497 388 586",
    "sg:postcode":"5527 EA",
    "sg:province":"North Brabant",
    "src:geom":"simplegeo",
    "wof:belongsto":[
        85633337,
        101809711,
        85687035
    ],
    "wof:breaches":[],
    "wof:concordances":{
        "sg:id":"SG_4RHQERn55BZLKcVoi68bcW_51.370232_5.260222@1306269999"
    },
    "wof:country":"NL",
    "wof:geomhash":"9b47bb741aaed8652ae9136856d3f1dc",
    "wof:hierarchy":[
        {
            "continent_id":-1,
            "country_id":85633337,
            "locality_id":101809711,
            "neighbourhood_id":-1,
            "region_id":85687035,
            "venue_id":320524563
        }
    ],
    "wof:id":320524563,
    "wof:lastmodified":1449011222,
    "wof:name":"Gerrit Van Ham - Horse Care",
    "wof:parent_id":-1,
    "wof:placetype":"venue",
    "wof:superseded_by":[],
    "wof:supersedes":[],
    "wof:tags":[]
},
  "bbox": [5.260222,51.370232,5.260222,51.370232],
  "geometry": {"coordinates":[5.260222,51.370232],"type":"Point"}
}