{
  "id": 287155375,
  "type": "Feature",
  "properties": {
    "edtf:cessation":"u",
    "edtf:inception":"u",
    "geom:area":0.0,
    "geom:bbox":"5.095649,51.891129,5.095649,51.891129",
    "geom:latitude":51.891129,
    "geom:longitude":5.095649,
    "iso:country":"NL",
    "sg:address":"Hogenhoek 4",
    "sg:city":"Leerdam",
    "sg:classifiers":[],
    "sg:orig_category":"Boeken En Tijdschriften",
    "sg:owner":"simplegeo",
    "sg:phone":"+31 345 619 425",
    "sg:postcode":"4141 BH",
    "sg:province":"Zuid-Holland",
    "src:geom":"simplegeo",
    "wof:belongsto":[
        85633337,
        101808521,
        85687041
    ],
    "wof:breaches":[],
    "wof:concordances":{
        "sg:id":"SG_1HQ3f7seOXSUSgpsNwCEe8_51.891129_5.095649@1306269977"
    },
    "wof:country":"NL",
    "wof:geomhash":"9e4d4000fa17efbcbf35f4e298b33569",
    "wof:hierarchy":[
        {
            "continent_id":-1,
            "country_id":85633337,
            "locality_id":101808521,
            "neighbourhood_id":-1,
            "region_id":85687041,
            "venue_id":287155375
        }
    ],
    "wof:id":287155375,
    "wof:lastmodified":1449001401,
    "wof:name":"Hebron",
    "wof:parent_id":-1,
    "wof:placetype":"venue",
    "wof:superseded_by":[],
    "wof:supersedes":[],
    "wof:tags":[]
},
  "bbox": [5.095649,51.891129,5.095649,51.891129],
  "geometry": {"coordinates":[5.095649,51.891129],"type":"Point"}
}