{
  "id": 270481457,
  "type": "Feature",
  "properties": {
    "edtf:cessation":"u",
    "edtf:inception":"u",
    "geom:area":0.0,
    "geom:bbox":"5.711675,51.388134,5.711675,51.388134",
    "geom:latitude":51.388134,
    "geom:longitude":5.711675,
    "iso:country":"NL",
    "sg:address":"Doctor Eijnattenlaan 20",
    "sg:city":"Someren",
    "sg:classifiers":[
        {
            "category":"Education",
            "subcategory":"Preschool",
            "type":"Public Place"
        }
    ],
    "sg:owner":"simplegeo",
    "sg:phone":"+31 493 492 001",
    "sg:postcode":"5711 AW",
    "sg:province":"Noord-Brabant",
    "sg:tags":[
        "kleuteronderwijs",
        "basis-"
    ],
    "src:geom":"simplegeo",
    "wof:belongsto":[
        85633337,
        101809767,
        85687035
    ],
    "wof:breaches":[],
    "wof:concordances":{
        "sg:id":"SG_0r3gjUHV5AF1drtMVzA3UE_51.388134_5.711675@1306269966"
    },
    "wof:country":"NL",
    "wof:geomhash":"66548339ddb61633ec0571a7e09cddfb",
    "wof:hierarchy":[
        {
            "continent_id":-1,
            "country_id":85633337,
            "locality_id":101809767,
            "neighbourhood_id":-1,
            "region_id":85687035,
            "venue_id":270481457
        }
    ],
    "wof:id":270481457,
    "wof:lastmodified":1449010776,
    "wof:name":"Basisschool Paulus",
    "wof:parent_id":-1,
    "wof:placetype":"venue",
    "wof:superseded_by":[],
    "wof:supersedes":[],
    "wof:tags":[
        "kleuteronderwijs",
        "basis-"
    ]
},
  "bbox": [5.711675,51.388134,5.711675,51.388134],
  "geometry": {"coordinates":[5.711675,51.388134],"type":"Point"}
}