{
  "id": 286382009,
  "type": "Feature",
  "properties": {
    "edtf:cessation":"u",
    "edtf:inception":"u",
    "geom:area":0.0,
    "geom:bbox":"4.625234,52.374878,4.625234,52.374878",
    "geom:latitude":52.374878,
    "geom:longitude":4.625234,
    "iso:country":"NL",
    "sg:address":"Julianastraat 4",
    "sg:city":"Haarlem",
    "sg:classifiers":[],
    "sg:orig_category":"Bedrijfs- And Managementsconsultants",
    "sg:owner":"simplegeo",
    "sg:phone":"+31 23 534 3454",
    "sg:postcode":"2012 ES",
    "sg:province":"Noord-Holland",
    "src:geom":"simplegeo",
    "wof:belongsto":[
        85797103,
        85633337,
        101754813,
        85687053
    ],
    "wof:breaches":[],
    "wof:concordances":{
        "sg:id":"SG_1aLgmgQV5XSHwSbLI4YqOJ_52.374878_4.625234@1306269968"
    },
    "wof:country":"NL",
    "wof:geomhash":"5a40989bbdc9b5c1119c3d9e3a03602e",
    "wof:hierarchy":[
        {
            "continent_id":-1,
            "country_id":85633337,
            "locality_id":101754813,
            "neighbourhood_id":85797103,
            "region_id":85687053,
            "venue_id":286382009
        }
    ],
    "wof:id":286382009,
    "wof:lastmodified":1449015965,
    "wof:name":"Okapi Telecom Management Solutions Bv",
    "wof:parent_id":85797103,
    "wof:placetype":"venue",
    "wof:superseded_by":[],
    "wof:supersedes":[],
    "wof:tags":[]
},
  "bbox": [4.625234,52.374878,4.625234,52.374878],
  "geometry": {"coordinates":[4.625234,52.374878],"type":"Point"}
}