{
  "id": 236634977,
  "type": "Feature",
  "properties": {
    "edtf:cessation":"u",
    "edtf:inception":"u",
    "geom:area":0.0,
    "geom:bbox":"4.528392,52.13765,4.528392,52.13765",
    "geom:latitude":52.13765,
    "geom:longitude":4.528392,
    "iso:country":"NL",
    "sg:address":"Industrieweg 37A",
    "sg:city":"Zoeterwoude",
    "sg:classifiers":[],
    "sg:orig_category":"Autokeuringen",
    "sg:owner":"simplegeo",
    "sg:phone":"+31 71 582 0482",
    "sg:postcode":"2382 NS",
    "sg:province":"Zuid-Holland",
    "src:geom":"simplegeo",
    "wof:belongsto":[
        85633337,
        101754697,
        85687041
    ],
    "wof:breaches":[],
    "wof:concordances":{
        "sg:id":"SG_1wHfrpjQJOgRJGXJAIRtzs_52.137650_4.528392@1306269939"
    },
    "wof:country":"NL",
    "wof:geomhash":"a6825c05c45540ccf974c4b5503f59e2",
    "wof:hierarchy":[
        {
            "continent_id":-1,
            "country_id":85633337,
            "locality_id":101754697,
            "neighbourhood_id":-1,
            "region_id":85687041,
            "venue_id":236634977
        }
    ],
    "wof:id":236634977,
    "wof:lastmodified":1449003183,
    "wof:name":"Rob Gorris Schadebedrijf Bv",
    "wof:parent_id":-1,
    "wof:placetype":"venue",
    "wof:superseded_by":[],
    "wof:supersedes":[],
    "wof:tags":[]
},
  "bbox": [4.528392,52.13765,4.528392,52.13765],
  "geometry": {"coordinates":[4.528392,52.13765],"type":"Point"}
}