{
  "id": 320093831,
  "type": "Feature",
  "properties": {
    "edtf:cessation":"u",
    "edtf:inception":"u",
    "geom:area":0.0,
    "geom:bbox":"6.6419,53.215141,6.6419,53.215141",
    "geom:latitude":53.215141,
    "geom:longitude":6.6419,
    "iso:country":"NL",
    "sg:address":"Olgerwg 2",
    "sg:city":"Groningen",
    "sg:classifiers":[
        {
            "category":"Retail",
            "subcategory":"Auto Repair",
            "type":"Services"
        }
    ],
    "sg:owner":"simplegeo",
    "sg:phone":"+31 50 541 6130",
    "sg:postcode":"9723 ED",
    "sg:province":"Groningen",
    "sg:tags":[
        "garage"
    ],
    "src:geom":"simplegeo",
    "wof:belongsto":[
        85633337,
        85687059
    ],
    "wof:breaches":[],
    "wof:concordances":{
        "sg:id":"SG_0qdZkdYNab90K45ekL9eaM_53.215141_6.641900@1306269994"
    },
    "wof:country":"NL",
    "wof:geomhash":"efef5cd1ff59eef898ac3f21a0261f89",
    "wof:hierarchy":[
        {
            "continent_id":-1,
            "country_id":85633337,
            "locality_id":-1,
            "neighbourhood_id":-1,
            "region_id":85687059,
            "venue_id":320093831
        }
    ],
    "wof:id":320093831,
    "wof:lastmodified":1449011267,
    "wof:name":"Mulder",
    "wof:parent_id":-1,
    "wof:placetype":"venue",
    "wof:superseded_by":[],
    "wof:supersedes":[],
    "wof:tags":[
        "garage"
    ]
},
  "bbox": [6.6419,53.215141,6.6419,53.215141],
  "geometry": {"coordinates":[6.6419,53.215141],"type":"Point"}
}