{
  "id": 253168915,
  "type": "Feature",
  "properties": {
    "edtf:cessation":"u",
    "edtf:inception":"u",
    "geom:area":0.0,
    "geom:bbox":"6.013718,51.226002,6.013718,51.226002",
    "geom:latitude":51.226002,
    "geom:longitude":6.013718,
    "iso:country":"NL",
    "sg:address":"Op De Berg 2",
    "sg:city":"Swalmen",
    "sg:classifiers":[],
    "sg:orig_category":"Meubelmakerijen",
    "sg:owner":"simplegeo",
    "sg:phone":"+31 475 504 745",
    "sg:postcode":"6071 BV",
    "sg:province":"Limburg",
    "src:geom":"simplegeo",
    "wof:belongsto":[
        85797971,
        85633337,
        101839309,
        85687033
    ],
    "wof:breaches":[],
    "wof:concordances":{
        "sg:id":"SG_4yE3xi921Izp2Ynf2ao74J_51.226002_6.013718@1306269947"
    },
    "wof:country":"NL",
    "wof:geomhash":"f0640bdd19af8e964a5bd3fdb4d346ce",
    "wof:hierarchy":[
        {
            "continent_id":-1,
            "country_id":85633337,
            "locality_id":101839309,
            "neighbourhood_id":85797971,
            "region_id":85687033,
            "venue_id":253168915
        }
    ],
    "wof:id":253168915,
    "wof:lastmodified":1449064370,
    "wof:name":"Jan Verstegen, Meubelmakerij",
    "wof:parent_id":85797971,
    "wof:placetype":"venue",
    "wof:superseded_by":[],
    "wof:supersedes":[],
    "wof:tags":[]
},
  "bbox": [6.013718,51.226002,6.013718,51.226002],
  "geometry": {"coordinates":[6.013718,51.226002],"type":"Point"}
}