{
  "id": 253495549,
  "type": "Feature",
  "properties": {
    "edtf:cessation":"u",
    "edtf:inception":"u",
    "geom:area":0.0,
    "geom:bbox":"5.642988,51.476753,5.642988,51.476753",
    "geom:latitude":51.476753,
    "geom:longitude":5.642988,
    "iso:country":"NL",
    "sg:address":"Mierloseweg 40",
    "sg:city":"Helmond",
    "sg:classifiers":[],
    "sg:orig_category":"Parfum And Cosmetica Gh",
    "sg:owner":"simplegeo",
    "sg:phone":"+31 492 574 747",
    "sg:postcode":"5707 AN",
    "sg:province":"Noord-Brabant",
    "src:geom":"simplegeo",
    "wof:belongsto":[
        85798473,
        85633337,
        85687035
    ],
    "wof:breaches":[],
    "wof:concordances":{
        "sg:id":"SG_3camDdbsPKRdW9SufMxazK_51.476753_5.642988@1306269950"
    },
    "wof:country":"NL",
    "wof:geomhash":"524c686f301359774a9e7925df4c7a5b",
    "wof:hierarchy":[
        {
            "continent_id":-1,
            "country_id":85633337,
            "locality_id":-1,
            "neighbourhood_id":85798473,
            "region_id":85687035,
            "venue_id":253495549
        }
    ],
    "wof:id":253495549,
    "wof:lastmodified":1449064131,
    "wof:name":"Profero",
    "wof:parent_id":85798473,
    "wof:placetype":"venue",
    "wof:superseded_by":[],
    "wof:supersedes":[],
    "wof:tags":[]
},
  "bbox": [5.642988,51.476753,5.642988,51.476753],
  "geometry": {"coordinates":[5.642988,51.476753],"type":"Point"}
}