{
  "id": 320118853,
  "type": "Feature",
  "properties": {
    "edtf:cessation":"u",
    "edtf:inception":"u",
    "geom:area":0.0,
    "geom:bbox":"4.830687,52.060757,4.830687,52.060757",
    "geom:latitude":52.060757,
    "geom:longitude":4.830687,
    "iso:country":"NL",
    "sg:address":"Oosteinde 22",
    "sg:city":"Waarder",
    "sg:classifiers":[
        {
            "category":"Retail",
            "subcategory":"Auto Repair",
            "type":"Services"
        }
    ],
    "sg:owner":"simplegeo",
    "sg:phone":"+31 348 501 403",
    "sg:postcode":"3466 LB",
    "sg:province":"Zuid-Holland",
    "sg:tags":[
        "garage"
    ],
    "sg:website":"http://www.autobedrijf-gerritdevries.nl",
    "src:geom":"simplegeo",
    "wof:belongsto":[
        85859935,
        85633337,
        101808435,
        85687039
    ],
    "wof:breaches":[],
    "wof:concordances":{
        "sg:id":"SG_0rnwClAWlRvTpJ8yVQyxQM_52.060757_4.830687@1306269995"
    },
    "wof:country":"NL",
    "wof:geomhash":"2c18304070d631ed7cacb6e254993dc1",
    "wof:hierarchy":[
        {
            "continent_id":-1,
            "country_id":85633337,
            "locality_id":101808435,
            "neighbourhood_id":85859935,
            "region_id":85687039,
            "venue_id":320118853
        }
    ],
    "wof:id":320118853,
    "wof:lastmodified":1449014254,
    "wof:name":"Vries, Gerrit De",
    "wof:parent_id":85859935,
    "wof:placetype":"venue",
    "wof:superseded_by":[],
    "wof:supersedes":[],
    "wof:tags":[
        "garage"
    ]
},
  "bbox": [4.830687,52.060757,4.830687,52.060757],
  "geometry": {"coordinates":[4.830687,52.060757],"type":"Point"}
}