{
  "id": 203319411,
  "type": "Feature",
  "properties": {
    "edtf:cessation":"u",
    "edtf:inception":"u",
    "geom:area":0.0,
    "geom:bbox":"5.771023,51.854836,5.771023,51.854836",
    "geom:latitude":51.854836,
    "geom:longitude":5.771023,
    "iso:country":"NL",
    "sg:address":"Gerstakker 47",
    "sg:city":"Beuningen Gld",
    "sg:classifiers":[],
    "sg:orig_category":"Voetbalverenigingen",
    "sg:owner":"simplegeo",
    "sg:phone":"+31 24 677 3405",
    "sg:postcode":"6641 WC",
    "sg:province":"Gelderland",
    "src:geom":"simplegeo",
    "wof:belongsto":[
        85633337,
        101808601,
        85687043
    ],
    "wof:breaches":[],
    "wof:concordances":{
        "sg:id":"SG_3wmGhn1b5gICBu336ayhap_51.854836_5.771023@1306269923"
    },
    "wof:country":"NL",
    "wof:geomhash":"17fd50d5656d21c18b63eb6b8b2cf396",
    "wof:hierarchy":[
        {
            "continent_id":-1,
            "country_id":85633337,
            "locality_id":101808601,
            "neighbourhood_id":-1,
            "region_id":85687043,
            "venue_id":203319411
        }
    ],
    "wof:id":203319411,
    "wof:lastmodified":1449025690,
    "wof:name":"Beuningse Boys",
    "wof:parent_id":-1,
    "wof:placetype":"venue",
    "wof:superseded_by":[],
    "wof:supersedes":[],
    "wof:tags":[]
},
  "bbox": [5.771023,51.854836,5.771023,51.854836],
  "geometry": {"coordinates":[5.771023,51.854836],"type":"Point"}
}