{
  "id": 253270547,
  "type": "Feature",
  "properties": {
    "edtf:cessation":"u",
    "edtf:inception":"u",
    "geom:area":0.0,
    "geom:bbox":"5.080316,51.554893,5.080316,51.554893",
    "geom:latitude":51.554893,
    "geom:longitude":5.080316,
    "iso:country":"NL",
    "sg:address":"Schouwburgring 122",
    "sg:city":"Tilburg",
    "sg:classifiers":[],
    "sg:orig_category":"Meubelzaken, Woning- And Keukeninrichting",
    "sg:owner":"simplegeo",
    "sg:phone":"+31 13 542 2122",
    "sg:postcode":"5038 TL",
    "sg:province":"North Brabant",
    "src:geom":"simplegeo",
    "wof:belongsto":[
        85797033,
        85633337,
        101751817,
        85687035
    ],
    "wof:breaches":[],
    "wof:concordances":{
        "sg:id":"SG_0Hpwk6hkoxudOXLKfyVAvV_51.554893_5.080316@1306269948"
    },
    "wof:country":"NL",
    "wof:geomhash":"ea16e8f18dff1bef43747856090036e8",
    "wof:hierarchy":[
        {
            "continent_id":-1,
            "country_id":85633337,
            "locality_id":101751817,
            "neighbourhood_id":85797033,
            "region_id":85687035,
            "venue_id":253270547
        }
    ],
    "wof:id":253270547,
    "wof:lastmodified":1449063347,
    "wof:name":"Ditvoorst Slaapwinkel",
    "wof:parent_id":85797033,
    "wof:placetype":"venue",
    "wof:superseded_by":[],
    "wof:supersedes":[],
    "wof:tags":[]
},
  "bbox": [5.080316,51.554893,5.080316,51.554893],
  "geometry": {"coordinates":[5.080316,51.554893],"type":"Point"}
}