{
  "id": 236608477,
  "type": "Feature",
  "properties": {
    "edtf:cessation":"u",
    "edtf:inception":"u",
    "geom:area":0.0,
    "geom:bbox":"5.719038,50.817669,5.719038,50.817669",
    "geom:latitude":50.817669,
    "geom:longitude":5.719038,
    "iso:country":"NL",
    "sg:address":"Vinkenslag 91",
    "sg:city":"Maastricht",
    "sg:classifiers":[],
    "sg:orig_category":"Autokeuringen",
    "sg:owner":"simplegeo",
    "sg:phone":"+31 43 408 3247",
    "sg:postcode":"6229 VE",
    "sg:province":"Limburg",
    "src:geom":"simplegeo",
    "wof:belongsto":[
        85797317,
        85633337,
        85687033
    ],
    "wof:breaches":[],
    "wof:concordances":{
        "sg:id":"SG_1jLYctV6iE6Mv11cMOQFyY_50.817669_5.719038@1306269939"
    },
    "wof:country":"NL",
    "wof:geomhash":"b6676c67c7815e8a8c6ae2a84c5b087f",
    "wof:hierarchy":[
        {
            "continent_id":-1,
            "country_id":85633337,
            "locality_id":-1,
            "neighbourhood_id":85797317,
            "region_id":85687033,
            "venue_id":236608477
        }
    ],
    "wof:id":236608477,
    "wof:lastmodified":1449002996,
    "wof:name":"Joseph Verstappen",
    "wof:parent_id":85797317,
    "wof:placetype":"venue",
    "wof:superseded_by":[],
    "wof:supersedes":[],
    "wof:tags":[]
},
  "bbox": [5.719038,50.817669,5.719038,50.817669],
  "geometry": {"coordinates":[5.719038,50.817669],"type":"Point"}
}