{
  "id": 219160075,
  "type": "Feature",
  "properties": {
    "edtf:cessation":"u",
    "edtf:inception":"u",
    "geom:area":0.0,
    "geom:bbox":"4.651195,52.493851,4.651195,52.493851",
    "geom:latitude":52.493851,
    "geom:longitude":4.651195,
    "iso:country":"NL",
    "sg:address":"Kuikenswg 27",
    "sg:city":"Beverwijk",
    "sg:classifiers":[],
    "sg:orig_category":"Lasbedrijven",
    "sg:owner":"simplegeo",
    "sg:phone":"+31 251 242 826",
    "sg:postcode":"1944 ED",
    "sg:province":"Noord-Holland",
    "src:geom":"simplegeo",
    "wof:belongsto":[
        85797997,
        85633337,
        101754793,
        85687053
    ],
    "wof:breaches":[],
    "wof:concordances":{
        "sg:id":"SG_3j00TuUe5PGjpYYn85Ow6u_52.493851_4.651195@1306269923"
    },
    "wof:country":"NL",
    "wof:geomhash":"5ea3cf56ac59d872e6ab7fce7b1f3b18",
    "wof:hierarchy":[
        {
            "continent_id":-1,
            "country_id":85633337,
            "locality_id":101754793,
            "neighbourhood_id":85797997,
            "region_id":85687053,
            "venue_id":219160075
        }
    ],
    "wof:id":219160075,
    "wof:lastmodified":1449073354,
    "wof:name":"Hoogland",
    "wof:parent_id":85797997,
    "wof:placetype":"venue",
    "wof:superseded_by":[],
    "wof:supersedes":[],
    "wof:tags":[]
},
  "bbox": [4.651195,52.493851,4.651195,52.493851],
  "geometry": {"coordinates":[4.651195,52.493851],"type":"Point"}
}