{
  "id": 186226701,
  "type": "Feature",
  "properties": {
    "edtf:cessation":"u",
    "edtf:inception":"u",
    "geom:area":0.0,
    "geom:bbox":"4.650703,52.621017,4.650703,52.621017",
    "geom:latitude":52.621017,
    "geom:longitude":4.650703,
    "iso:country":"NL",
    "sg:address":"Slotweg 1",
    "sg:city":"Egmond Aan Den Hoef",
    "sg:classifiers":[],
    "sg:orig_category":"Vakantiehuizen",
    "sg:owner":"simplegeo",
    "sg:phone":"+31 72 506 9090",
    "sg:postcode":"1934 EA",
    "sg:province":"North Holland",
    "src:geom":"simplegeo",
    "wof:belongsto":[
        85633337,
        85687053
    ],
    "wof:breaches":[],
    "wof:concordances":{
        "sg:id":"SG_6DtL7iX8irofXXuvc4gJu6_52.621017_4.650703@1306269911"
    },
    "wof:country":"NL",
    "wof:geomhash":"2260bf57591d8ba90eb630f5966abab5",
    "wof:hierarchy":[
        {
            "continent_id":-1,
            "country_id":85633337,
            "locality_id":-1,
            "neighbourhood_id":-1,
            "region_id":85687053,
            "venue_id":186226701
        }
    ],
    "wof:id":186226701,
    "wof:lastmodified":1449052305,
    "wof:name":"Tibe",
    "wof:parent_id":-1,
    "wof:placetype":"venue",
    "wof:superseded_by":[],
    "wof:supersedes":[],
    "wof:tags":[]
},
  "bbox": [4.650703,52.621017,4.650703,52.621017],
  "geometry": {"coordinates":[4.650703,52.621017],"type":"Point"}
}