{
  "id": 286285911,
  "type": "Feature",
  "properties": {
    "edtf:cessation":"u",
    "edtf:inception":"u",
    "geom:area":0.0,
    "geom:bbox":"4.85526,52.784695,4.85526,52.784695",
    "geom:latitude":52.784695,
    "geom:longitude":4.85526,
    "iso:country":"NL",
    "sg:address":"Heerenweg 146",
    "sg:city":"Barsingerhorn",
    "sg:classifiers":[
        {
            "category":"Education",
            "subcategory":"Preschool",
            "type":"Public Place"
        }
    ],
    "sg:owner":"simplegeo",
    "sg:phone":"+31 224 531 744",
    "sg:postcode":"1768 BH",
    "sg:province":"North Holland",
    "sg:tags":[
        "kleuteronderwijs",
        "basis-"
    ],
    "src:geom":"simplegeo",
    "wof:belongsto":[
        85633337,
        85687053
    ],
    "wof:breaches":[],
    "wof:concordances":{
        "sg:id":"SG_2JqRib4RlbR04zBRKztKqo_52.784695_4.855260@1306269967"
    },
    "wof:country":"NL",
    "wof:geomhash":"638236ee5040923d6c24a993a7de490d",
    "wof:hierarchy":[
        {
            "continent_id":-1,
            "country_id":85633337,
            "locality_id":-1,
            "neighbourhood_id":-1,
            "region_id":85687053,
            "venue_id":286285911
        }
    ],
    "wof:id":286285911,
    "wof:lastmodified":1449015239,
    "wof:name":"Openbare Basisschool De Schakel",
    "wof:parent_id":-1,
    "wof:placetype":"venue",
    "wof:superseded_by":[],
    "wof:supersedes":[],
    "wof:tags":[
        "kleuteronderwijs",
        "basis-"
    ]
},
  "bbox": [4.85526,52.784695,4.85526,52.784695],
  "geometry": {"coordinates":[4.85526,52.784695],"type":"Point"}
}