{
  "id": 186213135,
  "type": "Feature",
  "properties": {
    "edtf:cessation":"u",
    "edtf:inception":"u",
    "geom:area":0.0,
    "geom:bbox":"6.615528,52.382046,6.615528,52.382046",
    "geom:latitude":52.382046,
    "geom:longitude":6.615528,
    "iso:country":"NL",
    "sg:address":"Bedrijvenpark Twente 62",
    "sg:city":"Almelo",
    "sg:classifiers":[],
    "sg:orig_category":"Kunststofverpakkingen Fab",
    "sg:owner":"simplegeo",
    "sg:phone":"+31 546 576 666",
    "sg:postcode":"7602 KC",
    "sg:province":"NL.08",
    "src:geom":"simplegeo",
    "wof:belongsto":[
        85633337,
        101754769,
        85687045
    ],
    "wof:breaches":[],
    "wof:concordances":{
        "sg:id":"SG_2qLNH19ceCaQiWSl5w2V58_52.382046_6.615528@1306269911"
    },
    "wof:country":"NL",
    "wof:geomhash":"bc99519e9f816ac6bd069f5f65b9adf9",
    "wof:hierarchy":[
        {
            "continent_id":-1,
            "country_id":85633337,
            "locality_id":101754769,
            "neighbourhood_id":-1,
            "region_id":85687045,
            "venue_id":186213135
        }
    ],
    "wof:id":186213135,
    "wof:lastmodified":1449050283,
    "wof:name":"Kobes Plastics Bv",
    "wof:parent_id":-1,
    "wof:placetype":"venue",
    "wof:superseded_by":[],
    "wof:supersedes":[],
    "wof:tags":[]
},
  "bbox": [6.615528,52.382046,6.615528,52.382046],
  "geometry": {"coordinates":[6.615528,52.382046],"type":"Point"}
}