{
  "id": 203313809,
  "type": "Feature",
  "properties": {
    "edtf:cessation":"u",
    "edtf:inception":"u",
    "geom:area":0.0,
    "geom:bbox":"6.89112,52.220821,6.89112,52.220821",
    "geom:latitude":52.220821,
    "geom:longitude":6.89112,
    "iso:country":"NL",
    "sg:address":"Postbus 259",
    "sg:city":"Enschede",
    "sg:classifiers":[],
    "sg:orig_category":"Voetbalverenigingen",
    "sg:owner":"simplegeo",
    "sg:phone":"+31 53 277 2993",
    "sg:postcode":"7500 AG",
    "sg:province":"Overijssel",
    "src:geom":"simplegeo",
    "wof:belongsto":[
        85798259,
        85633337,
        101751871,
        85687045
    ],
    "wof:breaches":[],
    "wof:concordances":{
        "sg:id":"SG_33RV8SSd7ONMXcs9b07DE0_52.220821_6.891120@1306269923"
    },
    "wof:country":"NL",
    "wof:geomhash":"cff695b855f0980e4df86767cec11f56",
    "wof:hierarchy":[
        {
            "continent_id":-1,
            "country_id":85633337,
            "locality_id":101751871,
            "neighbourhood_id":85798259,
            "region_id":85687045,
            "venue_id":203313809
        }
    ],
    "wof:id":203313809,
    "wof:lastmodified":1449025011,
    "wof:name":"Aquaquick",
    "wof:parent_id":85798259,
    "wof:placetype":"venue",
    "wof:superseded_by":[],
    "wof:supersedes":[],
    "wof:tags":[]
},
  "bbox": [6.89112,52.220821,6.89112,52.220821],
  "geometry": {"coordinates":[6.89112,52.220821],"type":"Point"}
}