{
  "id": 286953355,
  "type": "Feature",
  "properties": {
    "edtf:cessation":"u",
    "edtf:inception":"u",
    "geom:area":0.0,
    "geom:bbox":"4.214762,52.01334,4.214762,52.01334",
    "geom:latitude":52.01334,
    "geom:longitude":4.214762,
    "iso:country":"NL",
    "sg:address":"Nieuweweg 29",
    "sg:city":"Honselersdijk",
    "sg:classifiers":[],
    "sg:orig_category":"Bloemen And Planten",
    "sg:owner":"simplegeo",
    "sg:phone":"+31 174 512 565",
    "sg:postcode":"2675 BE",
    "sg:province":"Zuid-Holland",
    "src:geom":"simplegeo",
    "wof:belongsto":[
        85859557,
        85633337,
        85687041
    ],
    "wof:breaches":[],
    "wof:concordances":{
        "sg:id":"SG_4HyRvg0y0kZcWPNWLd8he9_52.013340_4.214762@1306269975"
    },
    "wof:country":"NL",
    "wof:geomhash":"508dd6da3e443436ed8f26088119f005",
    "wof:hierarchy":[
        {
            "continent_id":-1,
            "country_id":85633337,
            "locality_id":-1,
            "neighbourhood_id":85859557,
            "region_id":85687041,
            "venue_id":286953355
        }
    ],
    "wof:id":286953355,
    "wof:lastmodified":1449017211,
    "wof:name":"Kwekerij Verhoog Cv",
    "wof:parent_id":85859557,
    "wof:placetype":"venue",
    "wof:superseded_by":[],
    "wof:supersedes":[],
    "wof:tags":[]
},
  "bbox": [4.214762,52.01334,4.214762,52.01334],
  "geometry": {"coordinates":[4.214762,52.01334],"type":"Point"}
}