{
  "id": 252783901,
  "type": "Feature",
  "properties": {
    "edtf:cessation":"u",
    "edtf:inception":"u",
    "geom:area":0.0,
    "geom:bbox":"6.395198,52.674992,6.395198,52.674992",
    "geom:latitude":52.674992,
    "geom:longitude":6.395198,
    "iso:country":"NL",
    "sg:address":"Veeningen 3",
    "sg:city":"Veeningen",
    "sg:classifiers":[
        {
            "category":"Sports & Exercise",
            "subcategory":"Stables",
            "type":"Entertainment"
        }
    ],
    "sg:owner":"simplegeo",
    "sg:phone":"+31 528 391 376",
    "sg:postcode":"7924 PG",
    "sg:province":"Drenthe",
    "sg:tags":[
        "maneges"
    ],
    "src:geom":"simplegeo",
    "wof:belongsto":[
        85633337,
        85687051
    ],
    "wof:breaches":[],
    "wof:concordances":{
        "sg:id":"SG_1ZFXWTGxpjENiDM6Q4dCld_52.674992_6.395198@1306269943"
    },
    "wof:country":"NL",
    "wof:geomhash":"7a1ed13f7ea13020cf9f1cfa76d1d88b",
    "wof:hierarchy":[
        {
            "continent_id":-1,
            "country_id":85633337,
            "locality_id":-1,
            "neighbourhood_id":-1,
            "region_id":85687051,
            "venue_id":252783901
        }
    ],
    "wof:id":252783901,
    "wof:lastmodified":1449005435,
    "wof:name":"Zuidwolde",
    "wof:parent_id":-1,
    "wof:placetype":"venue",
    "wof:superseded_by":[],
    "wof:supersedes":[],
    "wof:tags":[
        "maneges"
    ]
},
  "bbox": [6.395198,52.674992,6.395198,52.674992],
  "geometry": {"coordinates":[6.395198,52.674992],"type":"Point"}
}