{
  "id": 286650923,
  "type": "Feature",
  "properties": {
    "edtf:cessation":"u",
    "edtf:inception":"u",
    "geom:area":0.0,
    "geom:bbox":"-100.301712,47.467731,-100.301712,47.467731",
    "geom:latitude":47.467731,
    "geom:longitude":-100.301712,
    "iso:country":"NL",
    "sg:address":"T Vaartje 134",
    "sg:city":"Waspik",
    "sg:classifiers":[],
    "sg:orig_category":"Bestratingen",
    "sg:owner":"simplegeo",
    "sg:phone":"+31 416 311 219",
    "sg:postcode":"5165 ND",
    "sg:province":"Noord-Brabant",
    "src:geom":"simplegeo",
    "wof:belongsto":[
        85633793,
        85688525
    ],
    "wof:breaches":[],
    "wof:concordances":{
        "sg:id":"SG_0tbBOqzTrb0qP8vZFsZ1Pd_47.467731_-100.301712@1306269971"
    },
    "wof:country":"NL",
    "wof:geomhash":"3ccf6121946b926aae2660aa72f37204",
    "wof:hierarchy":[
        {
            "continent_id":-1,
            "country_id":85633793,
            "locality_id":-1,
            "neighbourhood_id":-1,
            "region_id":85688525,
            "venue_id":286650923
        }
    ],
    "wof:id":286650923,
    "wof:lastmodified":1449016999,
    "wof:name":"Kemmeren, M",
    "wof:parent_id":-1,
    "wof:placetype":"venue",
    "wof:superseded_by":[],
    "wof:supersedes":[],
    "wof:tags":[]
},
  "bbox": [-100.301712,47.467731,-100.301712,47.467731],
  "geometry": {"coordinates":[-100.301712,47.467731],"type":"Point"}
}