{
  "id": 253499323,
  "type": "Feature",
  "properties": {
    "edtf:cessation":"u",
    "edtf:inception":"u",
    "geom:area":0.0,
    "geom:bbox":"6.093569,52.512463,6.093569,52.512463",
    "geom:latitude":52.512463,
    "geom:longitude":6.093569,
    "iso:country":"NL",
    "sg:address":"Diezerstr 7",
    "sg:city":"Zwolle",
    "sg:classifiers":[],
    "sg:orig_category":"Parfumerie\u00c3\u00abn",
    "sg:owner":"simplegeo",
    "sg:phone":"+31 38 422 0405",
    "sg:postcode":"8011 RA",
    "sg:province":"Overijssel",
    "src:geom":"simplegeo",
    "wof:belongsto":[
        85797067,
        85633337,
        85687045
    ],
    "wof:breaches":[],
    "wof:concordances":{
        "sg:id":"SG_3tfs23LVDZlINvsLqDHJlo_52.512463_6.093569@1306269950"
    },
    "wof:country":"NL",
    "wof:geomhash":"4b0babfb707c71d715e9e3ced6539387",
    "wof:hierarchy":[
        {
            "continent_id":-1,
            "country_id":85633337,
            "locality_id":-1,
            "neighbourhood_id":85797067,
            "region_id":85687045,
            "venue_id":253499323
        }
    ],
    "wof:id":253499323,
    "wof:lastmodified":1449063371,
    "wof:name":"Douglas",
    "wof:parent_id":85797067,
    "wof:placetype":"venue",
    "wof:superseded_by":[],
    "wof:supersedes":[],
    "wof:tags":[]
},
  "bbox": [6.093569,52.512463,6.093569,52.512463],
  "geometry": {"coordinates":[6.093569,52.512463],"type":"Point"}
}