{
  "id": 269508021,
  "type": "Feature",
  "properties": {
    "edtf:cessation":"u",
    "edtf:inception":"u",
    "geom:area":0.0,
    "geom:bbox":"4.920347,52.713303,4.920347,52.713303",
    "geom:latitude":52.713303,
    "geom:longitude":4.920347,
    "iso:country":"NL",
    "sg:address":"Westerboekelwg 17A",
    "sg:city":"Hoogwoud",
    "sg:classifiers":[
        {
            "category":"Manufacturing",
            "subcategory":"Textiles",
            "type":"Manufacturing & Wholesale Goods"
        }
    ],
    "sg:owner":"simplegeo",
    "sg:phone":"+31 226 358 585",
    "sg:postcode":"1718 MJ",
    "sg:province":"Noord-Holland",
    "sg:tags":[
        "polyester"
    ],
    "sg:website":"http://www.belder.nl",
    "src:geom":"simplegeo",
    "wof:belongsto":[
        85633337,
        85687053
    ],
    "wof:breaches":[],
    "wof:concordances":{
        "sg:id":"SG_5obUNpgpdwtGiiujcbvGWU_52.713303_4.920347@1306269953"
    },
    "wof:country":"NL",
    "wof:geomhash":"dac3ccb777ac92aade45ea65587f06e0",
    "wof:hierarchy":[
        {
            "continent_id":-1,
            "country_id":85633337,
            "locality_id":-1,
            "neighbourhood_id":-1,
            "region_id":85687053,
            "venue_id":269508021
        }
    ],
    "wof:id":269508021,
    "wof:lastmodified":1449037476,
    "wof:name":"Belder Bouwprodukten Bv",
    "wof:parent_id":-1,
    "wof:placetype":"venue",
    "wof:superseded_by":[],
    "wof:supersedes":[],
    "wof:tags":[
        "polyester"
    ]
},
  "bbox": [4.920347,52.713303,4.920347,52.713303],
  "geometry": {"coordinates":[4.920347,52.713303],"type":"Point"}
}