{
  "id": 320021555,
  "type": "Feature",
  "properties": {
    "edtf:cessation":"u",
    "edtf:inception":"u",
    "geom:area":0.0,
    "geom:bbox":"-91.316055,44.505962,-91.316055,44.505962",
    "geom:latitude":44.505962,
    "geom:longitude":-91.316055,
    "iso:country":"NL",
    "sg:address":"De Edelenburgstraat 66",
    "sg:city":"Oss",
    "sg:classifiers":[],
    "sg:orig_category":"Hypotheken And Hypotheekbanken",
    "sg:owner":"simplegeo",
    "sg:phone":"+31 412 626 272",
    "sg:postcode":"5346 VM",
    "sg:province":"Wisconsin",
    "src:geom":"simplegeo",
    "wof:belongsto":[
        85633793,
        85688517
    ],
    "wof:breaches":[],
    "wof:concordances":{
        "sg:id":"SG_0vqYiudKUEvUTaD6jl4DXr_44.505962_-91.316055@1306269993"
    },
    "wof:country":"NL",
    "wof:geomhash":"8a8a2c1b00133a2aa1c764a2abb51ebd",
    "wof:hierarchy":[
        {
            "continent_id":-1,
            "country_id":85633793,
            "locality_id":-1,
            "neighbourhood_id":-1,
            "region_id":85688517,
            "venue_id":320021555
        }
    ],
    "wof:id":320021555,
    "wof:lastmodified":1449013608,
    "wof:name":"V&B Hypotheek Desk.",
    "wof:parent_id":-1,
    "wof:placetype":"venue",
    "wof:superseded_by":[],
    "wof:supersedes":[],
    "wof:tags":[]
},
  "bbox": [-91.316055,44.505962,-91.316055,44.505962],
  "geometry": {"coordinates":[-91.316055,44.505962],"type":"Point"}
}