{
  "id": 320777403,
  "type": "Feature",
  "properties": {
    "edtf:cessation":"u",
    "edtf:inception":"u",
    "geom:area":0.0,
    "geom:bbox":"6.170559,51.420029,6.170559,51.420029",
    "geom:latitude":51.420029,
    "geom:longitude":6.170559,
    "iso:country":"NL",
    "sg:address":"Vilgert 40",
    "sg:city":"Velden",
    "sg:classifiers":[],
    "sg:orig_category":"Zuivelproducten",
    "sg:owner":"simplegeo",
    "sg:phone":"+31 77 472 2760",
    "sg:postcode":"5941 CT",
    "sg:province":"Limburg",
    "src:geom":"simplegeo",
    "wof:belongsto":[
        85633337,
        85687033
    ],
    "wof:breaches":[],
    "wof:concordances":{
        "sg:id":"SG_5838YSr7rYSgPsqVhPNfMY_51.420029_6.170559@1306270002"
    },
    "wof:country":"NL",
    "wof:geomhash":"a3b28646dea7d4a1890ba2aca30d1c31",
    "wof:hierarchy":[
        {
            "continent_id":-1,
            "country_id":85633337,
            "locality_id":-1,
            "neighbourhood_id":-1,
            "region_id":85687033,
            "venue_id":320777403
        }
    ],
    "wof:id":320777403,
    "wof:lastmodified":1449013236,
    "wof:name":"Zuivelhandel John Jakobs",
    "wof:parent_id":-1,
    "wof:placetype":"venue",
    "wof:superseded_by":[],
    "wof:supersedes":[],
    "wof:tags":[]
},
  "bbox": [6.170559,51.420029,6.170559,51.420029],
  "geometry": {"coordinates":[6.170559,51.420029],"type":"Point"}
}