{
  "id": 270196471,
  "type": "Feature",
  "properties": {
    "edtf:cessation":"u",
    "edtf:inception":"u",
    "geom:area":0.0,
    "geom:bbox":"5.910891,51.989128,5.910891,51.989128",
    "geom:latitude":51.989128,
    "geom:longitude":5.910891,
    "iso:country":"NL",
    "sg:address":"J Cremerstr 80",
    "sg:city":"Arnhem",
    "sg:classifiers":[],
    "sg:orig_category":"Fotoreportages",
    "sg:owner":"simplegeo",
    "sg:phone":"+31 26 351 6263",
    "sg:postcode":"6821 DG",
    "sg:province":"Gelderland",
    "src:geom":"simplegeo",
    "wof:belongsto":[
        85797057,
        85633337,
        101751857,
        85687043
    ],
    "wof:breaches":[],
    "wof:concordances":{
        "sg:id":"SG_3GN7no0PcJINZPQADQzMPw_51.989128_5.910891@1306269963"
    },
    "wof:country":"NL",
    "wof:geomhash":"03f6056be2493b40739b3255ea6c2242",
    "wof:hierarchy":[
        {
            "continent_id":-1,
            "country_id":85633337,
            "locality_id":101751857,
            "neighbourhood_id":85797057,
            "region_id":85687043,
            "venue_id":270196471
        }
    ],
    "wof:id":270196471,
    "wof:lastmodified":1449009176,
    "wof:name":"Oost, Emma",
    "wof:parent_id":85797057,
    "wof:placetype":"venue",
    "wof:superseded_by":[],
    "wof:supersedes":[],
    "wof:tags":[]
},
  "bbox": [5.910891,51.989128,5.910891,51.989128],
  "geometry": {"coordinates":[5.910891,51.989128],"type":"Point"}
}