{
  "id": 202995889,
  "type": "Feature",
  "properties": {
    "edtf:cessation":"u",
    "edtf:inception":"u",
    "geom:area":0.0,
    "geom:bbox":"7.049456,52.878319,7.049456,52.878319",
    "geom:latitude":52.878319,
    "geom:longitude":7.049456,
    "iso:country":"NL",
    "sg:address":"Viaductstr 35",
    "sg:city":"Ter Apel",
    "sg:classifiers":[],
    "sg:orig_category":"Verzekeringen - Verzekeringskantoren",
    "sg:owner":"simplegeo",
    "sg:phone":"+31 599 582 688",
    "sg:postcode":"9561 AB",
    "sg:province":"Groningen",
    "src:geom":"simplegeo",
    "wof:belongsto":[
        85633337,
        101838031,
        85687059
    ],
    "wof:breaches":[],
    "wof:concordances":{
        "sg:id":"SG_0CpOigBhRW6uMqsGmlqRBK_52.878319_7.049456@1306269920"
    },
    "wof:country":"NL",
    "wof:geomhash":"e6674077572641813c3e65750cf501a9",
    "wof:hierarchy":[
        {
            "continent_id":-1,
            "country_id":85633337,
            "locality_id":101838031,
            "neighbourhood_id":-1,
            "region_id":85687059,
            "venue_id":202995889
        }
    ],
    "wof:id":202995889,
    "wof:lastmodified":1449062365,
    "wof:name":"Ond Paardenverz Mij",
    "wof:parent_id":-1,
    "wof:placetype":"venue",
    "wof:superseded_by":[],
    "wof:supersedes":[],
    "wof:tags":[]
},
  "bbox": [7.049456,52.878319,7.049456,52.878319],
  "geometry": {"coordinates":[7.049456,52.878319],"type":"Point"}
}