{
  "id": 236772349,
  "type": "Feature",
  "properties": {
    "edtf:cessation":"u",
    "edtf:inception":"u",
    "geom:area":0.0,
    "geom:bbox":"6.516025,52.857738,6.516025,52.857738",
    "geom:latitude":52.857738,
    "geom:longitude":6.516025,
    "iso:country":"NL",
    "sg:address":"Reigerln 55",
    "sg:city":"Beilen",
    "sg:classifiers":[],
    "sg:orig_category":"Autorijscholen",
    "sg:owner":"simplegeo",
    "sg:phone":"+31 593 525 550",
    "sg:postcode":"9411 GT",
    "sg:province":"Provincie Drenthe",
    "src:geom":"simplegeo",
    "wof:belongsto":[
        85633337,
        101807273,
        85687051
    ],
    "wof:breaches":[],
    "wof:concordances":{
        "sg:id":"SG_3B9Cjx8qMmFDxNQU3Z68GX_52.857738_6.516025@1306269941"
    },
    "wof:country":"NL",
    "wof:geomhash":"26a4bd15cfdc130e27f791fa36efa7a4",
    "wof:hierarchy":[
        {
            "continent_id":-1,
            "country_id":85633337,
            "locality_id":101807273,
            "neighbourhood_id":-1,
            "region_id":85687051,
            "venue_id":236772349
        }
    ],
    "wof:id":236772349,
    "wof:lastmodified":1449003069,
    "wof:name":"Gils Auto- En Motorrijschool",
    "wof:parent_id":-1,
    "wof:placetype":"venue",
    "wof:superseded_by":[],
    "wof:supersedes":[],
    "wof:tags":[]
},
  "bbox": [6.516025,52.857738,6.516025,52.857738],
  "geometry": {"coordinates":[6.516025,52.857738],"type":"Point"}
}