{
  "id": 303085627,
  "type": "Feature",
  "properties": {
    "edtf:cessation":"u",
    "edtf:inception":"u",
    "geom:area":0.0,
    "geom:bbox":"4.531693,51.591938,4.531693,51.591938",
    "geom:latitude":51.591938,
    "geom:longitude":4.531693,
    "iso:country":"NL",
    "sg:address":"Bornhemweg 16",
    "sg:city":"Oudenbosch",
    "sg:classifiers":[],
    "sg:orig_category":"Boomkwekerijen",
    "sg:owner":"simplegeo",
    "sg:phone":"+31 165 312 203",
    "sg:postcode":"4731 KD",
    "sg:province":"Noord-Brabant",
    "src:geom":"simplegeo",
    "wof:belongsto":[
        85633337,
        101808323,
        85687035
    ],
    "wof:breaches":[],
    "wof:concordances":{
        "sg:id":"SG_24DtzNby9ThGamzIDj2vTr_51.591938_4.531693@1306269979"
    },
    "wof:country":"NL",
    "wof:geomhash":"a4cc9d99c4add04da25b0116e89ffe2e",
    "wof:hierarchy":[
        {
            "continent_id":-1,
            "country_id":85633337,
            "locality_id":101808323,
            "neighbourhood_id":-1,
            "region_id":85687035,
            "venue_id":303085627
        }
    ],
    "wof:id":303085627,
    "wof:lastmodified":1448998727,
    "wof:name":"Koninklijke Boomkwekerijen Alphons Van Der Bom Bv",
    "wof:parent_id":-1,
    "wof:placetype":"venue",
    "wof:superseded_by":[],
    "wof:supersedes":[],
    "wof:tags":[]
},
  "bbox": [4.531693,51.591938,4.531693,51.591938],
  "geometry": {"coordinates":[4.531693,51.591938],"type":"Point"}
}