{
  "id": 253689779,
  "type": "Feature",
  "properties": {
    "edtf:cessation":"u",
    "edtf:inception":"u",
    "geom:area":0.0,
    "geom:bbox":"5.580239,52.142185,5.580239,52.142185",
    "geom:latitude":52.142185,
    "geom:longitude":5.580239,
    "iso:country":"NL",
    "sg:address":"Beekstr 15",
    "sg:city":"Barneveld",
    "sg:classifiers":[],
    "sg:orig_category":"Plafonds",
    "sg:owner":"simplegeo",
    "sg:phone":"+31 342 412 494",
    "sg:postcode":"3771 CM",
    "sg:province":"Gelderland",
    "src:geom":"simplegeo",
    "wof:belongsto":[
        85633337,
        101807053,
        85687043
    ],
    "wof:breaches":[],
    "wof:concordances":{
        "sg:id":"SG_265PIGYLN0KfRXdm510LQ6_52.142185_5.580239@1306269953"
    },
    "wof:country":"NL",
    "wof:geomhash":"3aa4250fea9aa495cd9250a85bb3874a",
    "wof:hierarchy":[
        {
            "continent_id":-1,
            "country_id":85633337,
            "locality_id":101807053,
            "neighbourhood_id":-1,
            "region_id":85687043,
            "venue_id":253689779
        }
    ],
    "wof:id":253689779,
    "wof:lastmodified":1449065266,
    "wof:name":"Luttikhuizen, W H Van",
    "wof:parent_id":-1,
    "wof:placetype":"venue",
    "wof:superseded_by":[],
    "wof:supersedes":[],
    "wof:tags":[]
},
  "bbox": [5.580239,52.142185,5.580239,52.142185],
  "geometry": {"coordinates":[5.580239,52.142185],"type":"Point"}
}