{
  "id": 320276213,
  "type": "Feature",
  "properties": {
    "edtf:cessation":"u",
    "edtf:inception":"u",
    "geom:area":0.0,
    "geom:bbox":"6.20835,52.137009,6.20835,52.137009",
    "geom:latitude":52.137009,
    "geom:longitude":6.20835,
    "iso:country":"NL",
    "sg:address":"Henk Lierstraat 3",
    "sg:city":"Zutphen",
    "sg:classifiers":[],
    "sg:orig_category":"Glaszetten",
    "sg:owner":"simplegeo",
    "sg:phone":"+31 575 525 884",
    "sg:postcode":"7204 GP",
    "sg:province":"Gelderland",
    "src:geom":"simplegeo",
    "wof:belongsto":[
        85798799,
        85633337,
        101837819,
        85687043
    ],
    "wof:breaches":[],
    "wof:concordances":{
        "sg:id":"SG_19uLmHFYGPNEsmwl8W0hEF_52.137009_6.208350@1306269997"
    },
    "wof:country":"NL",
    "wof:geomhash":"0cb8aa01a0a6e7a20733e1e585856719",
    "wof:hierarchy":[
        {
            "continent_id":-1,
            "country_id":85633337,
            "locality_id":101837819,
            "neighbourhood_id":85798799,
            "region_id":85687043,
            "venue_id":320276213
        }
    ],
    "wof:id":320276213,
    "wof:lastmodified":1449011394,
    "wof:name":"S. Kose",
    "wof:parent_id":85798799,
    "wof:placetype":"venue",
    "wof:superseded_by":[],
    "wof:supersedes":[],
    "wof:tags":[]
},
  "bbox": [6.20835,52.137009,6.20835,52.137009],
  "geometry": {"coordinates":[6.20835,52.137009],"type":"Point"}
}