{
  "id": 270503953,
  "type": "Feature",
  "properties": {
    "edtf:cessation":"u",
    "edtf:inception":"u",
    "geom:area":0.0,
    "geom:bbox":"4.73252,51.608219,4.73252,51.608219",
    "geom:latitude":51.608219,
    "geom:longitude":4.73252,
    "iso:country":"NL",
    "sg:address":"Kesterendreef 6",
    "sg:city":"Breda",
    "sg:classifiers":[
        {
            "category":"Education",
            "subcategory":"Preschool",
            "type":"Public Place"
        }
    ],
    "sg:owner":"simplegeo",
    "sg:phone":"+31 76 541 2855",
    "sg:postcode":"4822 WT",
    "sg:province":"Noord-Brabant",
    "sg:tags":[
        "kleuteronderwijs",
        "basis-"
    ],
    "src:geom":"simplegeo",
    "wof:belongsto":[
        85797613,
        85633337,
        101751811,
        85687035
    ],
    "wof:breaches":[],
    "wof:concordances":{
        "sg:id":"SG_1Ttqc4rZ82KnN0KfDjvHUM_51.608219_4.732520@1306269966"
    },
    "wof:country":"NL",
    "wof:geomhash":"e51880b897b03ede751ebba407885acc",
    "wof:hierarchy":[
        {
            "continent_id":-1,
            "country_id":85633337,
            "locality_id":101751811,
            "neighbourhood_id":85797613,
            "region_id":85687035,
            "venue_id":270503953
        }
    ],
    "wof:id":270503953,
    "wof:lastmodified":1449011124,
    "wof:name":"De Keettrappertjes Peuterspeelzaal",
    "wof:parent_id":85797613,
    "wof:placetype":"venue",
    "wof:superseded_by":[],
    "wof:supersedes":[],
    "wof:tags":[
        "kleuteronderwijs",
        "basis-"
    ]
},
  "bbox": [4.73252,51.608219,4.73252,51.608219],
  "geometry": {"coordinates":[4.73252,51.608219],"type":"Point"}
}