{
  "id": 320584079,
  "type": "Feature",
  "properties": {
    "edtf:cessation":"u",
    "edtf:inception":"u",
    "geom:area":0.0,
    "geom:bbox":"5.578668,51.626625,5.578668,51.626625",
    "geom:latitude":51.626625,
    "geom:longitude":5.578668,
    "iso:country":"NL",
    "sg:address":"Heiakkerstr 1",
    "sg:city":"Veghel",
    "sg:classifiers":[
        {
            "category":"Food & Beverages",
            "subcategory":"Fruits & Vegetables",
            "type":"Retail Goods"
        }
    ],
    "sg:owner":"simplegeo",
    "sg:phone":"+31 413 366 256",
    "sg:postcode":"5464 TB",
    "sg:province":"North Brabant",
    "sg:tags":[
        "en",
        "groenten"
    ],
    "src:geom":"simplegeo",
    "wof:belongsto":[
        85633337,
        85687035
    ],
    "wof:breaches":[],
    "wof:concordances":{
        "sg:id":"SG_1wZKJK80WGdYEiZc5SFAMZ_51.626625_5.578668@1306270000"
    },
    "wof:country":"NL",
    "wof:geomhash":"280f7931eeeb7cd4384f756e6d5eabaa",
    "wof:hierarchy":[
        {
            "continent_id":-1,
            "country_id":85633337,
            "locality_id":-1,
            "neighbourhood_id":-1,
            "region_id":85687035,
            "venue_id":320584079
        }
    ],
    "wof:id":320584079,
    "wof:lastmodified":1449011654,
    "wof:name":"Asseldonk, J W M Van",
    "wof:parent_id":-1,
    "wof:placetype":"venue",
    "wof:superseded_by":[],
    "wof:supersedes":[],
    "wof:tags":[
        "en",
        "groenten"
    ]
},
  "bbox": [5.578668,51.626625,5.578668,51.626625],
  "geometry": {"coordinates":[5.578668,51.626625],"type":"Point"}
}