{
  "id": 185719603,
  "type": "Feature",
  "properties": {
    "edtf:cessation":"u",
    "edtf:inception":"u",
    "geom:area":0.0,
    "geom:bbox":"4.965194,52.087032,4.965194,52.087032",
    "geom:latitude":52.087032,
    "geom:longitude":4.965194,
    "iso:country":"NL",
    "sg:address":"Walmolen 31",
    "sg:city":"Harmelen",
    "sg:classifiers":[],
    "sg:orig_category":"Keuken- Groot-Installaties",
    "sg:owner":"simplegeo",
    "sg:phone":"+31 348 445 006",
    "sg:postcode":"3481 AB",
    "sg:province":"Utrecht",
    "src:geom":"simplegeo",
    "wof:belongsto":[
        85633337,
        85687039
    ],
    "wof:breaches":[],
    "wof:concordances":{
        "sg:id":"SG_5zmFRYOfFom3pJ5UY3iu4F_52.087032_4.965194@1306269907"
    },
    "wof:country":"NL",
    "wof:geomhash":"3680ff60235de000d1c9d5a97c5a06ec",
    "wof:hierarchy":[
        {
            "continent_id":-1,
            "country_id":85633337,
            "locality_id":-1,
            "neighbourhood_id":-1,
            "region_id":85687039,
            "venue_id":185719603
        }
    ],
    "wof:id":185719603,
    "wof:lastmodified":1449006811,
    "wof:name":"Kmm",
    "wof:parent_id":-1,
    "wof:placetype":"venue",
    "wof:superseded_by":[],
    "wof:supersedes":[],
    "wof:tags":[]
},
  "bbox": [4.965194,52.087032,4.965194,52.087032],
  "geometry": {"coordinates":[4.965194,52.087032],"type":"Point"}
}