{
  "id": 169867153,
  "type": "Feature",
  "properties": {
    "edtf:cessation":"u",
    "edtf:inception":"u",
    "geom:area":0.0,
    "geom:bbox":"4.671928,51.799614,4.671928,51.799614",
    "geom:latitude":51.799614,
    "geom:longitude":4.671928,
    "iso:country":"NL",
    "sg:address":"W Pyrmontwg 2",
    "sg:city":"Dordrecht",
    "sg:classifiers":[],
    "sg:orig_category":"Kappers",
    "sg:owner":"simplegeo",
    "sg:phone":"+31 78 618 2518",
    "sg:postcode":"3314 NZ",
    "sg:province":"Zuid-Holland",
    "src:geom":"simplegeo",
    "wof:belongsto":[
        85798785,
        85633337,
        101751841,
        85687041
    ],
    "wof:breaches":[],
    "wof:concordances":{
        "sg:id":"SG_2reblTZ40QOReSeQ22gECY_51.799614_4.671928@1306269906"
    },
    "wof:country":"NL",
    "wof:geomhash":"c06913ce80e587dfbf8cca3001a10bc8",
    "wof:hierarchy":[
        {
            "continent_id":-1,
            "country_id":85633337,
            "locality_id":101751841,
            "neighbourhood_id":85798785,
            "region_id":85687041,
            "venue_id":169867153
        }
    ],
    "wof:id":169867153,
    "wof:lastmodified":1449034096,
    "wof:name":"Snoo Kapsalon, S De",
    "wof:parent_id":85798785,
    "wof:placetype":"venue",
    "wof:superseded_by":[],
    "wof:supersedes":[],
    "wof:tags":[]
},
  "bbox": [4.671928,51.799614,4.671928,51.799614],
  "geometry": {"coordinates":[4.671928,51.799614],"type":"Point"}
}