{
  "id": 253434127,
  "type": "Feature",
  "properties": {
    "edtf:cessation":"u",
    "edtf:inception":"u",
    "geom:area":0.0,
    "geom:bbox":"5.102126,51.584087,5.102126,51.584087",
    "geom:latitude":51.584087,
    "geom:longitude":5.102126,
    "iso:country":"NL",
    "sg:address":"Obrechtstraat 450",
    "sg:city":"Tilburg",
    "sg:classifiers":[],
    "sg:orig_category":"Muziekinstrumenten",
    "sg:owner":"simplegeo",
    "sg:phone":"+31 13 455 4674",
    "sg:postcode":"5012 EL",
    "sg:province":"Noord-Brabant",
    "src:geom":"simplegeo",
    "wof:belongsto":[
        85797655,
        85633337,
        85687035
    ],
    "wof:breaches":[],
    "wof:concordances":{
        "sg:id":"SG_11r8fhe8fH9ydfzMtQfSvl_51.584087_5.102126@1306269949"
    },
    "wof:country":"NL",
    "wof:geomhash":"8fcc877fcbf10c79360fe00b66c59018",
    "wof:hierarchy":[
        {
            "continent_id":-1,
            "country_id":85633337,
            "locality_id":-1,
            "neighbourhood_id":85797655,
            "region_id":85687035,
            "venue_id":253434127
        }
    ],
    "wof:id":253434127,
    "wof:lastmodified":1449063448,
    "wof:name":"Van Gemert Vleugels",
    "wof:parent_id":85797655,
    "wof:placetype":"venue",
    "wof:superseded_by":[],
    "wof:supersedes":[],
    "wof:tags":[]
},
  "bbox": [5.102126,51.584087,5.102126,51.584087],
  "geometry": {"coordinates":[5.102126,51.584087],"type":"Point"}
}