{
  "id": 219238973,
  "type": "Feature",
  "properties": {
    "edtf:cessation":"u",
    "edtf:inception":"u",
    "geom:area":0.0,
    "geom:bbox":"5.332087,52.015633,5.332087,52.015633",
    "geom:latitude":52.015633,
    "geom:longitude":5.332087,
    "iso:country":"NL",
    "sg:address":"Doornsewg 63",
    "sg:city":"Langbroek",
    "sg:classifiers":[],
    "sg:orig_category":"Lijstenmakerijen",
    "sg:owner":"simplegeo",
    "sg:phone":"+31 343 563 211",
    "sg:postcode":"3947 MB",
    "sg:province":"Utrecht",
    "src:geom":"simplegeo",
    "wof:belongsto":[
        85633337,
        101807009,
        85687039
    ],
    "wof:breaches":[],
    "wof:concordances":{
        "sg:id":"SG_2jEPUwPoknvJHCJEaX7ViQ_52.015633_5.332087@1306269924"
    },
    "wof:country":"NL",
    "wof:geomhash":"ed6b054210ff321c9160793236215a3e",
    "wof:hierarchy":[
        {
            "continent_id":-1,
            "country_id":85633337,
            "locality_id":101807009,
            "neighbourhood_id":-1,
            "region_id":85687039,
            "venue_id":219238973
        }
    ],
    "wof:id":219238973,
    "wof:lastmodified":1449071710,
    "wof:name":"Els Lijsten Bv",
    "wof:parent_id":-1,
    "wof:placetype":"venue",
    "wof:superseded_by":[],
    "wof:supersedes":[],
    "wof:tags":[]
},
  "bbox": [5.332087,52.015633,5.332087,52.015633],
  "geometry": {"coordinates":[5.332087,52.015633],"type":"Point"}
}