{
  "id": 220032719,
  "type": "Feature",
  "properties": {
    "edtf:cessation":"u",
    "edtf:inception":"u",
    "geom:area":0.0,
    "geom:bbox":"5.170418,52.283646,5.170418,52.283646",
    "geom:latitude":52.283646,
    "geom:longitude":5.170418,
    "iso:country":"NL",
    "sg:address":"Rembrandtln 53",
    "sg:city":"Naarden",
    "sg:classifiers":[],
    "sg:orig_category":"Adviesbureaus Economie",
    "sg:owner":"simplegeo",
    "sg:phone":"+31 35 694 7267",
    "sg:postcode":"1412 JN",
    "sg:province":"Noord-Holland",
    "src:geom":"simplegeo",
    "wof:belongsto":[
        85797181,
        85633337,
        85687053
    ],
    "wof:breaches":[],
    "wof:concordances":{
        "sg:id":"SG_4PFNxWycM0wTQhfJHGbYHh_52.283646_5.170418@1306269931"
    },
    "wof:country":"NL",
    "wof:geomhash":"2ad99d40dc724ff83794c09beec5ffd8",
    "wof:hierarchy":[
        {
            "continent_id":-1,
            "country_id":85633337,
            "locality_id":-1,
            "neighbourhood_id":85797181,
            "region_id":85687053,
            "venue_id":220032719
        }
    ],
    "wof:id":220032719,
    "wof:lastmodified":1449074418,
    "wof:name":"Hazeco Bv",
    "wof:parent_id":85797181,
    "wof:placetype":"venue",
    "wof:superseded_by":[],
    "wof:supersedes":[],
    "wof:tags":[]
},
  "bbox": [5.170418,52.283646,5.170418,52.283646],
  "geometry": {"coordinates":[5.170418,52.283646],"type":"Point"}
}