{
  "id": 320322891,
  "type": "Feature",
  "properties": {
    "edtf:cessation":"u",
    "edtf:inception":"u",
    "geom:area":0.0,
    "geom:bbox":"5.125413,51.779945,5.125413,51.779945",
    "geom:latitude":51.779945,
    "geom:longitude":5.125413,
    "iso:country":"NL",
    "sg:address":"Maasdijk 82",
    "sg:city":"Aalst Gld",
    "sg:classifiers":[],
    "sg:orig_category":"Goederenvervoer Over De Weg",
    "sg:owner":"simplegeo",
    "sg:phone":"+31 418 673 654",
    "sg:postcode":"5308 JD",
    "sg:province":"Gelderland",
    "src:geom":"simplegeo",
    "wof:belongsto":[
        85633337,
        101837735,
        85687043
    ],
    "wof:breaches":[],
    "wof:concordances":{
        "sg:id":"SG_1BgxuiFwGFw6Nbqgwth9Wu_51.779945_5.125413@1306269997"
    },
    "wof:country":"NL",
    "wof:geomhash":"f0102cdaee698536146bfe99c306c1fc",
    "wof:hierarchy":[
        {
            "continent_id":-1,
            "country_id":85633337,
            "locality_id":101837735,
            "neighbourhood_id":-1,
            "region_id":85687043,
            "venue_id":320322891
        }
    ],
    "wof:id":320322891,
    "wof:lastmodified":1449011221,
    "wof:name":"Eljo Exalto Transport",
    "wof:parent_id":-1,
    "wof:placetype":"venue",
    "wof:superseded_by":[],
    "wof:supersedes":[],
    "wof:tags":[]
},
  "bbox": [5.125413,51.779945,5.125413,51.779945],
  "geometry": {"coordinates":[5.125413,51.779945],"type":"Point"}
}