{
  "id": 320696189,
  "type": "Feature",
  "properties": {
    "edtf:cessation":"u",
    "edtf:inception":"u",
    "geom:area":0.0,
    "geom:bbox":"4.674784,52.145519,4.674784,52.145519",
    "geom:latitude":52.145519,
    "geom:longitude":4.674784,
    "iso:country":"NL",
    "sg:address":"Ridderhof 5A",
    "sg:city":"Alphen Aan Den Ryn",
    "sg:classifiers":[],
    "sg:orig_category":"Zoetwaren - Winkels",
    "sg:owner":"simplegeo",
    "sg:phone":"+31 172 417 016",
    "sg:postcode":"2402 EM",
    "sg:province":"Zuid-Holland",
    "src:geom":"simplegeo",
    "wof:belongsto":[
        85633337,
        101751837,
        85687041
    ],
    "wof:breaches":[],
    "wof:concordances":{
        "sg:id":"SG_1Bkpt689p3llwTW9Y5N3jJ_52.145519_4.674784@1306270001"
    },
    "wof:country":"NL",
    "wof:geomhash":"ed91c3b24875520cb3c62ed80ebe50b0",
    "wof:hierarchy":[
        {
            "continent_id":-1,
            "country_id":85633337,
            "locality_id":101751837,
            "neighbourhood_id":-1,
            "region_id":85687041,
            "venue_id":320696189
        }
    ],
    "wof:id":320696189,
    "wof:lastmodified":1449011526,
    "wof:name":"Mecca",
    "wof:parent_id":-1,
    "wof:placetype":"venue",
    "wof:superseded_by":[],
    "wof:supersedes":[],
    "wof:tags":[]
},
  "bbox": [4.674784,52.145519,4.674784,52.145519],
  "geometry": {"coordinates":[4.674784,52.145519],"type":"Point"}
}