{
  "id": 253614269,
  "type": "Feature",
  "properties": {
    "edtf:cessation":"u",
    "edtf:inception":"u",
    "geom:area":0.0,
    "geom:bbox":"6.264986,52.508034,6.264986,52.508034",
    "geom:latitude":52.508034,
    "geom:longitude":6.264986,
    "iso:country":"NL",
    "sg:address":"Goldkampstraat 12",
    "sg:city":"Dalfsen",
    "sg:classifiers":[],
    "sg:orig_category":"Personenvervoer Zonder Dienstregeling",
    "sg:owner":"simplegeo",
    "sg:phone":"+31 529 433 334",
    "sg:postcode":"7722 RN",
    "sg:province":"NL.08",
    "src:geom":"simplegeo",
    "wof:belongsto":[
        85633337,
        101803703,
        85687045
    ],
    "wof:breaches":[],
    "wof:concordances":{
        "sg:id":"SG_1cYpsYHScCCMWJIV1jSc4Q_52.508034_6.264986@1306269952"
    },
    "wof:country":"NL",
    "wof:geomhash":"3c7021ac4e79078a14222e4e750adcdf",
    "wof:hierarchy":[
        {
            "continent_id":-1,
            "country_id":85633337,
            "locality_id":101803703,
            "neighbourhood_id":-1,
            "region_id":85687045,
            "venue_id":253614269
        }
    ],
    "wof:id":253614269,
    "wof:lastmodified":1449065878,
    "wof:name":"Taxi Centrale Roescher",
    "wof:parent_id":-1,
    "wof:placetype":"venue",
    "wof:superseded_by":[],
    "wof:supersedes":[],
    "wof:tags":[]
},
  "bbox": [6.264986,52.508034,6.264986,52.508034],
  "geometry": {"coordinates":[6.264986,52.508034],"type":"Point"}
}