{
  "id": 169818541,
  "type": "Feature",
  "properties": {
    "edtf:cessation":"u",
    "edtf:inception":"u",
    "geom:area":0.0,
    "geom:bbox":"4.494312,51.957981,4.494312,51.957981",
    "geom:latitude":51.957981,
    "geom:longitude":4.494312,
    "iso:country":"NL",
    "sg:address":"Bergse Dorpsstr 120",
    "sg:city":"Rotterdam",
    "sg:classifiers":[],
    "sg:orig_category":"Kappers",
    "sg:owner":"simplegeo",
    "sg:phone":"+31 10 422 5026",
    "sg:postcode":"3054 GG",
    "sg:province":"Zuid-Holland",
    "src:geom":"simplegeo",
    "wof:belongsto":[
        85797723,
        85633337,
        85687041
    ],
    "wof:breaches":[],
    "wof:concordances":{
        "sg:id":"SG_5GCKwKIlZathbgQraZYR7R_51.957981_4.494312@1306269906"
    },
    "wof:country":"NL",
    "wof:geomhash":"0d63e0d78e73a3a5b997a54e956f4cf1",
    "wof:hierarchy":[
        {
            "continent_id":-1,
            "country_id":85633337,
            "locality_id":-1,
            "neighbourhood_id":85797723,
            "region_id":85687041,
            "venue_id":169818541
        }
    ],
    "wof:id":169818541,
    "wof:lastmodified":1449034285,
    "wof:name":"Planet Hair",
    "wof:parent_id":85797723,
    "wof:placetype":"venue",
    "wof:superseded_by":[],
    "wof:supersedes":[],
    "wof:tags":[]
},
  "bbox": [4.494312,51.957981,4.494312,51.957981],
  "geometry": {"coordinates":[4.494312,51.957981],"type":"Point"}
}