{
  "id": 320152885,
  "type": "Feature",
  "properties": {
    "edtf:cessation":"u",
    "edtf:inception":"u",
    "geom:area":0.0,
    "geom:bbox":"5.099713,51.98341,5.099713,51.98341",
    "geom:latitude":51.98341,
    "geom:longitude":5.099713,
    "iso:country":"NL",
    "sg:address":"Stuartwg 27",
    "sg:city":"Vianen Zh",
    "sg:classifiers":[],
    "sg:orig_category":"Geldtel- En Geldwisselautomaten",
    "sg:owner":"simplegeo",
    "sg:phone":"+31 347 320 250",
    "sg:postcode":"4131 NH",
    "sg:province":"Utrecht",
    "src:geom":"simplegeo",
    "wof:belongsto":[
        85797281,
        85633337,
        101754607,
        85687039
    ],
    "wof:breaches":[],
    "wof:concordances":{
        "sg:id":"SG_66OzuC51cm6FgOXBhEymKZ_51.983410_5.099713@1306269995"
    },
    "wof:country":"NL",
    "wof:geomhash":"29723d17f71fad693d8c8a4b52429a99",
    "wof:hierarchy":[
        {
            "continent_id":-1,
            "country_id":85633337,
            "locality_id":101754607,
            "neighbourhood_id":85797281,
            "region_id":85687039,
            "venue_id":320152885
        }
    ],
    "wof:id":320152885,
    "wof:lastmodified":1449014108,
    "wof:name":"De La Rue Bv",
    "wof:parent_id":85797281,
    "wof:placetype":"venue",
    "wof:superseded_by":[],
    "wof:supersedes":[],
    "wof:tags":[]
},
  "bbox": [5.099713,51.98341,5.099713,51.98341],
  "geometry": {"coordinates":[5.099713,51.98341],"type":"Point"}
}