{
  "id": 253482305,
  "type": "Feature",
  "properties": {
    "edtf:cessation":"u",
    "edtf:inception":"u",
    "geom:area":0.0,
    "geom:bbox":"6.710408,52.263054,6.710408,52.263054",
    "geom:latitude":52.263054,
    "geom:longitude":6.710408,
    "iso:country":"NL",
    "sg:address":"Noordwal 72",
    "sg:city":"Delden",
    "sg:classifiers":[],
    "sg:orig_category":"Paramedische Behandelingen",
    "sg:owner":"simplegeo",
    "sg:phone":"+31 74 376 1698",
    "sg:postcode":"7491 BK",
    "sg:province":"NL.08",
    "src:geom":"simplegeo",
    "wof:belongsto":[
        85798709,
        85633337,
        85687045
    ],
    "wof:breaches":[],
    "wof:concordances":{
        "sg:id":"SG_1ETvNg7izTwnvv2wVWPZyp_52.263054_6.710408@1306269950"
    },
    "wof:country":"NL",
    "wof:geomhash":"a1de36d75a3c92c5eee8542f38bab253",
    "wof:hierarchy":[
        {
            "continent_id":-1,
            "country_id":85633337,
            "locality_id":-1,
            "neighbourhood_id":85798709,
            "region_id":85687045,
            "venue_id":253482305
        }
    ],
    "wof:id":253482305,
    "wof:lastmodified":1449063878,
    "wof:name":"Thuiszorg Centraal Twente",
    "wof:parent_id":85798709,
    "wof:placetype":"venue",
    "wof:superseded_by":[],
    "wof:supersedes":[],
    "wof:tags":[]
},
  "bbox": [6.710408,52.263054,6.710408,52.263054],
  "geometry": {"coordinates":[6.710408,52.263054],"type":"Point"}
}