{
  "id": 202522433,
  "type": "Feature",
  "properties": {
    "edtf:cessation":"u",
    "edtf:inception":"u",
    "geom:area":0.0,
    "geom:bbox":"4.283926,52.070786,4.283926,52.070786",
    "geom:latitude":52.070786,
    "geom:longitude":4.283926,
    "iso:country":"NL",
    "sg:address":"Loosduinseweg 665",
    "sg:city":"'S Gravenhage",
    "sg:classifiers":[
        {
            "category":"Communications",
            "subcategory":"Television Station",
            "type":"Services"
        }
    ],
    "sg:owner":"simplegeo",
    "sg:phone":"+31 70 346 0799",
    "sg:postcode":"2571 AL",
    "sg:province":"Zuid-Holland",
    "sg:tags":[
        "video",
        "audio",
        "verhuur"
    ],
    "src:geom":"simplegeo",
    "wof:belongsto":[
        85797151,
        85633337,
        101752763,
        85687041
    ],
    "wof:breaches":[],
    "wof:concordances":{
        "sg:id":"SG_2EkMbmXhJis2yBXaBrOfwh_52.070786_4.283926@1306269915"
    },
    "wof:country":"NL",
    "wof:geomhash":"b8faaf15f73b9426310cfb023fd0c530",
    "wof:hierarchy":[
        {
            "continent_id":-1,
            "country_id":85633337,
            "locality_id":101752763,
            "neighbourhood_id":85797151,
            "region_id":85687041,
            "venue_id":202522433
        }
    ],
    "wof:id":202522433,
    "wof:lastmodified":1449061331,
    "wof:name":"Movie Star Video Centre",
    "wof:parent_id":85797151,
    "wof:placetype":"venue",
    "wof:superseded_by":[],
    "wof:supersedes":[],
    "wof:tags":[
        "video",
        "audio",
        "verhuur"
    ]
},
  "bbox": [4.283926,52.070786,4.283926,52.070786],
  "geometry": {"coordinates":[4.283926,52.070786],"type":"Point"}
}