{
  "id": 320506999,
  "type": "Feature",
  "properties": {
    "edtf:cessation":"u",
    "edtf:inception":"u",
    "geom:area":0.0,
    "geom:bbox":"4.785472,52.664013,4.785472,52.664013",
    "geom:latitude":52.664013,
    "geom:longitude":4.785472,
    "iso:country":"NL",
    "sg:address":"Bovenwg 32",
    "sg:city":"St Pancras",
    "sg:classifiers":[],
    "sg:orig_category":"Grafische Bedrijven",
    "sg:owner":"simplegeo",
    "sg:phone":"+31 72 564 2989",
    "sg:postcode":"1834 CE",
    "sg:province":"North Holland",
    "src:geom":"simplegeo",
    "wof:belongsto":[
        85633337,
        101754879,
        85687053
    ],
    "wof:breaches":[],
    "wof:concordances":{
        "sg:id":"SG_2FPKrZa89k2HxNQ0WIwO9M_52.664013_4.785472@1306269999"
    },
    "wof:country":"NL",
    "wof:geomhash":"4f7b8f5cc6ba11315c8bc80320301f12",
    "wof:hierarchy":[
        {
            "continent_id":-1,
            "country_id":85633337,
            "locality_id":101754879,
            "neighbourhood_id":-1,
            "region_id":85687053,
            "venue_id":320506999
        }
    ],
    "wof:id":320506999,
    "wof:lastmodified":1449011342,
    "wof:name":"Ilios",
    "wof:parent_id":-1,
    "wof:placetype":"venue",
    "wof:superseded_by":[],
    "wof:supersedes":[],
    "wof:tags":[]
},
  "bbox": [4.785472,52.664013,4.785472,52.664013],
  "geometry": {"coordinates":[4.785472,52.664013],"type":"Point"}
}