{
  "id": 185810691,
  "type": "Feature",
  "properties": {
    "edtf:cessation":"u",
    "edtf:inception":"u",
    "geom:area":0.0,
    "geom:bbox":"5.557645,51.628815,5.557645,51.628815",
    "geom:latitude":51.628815,
    "geom:longitude":5.557645,
    "iso:country":"NL",
    "sg:address":"Patrysdonk 53A",
    "sg:city":"Veghel",
    "sg:classifiers":[],
    "sg:orig_category":"Kinderactiviteiten",
    "sg:owner":"simplegeo",
    "sg:phone":"+31 413 343 982",
    "sg:postcode":"5467 AC",
    "sg:province":"Noord-Brabant",
    "src:geom":"simplegeo",
    "wof:belongsto":[
        85633337,
        101808329,
        85687035
    ],
    "wof:breaches":[],
    "wof:concordances":{
        "sg:id":"SG_5HCXvyRfrdBo4zNXaWV5YM_51.628815_5.557645@1306269907"
    },
    "wof:country":"NL",
    "wof:geomhash":"fbd7d21f67413b016211329ae1433246",
    "wof:hierarchy":[
        {
            "continent_id":-1,
            "country_id":85633337,
            "locality_id":101808329,
            "neighbourhood_id":-1,
            "region_id":85687035,
            "venue_id":185810691
        }
    ],
    "wof:id":185810691,
    "wof:lastmodified":1449007080,
    "wof:name":"Natuurtuin",
    "wof:parent_id":-1,
    "wof:placetype":"venue",
    "wof:superseded_by":[],
    "wof:supersedes":[],
    "wof:tags":[]
},
  "bbox": [5.557645,51.628815,5.557645,51.628815],
  "geometry": {"coordinates":[5.557645,51.628815],"type":"Point"}
}