{
  "id": 320473109,
  "type": "Feature",
  "properties": {
    "edtf:cessation":"u",
    "edtf:inception":"u",
    "geom:area":0.0,
    "geom:bbox":"5.067563,52.492558,5.067563,52.492558",
    "geom:latitude":52.492558,
    "geom:longitude":5.067563,
    "iso:country":"NL",
    "sg:address":"Pr Marykestr 10",
    "sg:city":"Volendam",
    "sg:classifiers":[],
    "sg:orig_category":"Grafisch Ontwerpers",
    "sg:owner":"simplegeo",
    "sg:phone":"+31 299 350 831",
    "sg:postcode":"1131 BB",
    "sg:province":"Noord-Holland",
    "sg:website":"http://www.creationworks.nl",
    "src:geom":"simplegeo",
    "wof:belongsto":[
        85798047,
        85633337,
        85687053
    ],
    "wof:breaches":[],
    "wof:concordances":{
        "sg:id":"SG_2wBxAKbROEO6IO9i0uSBQF_52.492558_5.067563@1306269998"
    },
    "wof:country":"NL",
    "wof:geomhash":"71442578f9df108f5efd0612ac14cbe4",
    "wof:hierarchy":[
        {
            "continent_id":-1,
            "country_id":85633337,
            "locality_id":-1,
            "neighbourhood_id":85798047,
            "region_id":85687053,
            "venue_id":320473109
        }
    ],
    "wof:id":320473109,
    "wof:lastmodified":1449012035,
    "wof:name":"Creation Works",
    "wof:parent_id":85798047,
    "wof:placetype":"venue",
    "wof:superseded_by":[],
    "wof:supersedes":[],
    "wof:tags":[]
},
  "bbox": [5.067563,52.492558,5.067563,52.492558],
  "geometry": {"coordinates":[5.067563,52.492558],"type":"Point"}
}