{
  "id": 253291085,
  "type": "Feature",
  "properties": {
    "edtf:cessation":"u",
    "edtf:inception":"u",
    "geom:area":0.0,
    "geom:bbox":"5.68214,51.483631,5.68214,51.483631",
    "geom:latitude":51.483631,
    "geom:longitude":5.68214,
    "iso:country":"NL",
    "sg:address":"Hopmanstraat 14",
    "sg:city":"Helmond",
    "sg:classifiers":[],
    "sg:orig_category":"Meubelzaken, Woning- And Keukeninrichting",
    "sg:owner":"simplegeo",
    "sg:phone":"+31 492 543 439",
    "sg:postcode":"5703 HG",
    "sg:province":"North Brabant",
    "src:geom":"simplegeo",
    "wof:belongsto":[
        85798473,
        85633337,
        85687035
    ],
    "wof:breaches":[],
    "wof:concordances":{
        "sg:id":"SG_1bqHt2WZ9RBbFizkbR4ZyR_51.483631_5.682140@1306269948"
    },
    "wof:country":"NL",
    "wof:geomhash":"6de4da3db9e4ee2059d1b2917d69403e",
    "wof:hierarchy":[
        {
            "continent_id":-1,
            "country_id":85633337,
            "locality_id":-1,
            "neighbourhood_id":85798473,
            "region_id":85687035,
            "venue_id":253291085
        }
    ],
    "wof:id":253291085,
    "wof:lastmodified":1449063729,
    "wof:name":"L.E. Agenturen",
    "wof:parent_id":85798473,
    "wof:placetype":"venue",
    "wof:superseded_by":[],
    "wof:supersedes":[],
    "wof:tags":[]
},
  "bbox": [5.68214,51.483631,5.68214,51.483631],
  "geometry": {"coordinates":[5.68214,51.483631],"type":"Point"}
}