{
  "id": 202543465,
  "type": "Feature",
  "properties": {
    "edtf:cessation":"u",
    "edtf:inception":"u",
    "geom:area":0.0,
    "geom:bbox":"6.78971,52.266331,6.78971,52.266331",
    "geom:latitude":52.266331,
    "geom:longitude":6.78971,
    "iso:country":"NL",
    "sg:address":"Oude Postweg 186",
    "sg:city":"Hengelo Ov",
    "sg:classifiers":[
        {
            "category":"Communications",
            "subcategory":"Television Station",
            "type":"Services"
        }
    ],
    "sg:owner":"simplegeo",
    "sg:phone":"+31 74 242 5089",
    "sg:postcode":"7557 DJ",
    "sg:province":"Overijssel",
    "sg:tags":[
        "video",
        "audio",
        "verhuur"
    ],
    "src:geom":"simplegeo",
    "wof:belongsto":[
        85798709,
        85633337,
        85687045
    ],
    "wof:breaches":[],
    "wof:concordances":{
        "sg:id":"SG_6aNMwjtrnwxoK5ar0ICJXS_52.266331_6.789710@1306269916"
    },
    "wof:country":"NL",
    "wof:geomhash":"245f283c34f4b27672c83dd9dc95ae34",
    "wof:hierarchy":[
        {
            "continent_id":-1,
            "country_id":85633337,
            "locality_id":-1,
            "neighbourhood_id":85798709,
            "region_id":85687045,
            "venue_id":202543465
        }
    ],
    "wof:id":202543465,
    "wof:lastmodified":1449060607,
    "wof:name":"Vof Videotheek Driene",
    "wof:parent_id":85798709,
    "wof:placetype":"venue",
    "wof:superseded_by":[],
    "wof:supersedes":[],
    "wof:tags":[
        "video",
        "audio",
        "verhuur"
    ]
},
  "bbox": [6.78971,52.266331,6.78971,52.266331],
  "geometry": {"coordinates":[6.78971,52.266331],"type":"Point"}
}