{
  "id": 236905509,
  "type": "Feature",
  "properties": {
    "edtf:cessation":"u",
    "edtf:inception":"u",
    "geom:area":0.0,
    "geom:bbox":"5.515643,53.182514,5.515643,53.182514",
    "geom:latitude":53.182514,
    "geom:longitude":5.515643,
    "iso:country":"NL",
    "sg:address":"Edisonstr 15",
    "sg:city":"Franeker",
    "sg:classifiers":[],
    "sg:orig_category":"Machinefabrieken",
    "sg:owner":"simplegeo",
    "sg:phone":"+31 517 393 866",
    "sg:postcode":"8801 PN",
    "sg:province":"Provincie Friesland",
    "sg:website":"HTTP://www.smst.nl",
    "src:geom":"simplegeo",
    "wof:belongsto":[
        85633337,
        101806163,
        85687055
    ],
    "wof:breaches":[],
    "wof:concordances":{
        "sg:id":"SG_6zrKmq3TC98ctgJNexbDUC_53.182514_5.515643@1306269942"
    },
    "wof:country":"NL",
    "wof:geomhash":"1a07ce8c3ec93c64585258620905310b",
    "wof:hierarchy":[
        {
            "continent_id":-1,
            "country_id":85633337,
            "locality_id":101806163,
            "neighbourhood_id":-1,
            "region_id":85687055,
            "venue_id":236905509
        }
    ],
    "wof:id":236905509,
    "wof:lastmodified":1449002839,
    "wof:name":"Smst Designers & Constructors Bv",
    "wof:parent_id":-1,
    "wof:placetype":"venue",
    "wof:superseded_by":[],
    "wof:supersedes":[],
    "wof:tags":[]
},
  "bbox": [5.515643,53.182514,5.515643,53.182514],
  "geometry": {"coordinates":[5.515643,53.182514],"type":"Point"}
}