{
  "id": 253662461,
  "type": "Feature",
  "properties": {
    "edtf:cessation":"u",
    "edtf:inception":"u",
    "geom:area":0.0,
    "geom:bbox":"5.016568,51.582813,5.016568,51.582813",
    "geom:latitude":51.582813,
    "geom:longitude":5.016568,
    "iso:country":"NL",
    "sg:address":"Buurmalsenpln 4",
    "sg:city":"Tilburg",
    "sg:classifiers":[
        {
            "category":"Food & Beverages",
            "subcategory":"Bakery",
            "type":"Retail Goods"
        }
    ],
    "sg:owner":"simplegeo",
    "sg:phone":"+31 13 570 3681",
    "sg:postcode":"5043 XL",
    "sg:province":"North Brabant",
    "sg:tags":[
        "pizza"
    ],
    "src:geom":"simplegeo",
    "wof:belongsto":[
        85797687,
        85633337,
        85687035
    ],
    "wof:breaches":[],
    "wof:concordances":{
        "sg:id":"SG_2NXKIczA3Yjbg4YIBTmj71_51.582813_5.016568@1306269952"
    },
    "wof:country":"NL",
    "wof:geomhash":"f53912c679fdb3a7a50d53dd356d9d05",
    "wof:hierarchy":[
        {
            "continent_id":-1,
            "country_id":85633337,
            "locality_id":-1,
            "neighbourhood_id":85797687,
            "region_id":85687035,
            "venue_id":253662461
        }
    ],
    "wof:id":253662461,
    "wof:lastmodified":1449064839,
    "wof:name":"Chico Reeshof",
    "wof:parent_id":85797687,
    "wof:placetype":"venue",
    "wof:superseded_by":[],
    "wof:supersedes":[],
    "wof:tags":[
        "pizza"
    ]
},
  "bbox": [5.016568,51.582813,5.016568,51.582813],
  "geometry": {"coordinates":[5.016568,51.582813],"type":"Point"}
}