{
  "id": 269912175,
  "type": "Feature",
  "properties": {
    "edtf:cessation":"u",
    "edtf:inception":"u",
    "geom:area":0.0,
    "geom:bbox":"4.477227,51.825413,4.477227,51.825413",
    "geom:latitude":51.825413,
    "geom:longitude":4.477227,
    "iso:country":"NL",
    "sg:address":"Dorpsstr 15",
    "sg:city":"Heinenoord",
    "sg:classifiers":[],
    "sg:orig_category":"Fietsen En Bromfietsen",
    "sg:owner":"simplegeo",
    "sg:phone":"+31 186 601 779",
    "sg:postcode":"3274 BB",
    "sg:province":"Zuid-Holland",
    "src:geom":"simplegeo",
    "wof:belongsto":[
        85633337,
        85687041
    ],
    "wof:breaches":[],
    "wof:concordances":{
        "sg:id":"SG_5nGQJkm83KSYUIPxtFfdkN_51.825413_4.477227@1306269959"
    },
    "wof:country":"NL",
    "wof:geomhash":"da326bc6b5942ba5f05945837966182b",
    "wof:hierarchy":[
        {
            "continent_id":-1,
            "country_id":85633337,
            "locality_id":-1,
            "neighbourhood_id":-1,
            "region_id":85687041,
            "venue_id":269912175
        }
    ],
    "wof:id":269912175,
    "wof:lastmodified":1449037325,
    "wof:name":"Reedijk, J A J",
    "wof:parent_id":-1,
    "wof:placetype":"venue",
    "wof:superseded_by":[],
    "wof:supersedes":[],
    "wof:tags":[]
},
  "bbox": [4.477227,51.825413,4.477227,51.825413],
  "geometry": {"coordinates":[4.477227,51.825413],"type":"Point"}
}