{
  "id": 253579249,
  "type": "Feature",
  "properties": {
    "edtf:cessation":"u",
    "edtf:inception":"u",
    "geom:area":0.0,
    "geom:bbox":"4.467591,51.896587,4.467591,51.896587",
    "geom:latitude":51.896587,
    "geom:longitude":4.467591,
    "iso:country":"NL",
    "sg:address":"Charloisse Hoofd 383",
    "sg:city":"Rotterdam",
    "sg:classifiers":[
        {
            "category":"Personal",
            "subcategory":"Nail Salon",
            "type":"Services"
        }
    ],
    "sg:owner":"simplegeo",
    "sg:phone":"+31 10 428 0669",
    "sg:postcode":"3087 XD",
    "sg:province":"Zuid-Holland",
    "sg:tags":[
        "pedicure"
    ],
    "src:geom":"simplegeo",
    "wof:belongsto":[
        85797519,
        85633337,
        101751843,
        85687041
    ],
    "wof:breaches":[],
    "wof:concordances":{
        "sg:id":"SG_7HPyTsbzuTZ0awrYQEpve0_51.896587_4.467591@1306269951"
    },
    "wof:country":"NL",
    "wof:geomhash":"7c811736e7fb6dd9b169e6b4dd763dda",
    "wof:hierarchy":[
        {
            "continent_id":-1,
            "country_id":85633337,
            "locality_id":101751843,
            "neighbourhood_id":85797519,
            "region_id":85687041,
            "venue_id":253579249
        }
    ],
    "wof:id":253579249,
    "wof:lastmodified":1449063764,
    "wof:name":"Toufic, S",
    "wof:parent_id":85797519,
    "wof:placetype":"venue",
    "wof:superseded_by":[],
    "wof:supersedes":[],
    "wof:tags":[
        "pedicure"
    ]
},
  "bbox": [4.467591,51.896587,4.467591,51.896587],
  "geometry": {"coordinates":[4.467591,51.896587],"type":"Point"}
}