{
  "id": 320239457,
  "type": "Feature",
  "properties": {
    "edtf:cessation":"u",
    "edtf:inception":"u",
    "geom:area":0.0,
    "geom:bbox":"4.583866,51.895206,4.583866,51.895206",
    "geom:latitude":51.895206,
    "geom:longitude":4.583866,
    "iso:country":"NL",
    "sg:address":"Benedenrijweg 186",
    "sg:city":"Ridderkerk",
    "sg:classifiers":[],
    "sg:orig_category":"Gespecialiseerde Bouw",
    "sg:owner":"simplegeo",
    "sg:phone":"+31 180 441 800",
    "sg:postcode":"2987 VB",
    "sg:province":"Zuid-Holland",
    "src:geom":"simplegeo",
    "wof:belongsto":[
        85797147,
        85633337,
        101754749,
        85687041
    ],
    "wof:breaches":[],
    "wof:concordances":{
        "sg:id":"SG_5RXQXAgejF90a6MXn0uAPZ_51.895206_4.583866@1306269996"
    },
    "wof:country":"NL",
    "wof:geomhash":"1c3644ebb9c03092977d7ebde030ba3a",
    "wof:hierarchy":[
        {
            "continent_id":-1,
            "country_id":85633337,
            "locality_id":101754749,
            "neighbourhood_id":85797147,
            "region_id":85687041,
            "venue_id":320239457
        }
    ],
    "wof:id":320239457,
    "wof:lastmodified":1449011598,
    "wof:name":"Fabriek Van Plaatwerken Van Dam Bv",
    "wof:parent_id":85797147,
    "wof:placetype":"venue",
    "wof:superseded_by":[],
    "wof:supersedes":[],
    "wof:tags":[]
},
  "bbox": [4.583866,51.895206,4.583866,51.895206],
  "geometry": {"coordinates":[4.583866,51.895206],"type":"Point"}
}