{
  "id": 252751425,
  "type": "Feature",
  "properties": {
    "edtf:cessation":"u",
    "edtf:inception":"u",
    "geom:area":0.0,
    "geom:bbox":"6.547263,52.123032,6.547263,52.123032",
    "geom:latitude":52.123032,
    "geom:longitude":6.547263,
    "iso:country":"NL",
    "sg:address":"Hekwg 2",
    "sg:city":"Geesteren Gld",
    "sg:classifiers":[
        {
            "category":"Sports & Exercise",
            "subcategory":"Stables",
            "type":"Entertainment"
        }
    ],
    "sg:owner":"simplegeo",
    "sg:phone":"+31 545 271 190",
    "sg:postcode":"7274 DP",
    "sg:province":"Gelderland",
    "sg:tags":[
        "maneges"
    ],
    "src:geom":"simplegeo",
    "wof:belongsto":[
        85633337,
        85687043
    ],
    "wof:breaches":[],
    "wof:concordances":{
        "sg:id":"SG_5PKc7algixLezFuvUq2IcW_52.123032_6.547263@1306269943"
    },
    "wof:country":"NL",
    "wof:geomhash":"b278ebb108c34c0f78412fc88ef74632",
    "wof:hierarchy":[
        {
            "continent_id":-1,
            "country_id":85633337,
            "locality_id":-1,
            "neighbourhood_id":-1,
            "region_id":85687043,
            "venue_id":252751425
        }
    ],
    "wof:id":252751425,
    "wof:lastmodified":1449005467,
    "wof:name":"Assinck",
    "wof:parent_id":-1,
    "wof:placetype":"venue",
    "wof:superseded_by":[],
    "wof:supersedes":[],
    "wof:tags":[
        "maneges"
    ]
},
  "bbox": [6.547263,52.123032,6.547263,52.123032],
  "geometry": {"coordinates":[6.547263,52.123032],"type":"Point"}
}