{
  "id": 303131005,
  "type": "Feature",
  "properties": {
    "edtf:cessation":"u",
    "edtf:inception":"u",
    "geom:area":0.0,
    "geom:bbox":"-74.726723,40.14278,-74.726723,40.14278",
    "geom:latitude":40.14278,
    "geom:longitude":-74.726723,
    "iso:country":"NL",
    "sg:address":"Plein 1945 20",
    "sg:city":"Petten",
    "sg:classifiers":[
        {
            "category":"Food & Beverages",
            "subcategory":"Bakery",
            "type":"Retail Goods"
        }
    ],
    "sg:owner":"simplegeo",
    "sg:phone":"+31 226 383 126",
    "sg:postcode":"1755 NJ",
    "sg:province":"New Jersey",
    "sg:tags":[
        "brood",
        "en",
        "banket"
    ],
    "src:geom":"simplegeo",
    "wof:belongsto":[
        85688607,
        85633793,
        85975539,
        102087415,
        85834189
    ],
    "wof:breaches":[],
    "wof:concordances":{
        "sg:id":"SG_3wrcJZcHxxnKc9iNr8dXXy_40.142780_-74.726723@1306269980"
    },
    "wof:country":"NL",
    "wof:geomhash":"348ff288b48b9cc0ec67e00acbfa2a2a",
    "wof:hierarchy":[
        {
            "continent_id":-1,
            "country_id":85633793,
            "county_id":102087415,
            "locality_id":85975539,
            "neighbourhood_id":85834189,
            "region_id":85688607,
            "venue_id":303131005
        }
    ],
    "wof:id":303131005,
    "wof:lastmodified":1448998854,
    "wof:name":"Barten, P",
    "wof:parent_id":85834189,
    "wof:placetype":"venue",
    "wof:superseded_by":[],
    "wof:supersedes":[],
    "wof:tags":[
        "brood",
        "en",
        "banket"
    ]
},
  "bbox": [-74.726723,40.14278,-74.726723,40.14278],
  "geometry": {"coordinates":[-74.726723,40.14278],"type":"Point"}
}