{
  "id": 303370823,
  "type": "Feature",
  "properties": {
    "edtf:cessation":"u",
    "edtf:inception":"u",
    "geom:area":0.0,
    "geom:bbox":"4.460916,51.921001,4.460916,51.921001",
    "geom:latitude":51.921001,
    "geom:longitude":4.460916,
    "iso:country":"NL",
    "sg:address":"Henegouwerpln 16",
    "sg:city":"Rotterdam",
    "sg:classifiers":[],
    "sg:orig_category":"Scholen Voor Algemeen Voortgezet Onderwijs",
    "sg:owner":"simplegeo",
    "sg:phone":"+31 10 477 4533",
    "sg:postcode":"3021 PM",
    "sg:province":"Zuid-Holland",
    "src:geom":"simplegeo",
    "wof:belongsto":[
        85859807,
        85633337,
        101751843,
        85687041
    ],
    "wof:breaches":[],
    "wof:concordances":{
        "sg:id":"SG_2aJ534X9Rked5vcyOr5206_51.921001_4.460916@1306269983"
    },
    "wof:country":"NL",
    "wof:geomhash":"ea6cbcd8f52b9822ab75bd6216740d9e",
    "wof:hierarchy":[
        {
            "continent_id":-1,
            "country_id":85633337,
            "locality_id":101751843,
            "neighbourhood_id":85859807,
            "region_id":85687041,
            "venue_id":303370823
        }
    ],
    "wof:id":303370823,
    "wof:lastmodified":1448999454,
    "wof:name":"Christelijk College Henegouwen",
    "wof:parent_id":85859807,
    "wof:placetype":"venue",
    "wof:superseded_by":[],
    "wof:supersedes":[],
    "wof:tags":[]
},
  "bbox": [4.460916,51.921001,4.460916,51.921001],
  "geometry": {"coordinates":[4.460916,51.921001],"type":"Point"}
}