{
  "id": 287081115,
  "type": "Feature",
  "properties": {
    "edtf:cessation":"u",
    "edtf:inception":"u",
    "geom:area":0.0,
    "geom:bbox":"5.620464,51.485882,5.620464,51.485882",
    "geom:latitude":51.485882,
    "geom:longitude":5.620464,
    "iso:country":"NL",
    "sg:address":"Dorpsstr 49",
    "sg:city":"Helmond",
    "sg:classifiers":[],
    "sg:orig_category":"Bloemen En Planten",
    "sg:owner":"simplegeo",
    "sg:phone":"+31 492 555 151",
    "sg:postcode":"5708 GC",
    "sg:province":"North Brabant",
    "src:geom":"simplegeo",
    "wof:belongsto":[
        85798473,
        85633337,
        85687035
    ],
    "wof:breaches":[],
    "wof:concordances":{
        "sg:id":"SG_0UcEYnqFuyBUheZwdiTNQW_51.485882_5.620464@1306269976"
    },
    "wof:country":"NL",
    "wof:geomhash":"5e0aabd05ad39000cca3e0c82e637a25",
    "wof:hierarchy":[
        {
            "continent_id":-1,
            "country_id":85633337,
            "locality_id":-1,
            "neighbourhood_id":85798473,
            "region_id":85687035,
            "venue_id":287081115
        }
    ],
    "wof:id":287081115,
    "wof:lastmodified":1449000924,
    "wof:name":"Mayura",
    "wof:parent_id":85798473,
    "wof:placetype":"venue",
    "wof:superseded_by":[],
    "wof:supersedes":[],
    "wof:tags":[]
},
  "bbox": [5.620464,51.485882,5.620464,51.485882],
  "geometry": {"coordinates":[5.620464,51.485882],"type":"Point"}
}