{
  "id": 336809395,
  "type": "Feature",
  "properties": {
    "edtf:cessation":"u",
    "edtf:inception":"u",
    "geom:area":0.0,
    "geom:bbox":"6.615955,53.164169,6.615955,53.164169",
    "geom:latitude":53.164169,
    "geom:longitude":6.615955,
    "iso:country":"NL",
    "sg:address":"Nieuwlandsweg 56",
    "sg:city":"Haren Gn",
    "sg:classifiers":[],
    "sg:orig_category":"Onderhoud And Reparatie Kantoorapparatuur",
    "sg:owner":"simplegeo",
    "sg:phone":"+31 50 537 0812",
    "sg:postcode":"9751 GN",
    "sg:province":"Groningen",
    "src:geom":"simplegeo",
    "wof:belongsto":[
        85798527,
        85633337,
        85687059
    ],
    "wof:breaches":[],
    "wof:concordances":{
        "sg:id":"SG_6MPeHTYWsxQddBJqlNIpK9_53.164169_6.615955@1306270006"
    },
    "wof:country":"NL",
    "wof:geomhash":"14b8f4faada36f686bb0dea8d8e27c15",
    "wof:hierarchy":[
        {
            "continent_id":-1,
            "country_id":85633337,
            "locality_id":-1,
            "neighbourhood_id":85798527,
            "region_id":85687059,
            "venue_id":336809395
        }
    ],
    "wof:id":336809395,
    "wof:lastmodified":1448997841,
    "wof:name":"H. Kuilman",
    "wof:parent_id":85798527,
    "wof:placetype":"venue",
    "wof:superseded_by":[],
    "wof:supersedes":[],
    "wof:tags":[]
},
  "bbox": [6.615955,53.164169,6.615955,53.164169],
  "geometry": {"coordinates":[6.615955,53.164169],"type":"Point"}
}