{
  "id": 320766467,
  "type": "Feature",
  "properties": {
    "edtf:cessation":"u",
    "edtf:inception":"u",
    "geom:area":0.0,
    "geom:bbox":"5.303986,51.886215,5.303986,51.886215",
    "geom:latitude":51.886215,
    "geom:longitude":5.303986,
    "iso:country":"NL",
    "sg:address":"Willem De Zwijgerweg 69",
    "sg:city":"Geldermalsen",
    "sg:classifiers":[],
    "sg:orig_category":"Zuivelproducten",
    "sg:owner":"simplegeo",
    "sg:phone":"+31 345 575 271",
    "sg:postcode":"4191 WC",
    "sg:province":"Gelderland",
    "src:geom":"simplegeo",
    "wof:belongsto":[
        85633337,
        101837793,
        85687043
    ],
    "wof:breaches":[],
    "wof:concordances":{
        "sg:id":"SG_1mZI5vkAcG1auMHrBgUmuA_51.886215_5.303986@1306270002"
    },
    "wof:country":"NL",
    "wof:geomhash":"8a99313ce599b491c705b0bba94b0cbd",
    "wof:hierarchy":[
        {
            "continent_id":-1,
            "country_id":85633337,
            "locality_id":101837793,
            "neighbourhood_id":-1,
            "region_id":85687043,
            "venue_id":320766467
        }
    ],
    "wof:id":320766467,
    "wof:lastmodified":1449011211,
    "wof:name":"Kaashandel J. Van Den Broek",
    "wof:parent_id":-1,
    "wof:placetype":"venue",
    "wof:superseded_by":[],
    "wof:supersedes":[],
    "wof:tags":[]
},
  "bbox": [5.303986,51.886215,5.303986,51.886215],
  "geometry": {"coordinates":[5.303986,51.886215],"type":"Point"}
}