{
  "id": 220195693,
  "type": "Feature",
  "properties": {
    "edtf:cessation":"u",
    "edtf:inception":"u",
    "geom:area":0.0,
    "geom:bbox":"6.784458,52.25053,6.784458,52.25053",
    "geom:latitude":52.25053,
    "geom:longitude":6.784458,
    "iso:country":"NL",
    "sg:address":"Binnenhavenstr 4",
    "sg:city":"Hengelo Ov",
    "sg:classifiers":[],
    "sg:orig_category":"Afzuiginstallaties",
    "sg:owner":"simplegeo",
    "sg:phone":"+31 74 242 6810",
    "sg:postcode":"7553 GJ",
    "sg:province":"Overijssel",
    "sg:website":"http://www.ava-luchttechniek.nl",
    "src:geom":"simplegeo",
    "wof:belongsto":[
        85797029,
        85633337,
        85687045
    ],
    "wof:breaches":[],
    "wof:concordances":{
        "sg:id":"SG_0FDA6nYaY9Y2YDAEZ6xRAe_52.250530_6.784458@1306269933"
    },
    "wof:country":"NL",
    "wof:geomhash":"fe2171e60da4cdae06e4a0f90844d6a8",
    "wof:hierarchy":[
        {
            "continent_id":-1,
            "country_id":85633337,
            "locality_id":-1,
            "neighbourhood_id":85797029,
            "region_id":85687045,
            "venue_id":220195693
        }
    ],
    "wof:id":220195693,
    "wof:lastmodified":1449074586,
    "wof:name":"Ava Bv",
    "wof:parent_id":85797029,
    "wof:placetype":"venue",
    "wof:superseded_by":[],
    "wof:supersedes":[],
    "wof:tags":[]
},
  "bbox": [6.784458,52.25053,6.784458,52.25053],
  "geometry": {"coordinates":[6.784458,52.25053],"type":"Point"}
}