{
  "id": 253210445,
  "type": "Feature",
  "properties": {
    "edtf:cessation":"u",
    "edtf:inception":"u",
    "geom:area":0.0,
    "geom:bbox":"4.999122,52.241108,4.999122,52.241108",
    "geom:latitude":52.241108,
    "geom:longitude":4.999122,
    "iso:country":"NL",
    "sg:address":"Rijksstraatweg 105",
    "sg:city":"Baambrugge",
    "sg:classifiers":[],
    "sg:orig_category":"Meubelreparatie And -Restauratie",
    "sg:owner":"simplegeo",
    "sg:phone":"+31 294 293 170",
    "sg:postcode":"1396 JH",
    "sg:province":"Utrecht",
    "src:geom":"simplegeo",
    "wof:belongsto":[
        85633337,
        85687039
    ],
    "wof:breaches":[],
    "wof:concordances":{
        "sg:id":"SG_1xk1WUD5szisL577ohkjEb_52.241108_4.999122@1306269947"
    },
    "wof:country":"NL",
    "wof:geomhash":"f8c66930c34698223d1a90cb44622397",
    "wof:hierarchy":[
        {
            "continent_id":-1,
            "country_id":85633337,
            "locality_id":-1,
            "neighbourhood_id":-1,
            "region_id":85687039,
            "venue_id":253210445
        }
    ],
    "wof:id":253210445,
    "wof:lastmodified":1449063825,
    "wof:name":"Vof Ettore Benacchio",
    "wof:parent_id":-1,
    "wof:placetype":"venue",
    "wof:superseded_by":[],
    "wof:supersedes":[],
    "wof:tags":[]
},
  "bbox": [4.999122,52.241108,4.999122,52.241108],
  "geometry": {"coordinates":[4.999122,52.241108],"type":"Point"}
}