{
  "id": 303896685,
  "type": "Feature",
  "properties": {
    "edtf:cessation":"u",
    "edtf:inception":"u",
    "geom:area":0.0,
    "geom:bbox":"6.92722,53.331181,6.92722,53.331181",
    "geom:latitude":53.331181,
    "geom:longitude":6.92722,
    "iso:country":"NL",
    "sg:address":"Landstr 12",
    "sg:city":"Delfzyl",
    "sg:classifiers":[],
    "sg:orig_category":"Herenkleding",
    "sg:owner":"simplegeo",
    "sg:phone":"+31 596 613 421",
    "sg:postcode":"9934 BL",
    "sg:province":"Groningen",
    "src:geom":"simplegeo",
    "wof:belongsto":[
        85797887,
        85633337,
        101837987,
        85687059
    ],
    "wof:breaches":[],
    "wof:concordances":{
        "sg:id":"SG_69XR4SE8xixevdU3mbCMRF_53.331181_6.927220@1306269989"
    },
    "wof:country":"NL",
    "wof:geomhash":"77fb189ef49ef391c04e28f70d9f4f54",
    "wof:hierarchy":[
        {
            "continent_id":-1,
            "country_id":85633337,
            "locality_id":101837987,
            "neighbourhood_id":85797887,
            "region_id":85687059,
            "venue_id":303896685
        }
    ],
    "wof:id":303896685,
    "wof:lastmodified":1448999012,
    "wof:name":"Richters",
    "wof:parent_id":85797887,
    "wof:placetype":"venue",
    "wof:superseded_by":[],
    "wof:supersedes":[],
    "wof:tags":[]
},
  "bbox": [6.92722,53.331181,6.92722,53.331181],
  "geometry": {"coordinates":[6.92722,53.331181],"type":"Point"}
}