{
  "id": 303435173,
  "type": "Feature",
  "properties": {
    "edtf:cessation":"u",
    "edtf:inception":"u",
    "geom:area":0.0,
    "geom:bbox":"6.685203,52.593189,6.685203,52.593189",
    "geom:latitude":52.593189,
    "geom:longitude":6.685203,
    "iso:country":"NL",
    "sg:address":"Zwolsewg 2",
    "sg:city":"Den Velde",
    "sg:classifiers":[],
    "sg:orig_category":"Scholen Voor Basisonderwijs",
    "sg:owner":"simplegeo",
    "sg:phone":"+31 524 562 174",
    "sg:postcode":"7786 BH",
    "sg:province":"NL.08",
    "src:geom":"simplegeo",
    "wof:belongsto":[
        85633337,
        85687045
    ],
    "wof:breaches":[],
    "wof:concordances":{
        "sg:id":"SG_1KySPHy8SkMHbvG2WI4ZKe_52.593189_6.685203@1306269983"
    },
    "wof:country":"NL",
    "wof:geomhash":"a324d4f2823c049578f6955b3ec11440",
    "wof:hierarchy":[
        {
            "continent_id":-1,
            "country_id":85633337,
            "locality_id":-1,
            "neighbourhood_id":-1,
            "region_id":85687045,
            "venue_id":303435173
        }
    ],
    "wof:id":303435173,
    "wof:lastmodified":1449000337,
    "wof:name":"Velde Openb, Den",
    "wof:parent_id":-1,
    "wof:placetype":"venue",
    "wof:superseded_by":[],
    "wof:supersedes":[],
    "wof:tags":[]
},
  "bbox": [6.685203,52.593189,6.685203,52.593189],
  "geometry": {"coordinates":[6.685203,52.593189],"type":"Point"}
}