{
  "id": 236775389,
  "type": "Feature",
  "properties": {
    "edtf:cessation":"u",
    "edtf:inception":"u",
    "geom:area":0.0,
    "geom:bbox":"4.242947,51.9291,4.242947,51.9291",
    "geom:latitude":51.9291,
    "geom:longitude":4.242947,
    "iso:country":"NL",
    "sg:address":"Drijver 27",
    "sg:city":"Maassluis",
    "sg:classifiers":[],
    "sg:orig_category":"Autorijscholen",
    "sg:owner":"simplegeo",
    "sg:phone":"+31 10 592 4572",
    "sg:postcode":"3144 GD",
    "sg:province":"Zuid-Holland",
    "src:geom":"simplegeo",
    "wof:belongsto":[
        85797123,
        85633337,
        101760475,
        85687041
    ],
    "wof:breaches":[],
    "wof:concordances":{
        "sg:id":"SG_52XABw6b8QR40ypQbRFDho_51.929100_4.242947@1306269941"
    },
    "wof:country":"NL",
    "wof:geomhash":"5c2956ca5b72ffe6a1dec80fe34f6254",
    "wof:hierarchy":[
        {
            "continent_id":-1,
            "country_id":85633337,
            "locality_id":101760475,
            "neighbourhood_id":85797123,
            "region_id":85687041,
            "venue_id":236775389
        }
    ],
    "wof:id":236775389,
    "wof:lastmodified":1449004210,
    "wof:name":"Halkema",
    "wof:parent_id":85797123,
    "wof:placetype":"venue",
    "wof:superseded_by":[],
    "wof:supersedes":[],
    "wof:tags":[]
},
  "bbox": [4.242947,51.9291,4.242947,51.9291],
  "geometry": {"coordinates":[4.242947,51.9291],"type":"Point"}
}