{
  "id": 303804625,
  "type": "Feature",
  "properties": {
    "edtf:cessation":"u",
    "edtf:inception":"u",
    "geom:area":0.0,
    "geom:bbox":"5.457737,52.175831,5.457737,52.175831",
    "geom:latitude":52.175831,
    "geom:longitude":5.457737,
    "iso:country":"NL",
    "sg:address":"Westerdorpsstr 68",
    "sg:city":"Hoevelaken",
    "sg:classifiers":[],
    "sg:orig_category":"Natuur- En Milieuorganisaties",
    "sg:owner":"simplegeo",
    "sg:phone":"+31 33 253 9231",
    "sg:postcode":"3871 AZ",
    "sg:province":"Gelderland",
    "src:geom":"simplegeo",
    "wof:belongsto":[
        85798389,
        85633337,
        85687039
    ],
    "wof:breaches":[],
    "wof:concordances":{
        "sg:id":"SG_29NG2bpiX6GTmnxWQWFiq5_52.175831_5.457737@1306269988"
    },
    "wof:country":"NL",
    "wof:geomhash":"f15c0a6cf5d65e9bab16ac072f0d413a",
    "wof:hierarchy":[
        {
            "continent_id":-1,
            "country_id":85633337,
            "locality_id":-1,
            "neighbourhood_id":85798389,
            "region_id":85687039,
            "venue_id":303804625
        }
    ],
    "wof:id":303804625,
    "wof:lastmodified":1448999822,
    "wof:name":"Bouwfonds Cultuurfonds",
    "wof:parent_id":85798389,
    "wof:placetype":"venue",
    "wof:superseded_by":[],
    "wof:supersedes":[],
    "wof:tags":[]
},
  "bbox": [5.457737,52.175831,5.457737,52.175831],
  "geometry": {"coordinates":[5.457737,52.175831],"type":"Point"}
}