{
  "id": 219517637,
  "type": "Feature",
  "properties": {
    "edtf:cessation":"u",
    "edtf:inception":"u",
    "geom:area":0.0,
    "geom:bbox":"6.57862,53.130032,6.57862,53.130032",
    "geom:latitude":53.130032,
    "geom:longitude":6.57862,
    "iso:country":"NL",
    "sg:address":"Machln 10",
    "sg:city":"Eelde",
    "sg:classifiers":[],
    "sg:orig_category":"Luchthavens En Vliegvelden",
    "sg:owner":"simplegeo",
    "sg:phone":"+31 50 308 0908",
    "sg:postcode":"9761 TK",
    "sg:province":"Drenthe",
    "src:geom":"simplegeo",
    "wof:belongsto":[
        85633337,
        85687051
    ],
    "wof:breaches":[],
    "wof:concordances":{
        "sg:id":"SG_2GRip9rDqsGGPB9yqQBRPU_53.130032_6.578620@1306269926"
    },
    "wof:country":"NL",
    "wof:geomhash":"46780c9ec92df36c3d6fc9eeaa5da1fe",
    "wof:hierarchy":[
        {
            "continent_id":-1,
            "country_id":85633337,
            "locality_id":-1,
            "neighbourhood_id":-1,
            "region_id":85687051,
            "venue_id":219517637
        }
    ],
    "wof:id":219517637,
    "wof:lastmodified":1449072393,
    "wof:name":"Airportshop",
    "wof:parent_id":-1,
    "wof:placetype":"venue",
    "wof:superseded_by":[],
    "wof:supersedes":[],
    "wof:tags":[]
},
  "bbox": [6.57862,53.130032,6.57862,53.130032],
  "geometry": {"coordinates":[6.57862,53.130032],"type":"Point"}
}