{
  "id": 219196673,
  "type": "Feature",
  "properties": {
    "edtf:cessation":"u",
    "edtf:inception":"u",
    "geom:area":0.0,
    "geom:bbox":"4.493279,52.124863,4.493279,52.124863",
    "geom:latitude":52.124863,
    "geom:longitude":4.493279,
    "iso:country":"NL",
    "sg:address":"Papeweg 2",
    "sg:city":"Zoeterwoude",
    "sg:classifiers":[],
    "sg:orig_category":"Levende Dieren Gh",
    "sg:owner":"simplegeo",
    "sg:phone":"+31 71 580 3064",
    "sg:postcode":"2381 EM",
    "sg:province":"Zuid-Holland",
    "src:geom":"simplegeo",
    "wof:belongsto":[
        85798589,
        85633337,
        85687041
    ],
    "wof:breaches":[],
    "wof:concordances":{
        "sg:id":"SG_2vbMEZy5Wd9OPEtzCb5O5T_52.124863_4.493279@1306269924"
    },
    "wof:country":"NL",
    "wof:geomhash":"0a7ce120bee23f6335f0c6e82c235441",
    "wof:hierarchy":[
        {
            "continent_id":-1,
            "country_id":85633337,
            "locality_id":-1,
            "neighbourhood_id":85798589,
            "region_id":85687041,
            "venue_id":219196673
        }
    ],
    "wof:id":219196673,
    "wof:lastmodified":1449071191,
    "wof:name":"J. Van Vliet En Zonen",
    "wof:parent_id":85798589,
    "wof:placetype":"venue",
    "wof:superseded_by":[],
    "wof:supersedes":[],
    "wof:tags":[]
},
  "bbox": [4.493279,52.124863,4.493279,52.124863],
  "geometry": {"coordinates":[4.493279,52.124863],"type":"Point"}
}