{
  "id": 253608609,
  "type": "Feature",
  "properties": {
    "edtf:cessation":"u",
    "edtf:inception":"u",
    "geom:area":0.0,
    "geom:bbox":"4.630707,52.657291,4.630707,52.657291",
    "geom:latitude":52.657291,
    "geom:longitude":4.630707,
    "iso:country":"NL",
    "sg:address":"Parkwg 31",
    "sg:city":"Bergen Aan Zee",
    "sg:classifiers":[
        {
            "category":"Banks & Credit Unions",
            "subcategory":"Investment Brokerage",
            "type":"Services"
        }
    ],
    "sg:owner":"simplegeo",
    "sg:phone":"+31 72 581 2786",
    "sg:postcode":"1865 AE",
    "sg:province":"North Holland",
    "sg:tags":[
        "pension"
    ],
    "src:geom":"simplegeo",
    "wof:belongsto":[
        85633337,
        85687053
    ],
    "wof:breaches":[],
    "wof:concordances":{
        "sg:id":"SG_26yRvQpAK9psAtRejPNT6U_52.657291_4.630707@1306269952"
    },
    "wof:country":"NL",
    "wof:geomhash":"161aa4597bd39c85b1f2a0bdc7de277e",
    "wof:hierarchy":[
        {
            "continent_id":-1,
            "country_id":85633337,
            "locality_id":-1,
            "neighbourhood_id":-1,
            "region_id":85687053,
            "venue_id":253608609
        }
    ],
    "wof:id":253608609,
    "wof:lastmodified":1449064088,
    "wof:name":"Parnassia, Villa",
    "wof:parent_id":-1,
    "wof:placetype":"venue",
    "wof:superseded_by":[],
    "wof:supersedes":[],
    "wof:tags":[
        "pension"
    ]
},
  "bbox": [4.630707,52.657291,4.630707,52.657291],
  "geometry": {"coordinates":[4.630707,52.657291],"type":"Point"}
}