{
  "id": 320093873,
  "type": "Feature",
  "properties": {
    "edtf:cessation":"u",
    "edtf:inception":"u",
    "geom:area":0.0,
    "geom:bbox":"5.76391,50.798405,5.76391,50.798405",
    "geom:latitude":50.798405,
    "geom:longitude":5.76391,
    "iso:country":"NL",
    "sg:address":"Burg Wolfsstr 6",
    "sg:city":"St Geertruid",
    "sg:classifiers":[
        {
            "category":"Retail",
            "subcategory":"Auto Repair",
            "type":"Services"
        }
    ],
    "sg:owner":"simplegeo",
    "sg:phone":"+31 43 408 1201",
    "sg:postcode":"6265 AA",
    "sg:province":"Limburg",
    "sg:tags":[
        "garage"
    ],
    "sg:website":"http://www.auto-nelissen.nl",
    "src:geom":"simplegeo",
    "wof:belongsto":[
        85797779,
        85633337,
        85687033
    ],
    "wof:breaches":[],
    "wof:concordances":{
        "sg:id":"SG_2hy5TBo6zn05nB0Lhn1rbN_50.798405_5.763910@1306269994"
    },
    "wof:country":"NL",
    "wof:geomhash":"0a664ed41db9f9bb773bccbcfc0e7715",
    "wof:hierarchy":[
        {
            "continent_id":-1,
            "country_id":85633337,
            "locality_id":-1,
            "neighbourhood_id":85797779,
            "region_id":85687033,
            "venue_id":320093873
        }
    ],
    "wof:id":320093873,
    "wof:lastmodified":1449011268,
    "wof:name":"Nelissen Vof, G",
    "wof:parent_id":85797779,
    "wof:placetype":"venue",
    "wof:superseded_by":[],
    "wof:supersedes":[],
    "wof:tags":[
        "garage"
    ]
},
  "bbox": [5.76391,50.798405,5.76391,50.798405],
  "geometry": {"coordinates":[5.76391,50.798405],"type":"Point"}
}