{
  "id": 203084693,
  "type": "Feature",
  "properties": {
    "edtf:cessation":"u",
    "edtf:inception":"u",
    "geom:area":0.0,
    "geom:bbox":"4.475826,51.907501,4.475826,51.907501",
    "geom:latitude":51.907501,
    "geom:longitude":4.475826,
    "iso:country":"NL",
    "sg:address":"Parklaan 24",
    "sg:city":"Rotterdam",
    "sg:classifiers":[],
    "sg:orig_category":"Verzekeringen",
    "sg:owner":"simplegeo",
    "sg:phone":"+31 10 436 6204",
    "sg:postcode":"3016 BB",
    "sg:province":"Zuid-Holland",
    "src:geom":"simplegeo",
    "wof:belongsto":[
        85859827,
        85633337,
        101751843,
        85687041
    ],
    "wof:breaches":[],
    "wof:concordances":{
        "sg:id":"SG_5p77dqQt84bgRzbnx1B9Rx_51.907501_4.475826@1306269921"
    },
    "wof:country":"NL",
    "wof:geomhash":"b0a84137fb4a5ab42e11742ddf63642a",
    "wof:hierarchy":[
        {
            "continent_id":-1,
            "country_id":85633337,
            "locality_id":101751843,
            "neighbourhood_id":85859827,
            "region_id":85687041,
            "venue_id":203084693
        }
    ],
    "wof:id":203084693,
    "wof:lastmodified":1449025147,
    "wof:name":"Assurantiekantoor C J Kromjong",
    "wof:parent_id":85859827,
    "wof:placetype":"venue",
    "wof:superseded_by":[],
    "wof:supersedes":[],
    "wof:tags":[]
},
  "bbox": [4.475826,51.907501,4.475826,51.907501],
  "geometry": {"coordinates":[4.475826,51.907501],"type":"Point"}
}