{
  "id": 185737693,
  "type": "Feature",
  "properties": {
    "edtf:cessation":"u",
    "edtf:inception":"u",
    "geom:area":0.0,
    "geom:bbox":"5.23908,52.379997,5.23908,52.379997",
    "geom:latitude":52.379997,
    "geom:longitude":5.23908,
    "iso:country":"NL",
    "sg:address":"Radio Oranjeln 14",
    "sg:city":"Almere",
    "sg:classifiers":[],
    "sg:orig_category":"Keukens",
    "sg:owner":"simplegeo",
    "sg:phone":"+31 36 537 9202",
    "sg:postcode":"1318 AX",
    "sg:province":"NL.",
    "src:geom":"simplegeo",
    "wof:belongsto":[
        85633337,
        101751877,
        85687049
    ],
    "wof:breaches":[],
    "wof:concordances":{
        "sg:id":"SG_4z1UZcTI1vLuMcVs1sYy1J_52.379997_5.239080@1306269907"
    },
    "wof:country":"NL",
    "wof:geomhash":"12c425b31f4423e117c29d03a052fbf4",
    "wof:hierarchy":[
        {
            "continent_id":-1,
            "country_id":85633337,
            "locality_id":101751877,
            "neighbourhood_id":-1,
            "region_id":85687049,
            "venue_id":185737693
        }
    ],
    "wof:id":185737693,
    "wof:lastmodified":1449006979,
    "wof:name":"Correct",
    "wof:parent_id":-1,
    "wof:placetype":"venue",
    "wof:superseded_by":[],
    "wof:supersedes":[],
    "wof:tags":[]
},
  "bbox": [5.23908,52.379997,5.23908,52.379997],
  "geometry": {"coordinates":[5.23908,52.379997],"type":"Point"}
}