{
  "id": 303844693,
  "type": "Feature",
  "properties": {
    "edtf:cessation":"u",
    "edtf:inception":"u",
    "geom:area":0.0,
    "geom:bbox":"6.095186,52.51033,6.095186,52.51033",
    "geom:latitude":52.51033,
    "geom:longitude":6.095186,
    "iso:country":"NL",
    "sg:address":"Sassenstr 72",
    "sg:city":"Zwolle",
    "sg:classifiers":[],
    "sg:orig_category":"Handwerkartikelen",
    "sg:owner":"simplegeo",
    "sg:phone":"+31 38 421 0287",
    "sg:postcode":"8011 PD",
    "sg:province":"Overijssel",
    "src:geom":"simplegeo",
    "wof:belongsto":[
        85797067,
        85633337,
        85687045
    ],
    "wof:breaches":[],
    "wof:concordances":{
        "sg:id":"SG_2sDtwpeEFHdDjrGr36I3Yg_52.510330_6.095186@1306269988"
    },
    "wof:country":"NL",
    "wof:geomhash":"7737da365420a397aec6894c903837af",
    "wof:hierarchy":[
        {
            "continent_id":-1,
            "country_id":85633337,
            "locality_id":-1,
            "neighbourhood_id":85797067,
            "region_id":85687045,
            "venue_id":303844693
        }
    ],
    "wof:id":303844693,
    "wof:lastmodified":1448999162,
    "wof:name":"Haarhuis, Will",
    "wof:parent_id":85797067,
    "wof:placetype":"venue",
    "wof:superseded_by":[],
    "wof:supersedes":[],
    "wof:tags":[]
},
  "bbox": [6.095186,52.51033,6.095186,52.51033],
  "geometry": {"coordinates":[6.095186,52.51033],"type":"Point"}
}