{
  "id": 286971349,
  "type": "Feature",
  "properties": {
    "edtf:cessation":"u",
    "edtf:inception":"u",
    "geom:area":0.0,
    "geom:bbox":"6.202918,51.47393,6.202918,51.47393",
    "geom:latitude":51.47393,
    "geom:longitude":6.202918,
    "iso:country":"NL",
    "sg:address":"Lingsforterweg 84",
    "sg:city":"Arcen",
    "sg:classifiers":[],
    "sg:orig_category":"Bloemen And Planten",
    "sg:owner":"simplegeo",
    "sg:phone":"+31 77 473 2041",
    "sg:postcode":"5944 BG",
    "sg:province":"Limburg",
    "src:geom":"simplegeo",
    "wof:belongsto":[
        85633337,
        85687033
    ],
    "wof:breaches":[],
    "wof:concordances":{
        "sg:id":"SG_4Glu3LLhNNzeoVb3q3SScw_51.473930_6.202918@1306269975"
    },
    "wof:country":"NL",
    "wof:geomhash":"47faf7517fd0965e71df797ced57decd",
    "wof:hierarchy":[
        {
            "continent_id":-1,
            "country_id":85633337,
            "locality_id":-1,
            "neighbourhood_id":-1,
            "region_id":85687033,
            "venue_id":286971349
        }
    ],
    "wof:id":286971349,
    "wof:lastmodified":1449016682,
    "wof:name":"Peeters Tuincentrum",
    "wof:parent_id":-1,
    "wof:placetype":"venue",
    "wof:superseded_by":[],
    "wof:supersedes":[],
    "wof:tags":[]
},
  "bbox": [6.202918,51.47393,6.202918,51.47393],
  "geometry": {"coordinates":[6.202918,51.47393],"type":"Point"}
}