{
  "id": 320567185,
  "type": "Feature",
  "properties": {
    "edtf:cessation":"u",
    "edtf:inception":"u",
    "geom:area":0.0,
    "geom:bbox":"4.899525,52.35648,4.899525,52.35648",
    "geom:latitude":52.35648,
    "geom:longitude":4.899525,
    "iso:country":"NL",
    "sg:address":"Govert Flinckstraat 324",
    "sg:city":"Amsterdam",
    "sg:classifiers":[
        {
            "category":"Food & Beverages",
            "subcategory":"Fruits & Vegetables",
            "type":"Retail Goods"
        }
    ],
    "sg:owner":"simplegeo",
    "sg:phone":"+31 20 662 7591",
    "sg:postcode":"1073 CJ",
    "sg:province":"North Holland",
    "sg:tags":[
        "groenten"
    ],
    "src:geom":"simplegeo",
    "wof:belongsto":[
        85797363,
        85633337,
        101751893,
        85687053
    ],
    "wof:breaches":[],
    "wof:concordances":{
        "sg:id":"SG_0VplcOGD8IyF2Dd2TcuCbT_52.356480_4.899525@1306270000"
    },
    "wof:country":"NL",
    "wof:geomhash":"07797cb875411edb617ab2fb1c6e7c41",
    "wof:hierarchy":[
        {
            "continent_id":-1,
            "country_id":85633337,
            "locality_id":101751893,
            "neighbourhood_id":85797363,
            "region_id":85687053,
            "venue_id":320567185
        }
    ],
    "wof:id":320567185,
    "wof:lastmodified":1449014995,
    "wof:name":"M De Meij",
    "wof:parent_id":85797363,
    "wof:placetype":"venue",
    "wof:superseded_by":[],
    "wof:supersedes":[],
    "wof:tags":[
        "groenten"
    ]
},
  "bbox": [4.899525,52.35648,4.899525,52.35648],
  "geometry": {"coordinates":[4.899525,52.35648],"type":"Point"}
}