{
  "id": 320328001,
  "type": "Feature",
  "properties": {
    "edtf:cessation":"u",
    "edtf:inception":"u",
    "geom:area":0.0,
    "geom:bbox":"6.691316,51.955715,6.691316,51.955715",
    "geom:latitude":51.955715,
    "geom:longitude":6.691316,
    "iso:country":"NL",
    "sg:address":"Driemarkweg 12",
    "sg:city":"Winterswijk",
    "sg:classifiers":[],
    "sg:orig_category":"Goederenvervoer Over De Weg",
    "sg:owner":"simplegeo",
    "sg:phone":"+31 543 518 389",
    "sg:postcode":"7102 EX",
    "sg:province":"Gelderland",
    "src:geom":"simplegeo",
    "wof:belongsto":[
        85633337,
        85687043
    ],
    "wof:breaches":[],
    "wof:concordances":{
        "sg:id":"SG_1b6yaoi6fw61mX6lVVDeHK_51.955715_6.691316@1306269997"
    },
    "wof:country":"NL",
    "wof:geomhash":"471837212bbc0cfc766875fa177da4f7",
    "wof:hierarchy":[
        {
            "continent_id":-1,
            "country_id":85633337,
            "locality_id":-1,
            "neighbourhood_id":-1,
            "region_id":85687043,
            "venue_id":320328001
        }
    ],
    "wof:id":320328001,
    "wof:lastmodified":1449013454,
    "wof:name":"Firma Bent-Ten Dolle",
    "wof:parent_id":-1,
    "wof:placetype":"venue",
    "wof:superseded_by":[],
    "wof:supersedes":[],
    "wof:tags":[]
},
  "bbox": [6.691316,51.955715,6.691316,51.955715],
  "geometry": {"coordinates":[6.691316,51.955715],"type":"Point"}
}