{
  "id": 253317117,
  "type": "Feature",
  "properties": {
    "edtf:cessation":"u",
    "edtf:inception":"u",
    "geom:area":0.0,
    "geom:bbox":"6.92766,53.331909,6.92766,53.331909",
    "geom:latitude":53.331909,
    "geom:longitude":6.92766,
    "iso:country":"NL",
    "sg:address":"Willemstraat 28",
    "sg:city":"Delfzijl",
    "sg:classifiers":[],
    "sg:orig_category":"Meubelzaken, Woning- And Keukeninrichting",
    "sg:owner":"simplegeo",
    "sg:phone":"+31 596 612 950",
    "sg:postcode":"9934 BC",
    "sg:province":"Groningen",
    "src:geom":"simplegeo",
    "wof:belongsto":[
        85797887,
        85633337,
        101837987,
        85687059
    ],
    "wof:breaches":[],
    "wof:concordances":{
        "sg:id":"SG_6MMrbyMnZFVObWUg78LlEn_53.331909_6.927660@1306269948"
    },
    "wof:country":"NL",
    "wof:geomhash":"b1d216a9dc0500efa8ab5808c8315b77",
    "wof:hierarchy":[
        {
            "continent_id":-1,
            "country_id":85633337,
            "locality_id":101837987,
            "neighbourhood_id":85797887,
            "region_id":85687059,
            "venue_id":253317117
        }
    ],
    "wof:id":253317117,
    "wof:lastmodified":1449064167,
    "wof:name":"Van Der Storm Woninginrichting",
    "wof:parent_id":85797887,
    "wof:placetype":"venue",
    "wof:superseded_by":[],
    "wof:supersedes":[],
    "wof:tags":[]
},
  "bbox": [6.92766,53.331909,6.92766,53.331909],
  "geometry": {"coordinates":[6.92766,53.331909],"type":"Point"}
}