{
  "id": 303622701,
  "type": "Feature",
  "properties": {
    "edtf:cessation":"u",
    "edtf:inception":"u",
    "geom:area":0.0,
    "geom:bbox":"5.311808,52.127663,5.311808,52.127663",
    "geom:latitude":52.127663,
    "geom:longitude":5.311808,
    "iso:country":"NL",
    "sg:address":"Amersfoortsestraat 78 B",
    "sg:city":"Soesterberg",
    "sg:classifiers":[],
    "sg:orig_category":"Diverse Bedrijfsinstallaties Gh",
    "sg:owner":"simplegeo",
    "sg:phone":"+31 346 334 680",
    "sg:postcode":"3769 AL",
    "sg:province":"Utrecht",
    "src:geom":"simplegeo",
    "wof:belongsto":[
        85798415,
        85633337,
        85687039
    ],
    "wof:breaches":[],
    "wof:concordances":{
        "sg:id":"SG_4NwHx3Ej85faYPl3Gove0C_52.127663_5.311808@1306269986"
    },
    "wof:country":"NL",
    "wof:geomhash":"a135a7035aa42caafcbee03344ef5741",
    "wof:hierarchy":[
        {
            "continent_id":-1,
            "country_id":85633337,
            "locality_id":-1,
            "neighbourhood_id":85798415,
            "region_id":85687039,
            "venue_id":303622701
        }
    ],
    "wof:id":303622701,
    "wof:lastmodified":1449000120,
    "wof:name":"Aerox Bv",
    "wof:parent_id":85798415,
    "wof:placetype":"venue",
    "wof:superseded_by":[],
    "wof:supersedes":[],
    "wof:tags":[]
},
  "bbox": [5.311808,52.127663,5.311808,52.127663],
  "geometry": {"coordinates":[5.311808,52.127663],"type":"Point"}
}