{
  "id": 220184305,
  "type": "Feature",
  "properties": {
    "edtf:cessation":"u",
    "edtf:inception":"u",
    "geom:area":0.0,
    "geom:bbox":"5.377759,51.716755,5.377759,51.716755",
    "geom:latitude":51.716755,
    "geom:longitude":5.377759,
    "iso:country":"NL",
    "sg:address":"Buskeshoeven 2",
    "sg:city":"Rosmalen",
    "sg:classifiers":[],
    "sg:orig_category":"Afslankinstituten",
    "sg:owner":"simplegeo",
    "sg:phone":"+31 73 521 8742",
    "sg:postcode":"5242 KS",
    "sg:province":"Noord-Brabant",
    "sg:website":"http://www.tip.nl/users/m.baghuis",
    "src:geom":"simplegeo",
    "wof:belongsto":[
        85797385,
        85633337,
        85687035
    ],
    "wof:breaches":[],
    "wof:concordances":{
        "sg:id":"SG_0rXQW5wZ2oFiuKSvVWpbih_51.716755_5.377759@1306269933"
    },
    "wof:country":"NL",
    "wof:geomhash":"1af6016adb6b3ab4c0f7c66b91536632",
    "wof:hierarchy":[
        {
            "continent_id":-1,
            "country_id":85633337,
            "locality_id":-1,
            "neighbourhood_id":85797385,
            "region_id":85687035,
            "venue_id":220184305
        }
    ],
    "wof:id":220184305,
    "wof:lastmodified":1449074177,
    "wof:name":"Herbag International",
    "wof:parent_id":85797385,
    "wof:placetype":"venue",
    "wof:superseded_by":[],
    "wof:supersedes":[],
    "wof:tags":[]
},
  "bbox": [5.377759,51.716755,5.377759,51.716755],
  "geometry": {"coordinates":[5.377759,51.716755],"type":"Point"}
}