{
  "id": 202843751,
  "type": "Feature",
  "properties": {
    "edtf:cessation":"u",
    "edtf:inception":"u",
    "geom:area":0.0,
    "geom:bbox":"4.359515,52.083122,4.359515,52.083122",
    "geom:latitude":52.083122,
    "geom:longitude":4.359515,
    "iso:country":"NL",
    "sg:address":"Brinnoln 16",
    "sg:city":"Voorburg",
    "sg:classifiers":[],
    "sg:orig_category":"Vertaalbureaus",
    "sg:owner":"simplegeo",
    "sg:phone":"+31 70 386 8057",
    "sg:postcode":"2273 HW",
    "sg:province":"Zuid-Holland",
    "src:geom":"simplegeo",
    "wof:belongsto":[
        85859643,
        85633337,
        101754709,
        85687041
    ],
    "wof:breaches":[],
    "wof:concordances":{
        "sg:id":"SG_6saZurAFYryhDlwr2fbeXe_52.083122_4.359515@1306269918"
    },
    "wof:country":"NL",
    "wof:geomhash":"7a93efd335c308490feaa2e15292cb4e",
    "wof:hierarchy":[
        {
            "continent_id":-1,
            "country_id":85633337,
            "locality_id":101754709,
            "neighbourhood_id":85859643,
            "region_id":85687041,
            "venue_id":202843751
        }
    ],
    "wof:id":202843751,
    "wof:lastmodified":1449060333,
    "wof:name":"Polkadot",
    "wof:parent_id":85859643,
    "wof:placetype":"venue",
    "wof:superseded_by":[],
    "wof:supersedes":[],
    "wof:tags":[]
},
  "bbox": [4.359515,52.083122,4.359515,52.083122],
  "geometry": {"coordinates":[4.359515,52.083122],"type":"Point"}
}