{
  "id": 319823461,
  "type": "Feature",
  "properties": {
    "edtf:cessation":"u",
    "edtf:inception":"u",
    "geom:area":0.0,
    "geom:bbox":"5.1695,52.228565,5.1695,52.228565",
    "geom:latitude":52.228565,
    "geom:longitude":5.1695,
    "iso:country":"NL",
    "sg:address":"C De Wetln 1",
    "sg:city":"Hilversum",
    "sg:classifiers":[
        {
            "category":"Travel",
            "subcategory":"Hotels & Motels",
            "type":"Entertainment"
        }
    ],
    "sg:owner":"simplegeo",
    "sg:phone":"+31 35 621 4760",
    "sg:postcode":"1217 JJ",
    "sg:province":"Noord-Holland",
    "sg:website":"http://www.villatrompenberg.nl",
    "src:geom":"simplegeo",
    "wof:belongsto":[
        85798083,
        85633337,
        101751905,
        85687053
    ],
    "wof:breaches":[],
    "wof:concordances":{
        "sg:id":"SG_4bgiQHx7ghlM78FFBNwGPu_52.228565_5.169500@1306269991"
    },
    "wof:country":"NL",
    "wof:geomhash":"b9ac07d90c7b247c1d4d6bff4b815dee",
    "wof:hierarchy":[
        {
            "continent_id":-1,
            "country_id":85633337,
            "locality_id":101751905,
            "neighbourhood_id":85798083,
            "region_id":85687053,
            "venue_id":319823461
        }
    ],
    "wof:id":319823461,
    "wof:lastmodified":1449024874,
    "wof:name":"Trompenberg, Villa",
    "wof:parent_id":85798083,
    "wof:placetype":"venue",
    "wof:superseded_by":[],
    "wof:supersedes":[],
    "wof:tags":[]
},
  "bbox": [5.1695,52.228565,5.1695,52.228565],
  "geometry": {"coordinates":[5.1695,52.228565],"type":"Point"}
}