{
  "id": 270488447,
  "type": "Feature",
  "properties": {
    "edtf:cessation":"u",
    "edtf:inception":"u",
    "geom:area":0.0,
    "geom:bbox":"4.564552,52.266136,4.564552,52.266136",
    "geom:latitude":52.266136,
    "geom:longitude":4.564552,
    "iso:country":"NL",
    "sg:address":"Orion 2",
    "sg:city":"Lisse",
    "sg:classifiers":[
        {
            "category":"Education",
            "subcategory":"Preschool",
            "type":"Public Place"
        }
    ],
    "sg:owner":"simplegeo",
    "sg:phone":"+31 252 413 468",
    "sg:postcode":"2163 AJ",
    "sg:province":"North Holland",
    "sg:tags":[
        "kleuteronderwijs",
        "basis-"
    ],
    "src:geom":"simplegeo",
    "wof:belongsto":[
        85798313,
        85633337,
        101837693,
        85687041
    ],
    "wof:breaches":[],
    "wof:concordances":{
        "sg:id":"SG_1AUrtRw81BNUo6t790qTly_52.266136_4.564552@1306269966"
    },
    "wof:country":"NL",
    "wof:geomhash":"f6a0e94ebc687c2b833da499f712aa6b",
    "wof:hierarchy":[
        {
            "continent_id":-1,
            "country_id":85633337,
            "locality_id":101837693,
            "neighbourhood_id":85798313,
            "region_id":85687041,
            "venue_id":270488447
        }
    ],
    "wof:id":270488447,
    "wof:lastmodified":1449011083,
    "wof:name":"Chr Basisschool De Lisbloem",
    "wof:parent_id":85798313,
    "wof:placetype":"venue",
    "wof:superseded_by":[],
    "wof:supersedes":[],
    "wof:tags":[
        "kleuteronderwijs",
        "basis-"
    ]
},
  "bbox": [4.564552,52.266136,4.564552,52.266136],
  "geometry": {"coordinates":[4.564552,52.266136],"type":"Point"}
}