{
  "id": 169742627,
  "type": "Feature",
  "properties": {
    "edtf:cessation":"u",
    "edtf:inception":"u",
    "geom:area":0.0,
    "geom:bbox":"5.632942,51.54073,5.632942,51.54073",
    "geom:latitude":51.54073,
    "geom:longitude":5.632942,
    "iso:country":"NL",
    "sg:address":"Monseigneur Verhagenstr 31",
    "sg:city":"Beek En Donk",
    "sg:classifiers":[],
    "sg:orig_category":"Kappers",
    "sg:owner":"simplegeo",
    "sg:phone":"+31 492 461 851",
    "sg:postcode":"5741 EG",
    "sg:province":"Noord-Brabant",
    "src:geom":"simplegeo",
    "wof:belongsto":[
        85633337,
        101808161,
        85687035
    ],
    "wof:breaches":[],
    "wof:concordances":{
        "sg:id":"SG_5RLXZhLI91aHnyNDmhChQh_51.540730_5.632942@1306269905"
    },
    "wof:country":"NL",
    "wof:geomhash":"568ac2f0e8e15797262ddceba65c7e4d",
    "wof:hierarchy":[
        {
            "continent_id":-1,
            "country_id":85633337,
            "locality_id":101808161,
            "neighbourhood_id":-1,
            "region_id":85687035,
            "venue_id":169742627
        }
    ],
    "wof:id":169742627,
    "wof:lastmodified":1449032899,
    "wof:name":"M.A. Donkers",
    "wof:parent_id":-1,
    "wof:placetype":"venue",
    "wof:superseded_by":[],
    "wof:supersedes":[],
    "wof:tags":[]
},
  "bbox": [5.632942,51.54073,5.632942,51.54073],
  "geometry": {"coordinates":[5.632942,51.54073],"type":"Point"}
}