{
  "id": 287010277,
  "type": "Feature",
  "properties": {
    "edtf:cessation":"u",
    "edtf:inception":"u",
    "geom:area":0.0,
    "geom:bbox":"6.602456,52.35857,6.602456,52.35857",
    "geom:latitude":52.35857,
    "geom:longitude":6.602456,
    "iso:country":"NL",
    "sg:address":"Marjoleinln 8",
    "sg:city":"Wierden",
    "sg:classifiers":[],
    "sg:orig_category":"Bloemen En Planten - Groothandel",
    "sg:owner":"simplegeo",
    "sg:phone":"+31 546 573 681",
    "sg:postcode":"7641 ER",
    "sg:province":"NL.08",
    "src:geom":"simplegeo",
    "wof:belongsto":[
        85633337,
        101754779,
        85687045
    ],
    "wof:breaches":[],
    "wof:concordances":{
        "sg:id":"SG_0Emx5gmUzEatTWQdyBpSWO_52.358570_6.602456@1306269975"
    },
    "wof:country":"NL",
    "wof:geomhash":"7511b1107112e7eff69a3027f36b446e",
    "wof:hierarchy":[
        {
            "continent_id":-1,
            "country_id":85633337,
            "locality_id":101754779,
            "neighbourhood_id":-1,
            "region_id":85687045,
            "venue_id":287010277
        }
    ],
    "wof:id":287010277,
    "wof:lastmodified":1449001217,
    "wof:name":"Nijzink, W",
    "wof:parent_id":-1,
    "wof:placetype":"venue",
    "wof:superseded_by":[],
    "wof:supersedes":[],
    "wof:tags":[]
},
  "bbox": [6.602456,52.35857,6.602456,52.35857],
  "geometry": {"coordinates":[6.602456,52.35857],"type":"Point"}
}