{
  "id": 319850627,
  "type": "Feature",
  "properties": {
    "edtf:cessation":"u",
    "edtf:inception":"u",
    "geom:area":0.0,
    "geom:bbox":"5.05873,51.513409,5.05873,51.513409",
    "geom:latitude":51.513409,
    "geom:longitude":5.05873,
    "iso:country":"NL",
    "sg:address":"Vollerstraat 10",
    "sg:city":"Goirle",
    "sg:classifiers":[],
    "sg:orig_category":"Hout Gh",
    "sg:owner":"simplegeo",
    "sg:phone":"+31 13 534 8108",
    "sg:postcode":"5051 JV",
    "sg:province":"North Brabant",
    "src:geom":"simplegeo",
    "wof:belongsto":[
        85797199,
        85633337,
        85687035
    ],
    "wof:breaches":[],
    "wof:concordances":{
        "sg:id":"SG_5D1kCCzHtUMUXBPMn0BLpL_51.513409_5.058730@1306269991"
    },
    "wof:country":"NL",
    "wof:geomhash":"9e654b3e8c83fa1853c95cda08edf763",
    "wof:hierarchy":[
        {
            "continent_id":-1,
            "country_id":85633337,
            "locality_id":-1,
            "neighbourhood_id":85797199,
            "region_id":85687035,
            "venue_id":319850627
        }
    ],
    "wof:id":319850627,
    "wof:lastmodified":1449024538,
    "wof:name":"Webeko Fineer",
    "wof:parent_id":85797199,
    "wof:placetype":"venue",
    "wof:superseded_by":[],
    "wof:supersedes":[],
    "wof:tags":[]
},
  "bbox": [5.05873,51.513409,5.05873,51.513409],
  "geometry": {"coordinates":[5.05873,51.513409],"type":"Point"}
}