{
  "id": 270258783,
  "type": "Feature",
  "properties": {
    "edtf:cessation":"u",
    "edtf:inception":"u",
    "geom:area":0.0,
    "geom:bbox":"4.480599,52.068493,4.480599,52.068493",
    "geom:latitude":52.068493,
    "geom:longitude":4.480599,
    "iso:country":"NL",
    "sg:address":"Django Reinhardtrode 19",
    "sg:city":"Zoetermeer",
    "sg:classifiers":[],
    "sg:orig_category":"Fotostudio'S And Fotografen",
    "sg:owner":"simplegeo",
    "sg:phone":"+31 79 351 3232",
    "sg:postcode":"2717 GL",
    "sg:province":"South Holland",
    "src:geom":"simplegeo",
    "wof:belongsto":[
        85798253,
        85633337,
        85687041
    ],
    "wof:breaches":[],
    "wof:concordances":{
        "sg:id":"SG_0EqQGiLRYJmx78UxRW4qiW_52.068493_4.480599@1306269963"
    },
    "wof:country":"NL",
    "wof:geomhash":"d73dd2d639e1ce99c88480ff33e80076",
    "wof:hierarchy":[
        {
            "continent_id":-1,
            "country_id":85633337,
            "locality_id":-1,
            "neighbourhood_id":85798253,
            "region_id":85687041,
            "venue_id":270258783
        }
    ],
    "wof:id":270258783,
    "wof:lastmodified":1449010553,
    "wof:name":"Ton Van Zeyl Fotografie",
    "wof:parent_id":85798253,
    "wof:placetype":"venue",
    "wof:superseded_by":[],
    "wof:supersedes":[],
    "wof:tags":[]
},
  "bbox": [4.480599,52.068493,4.480599,52.068493],
  "geometry": {"coordinates":[4.480599,52.068493],"type":"Point"}
}