{
  "id": 270513001,
  "type": "Feature",
  "properties": {
    "edtf:cessation":"u",
    "edtf:inception":"u",
    "geom:area":0.0,
    "geom:bbox":"4.753625,52.195496,4.753625,52.195496",
    "geom:latitude":52.195496,
    "geom:longitude":4.753625,
    "iso:country":"NL",
    "sg:address":"Ambroziolaan 32",
    "sg:city":"Nieuwveen",
    "sg:classifiers":[
        {
            "category":"Education",
            "subcategory":"Preschool",
            "type":"Public Place"
        }
    ],
    "sg:owner":"simplegeo",
    "sg:phone":"+31 172 538 324",
    "sg:postcode":"2441 AD",
    "sg:province":"South Holland",
    "sg:tags":[
        "kleuteronderwijs",
        "basis-"
    ],
    "src:geom":"simplegeo",
    "wof:belongsto":[
        85633337,
        101807031,
        85687041
    ],
    "wof:breaches":[],
    "wof:concordances":{
        "sg:id":"SG_01jbKgKrf5ClhVgXGAPkfX_52.195496_4.753625@1306269966"
    },
    "wof:country":"NL",
    "wof:geomhash":"0ebc7de2c2cdf207989aca74ac9e8c27",
    "wof:hierarchy":[
        {
            "continent_id":-1,
            "country_id":85633337,
            "locality_id":101807031,
            "neighbourhood_id":-1,
            "region_id":85687041,
            "venue_id":270513001
        }
    ],
    "wof:id":270513001,
    "wof:lastmodified":1449010284,
    "wof:name":"De Wegwijzer",
    "wof:parent_id":-1,
    "wof:placetype":"venue",
    "wof:superseded_by":[],
    "wof:supersedes":[],
    "wof:tags":[
        "kleuteronderwijs",
        "basis-"
    ]
},
  "bbox": [4.753625,52.195496,4.753625,52.195496],
  "geometry": {"coordinates":[4.753625,52.195496],"type":"Point"}
}