{
  "id": 320454797,
  "type": "Feature",
  "properties": {
    "edtf:cessation":"u",
    "edtf:inception":"u",
    "geom:area":0.0,
    "geom:bbox":"-84.544441,41.88448,-84.544441,41.88448",
    "geom:latitude":41.88448,
    "geom:longitude":-84.544441,
    "iso:country":"NL",
    "sg:address":"Orseleindstr 34C",
    "sg:city":"Oss",
    "sg:classifiers":[],
    "sg:orig_category":"Gordijnenateliers",
    "sg:owner":"simplegeo",
    "sg:phone":"+31 412 645 041",
    "sg:postcode":"5346 SL",
    "sg:province":"Noord-Brabant",
    "src:geom":"simplegeo",
    "wof:belongsto":[
        85633793,
        85688599
    ],
    "wof:breaches":[],
    "wof:concordances":{
        "sg:id":"SG_0dx2mUU8jFFS5FxZa2iYnr_41.884480_-84.544441@1306269998"
    },
    "wof:country":"NL",
    "wof:geomhash":"60827448cd5a46ac4c0908ef461c334a",
    "wof:hierarchy":[
        {
            "continent_id":-1,
            "country_id":85633793,
            "locality_id":-1,
            "neighbourhood_id":-1,
            "region_id":85688599,
            "venue_id":320454797
        }
    ],
    "wof:id":320454797,
    "wof:lastmodified":1449014612,
    "wof:name":"Ren? Manders",
    "wof:parent_id":-1,
    "wof:placetype":"venue",
    "wof:superseded_by":[],
    "wof:supersedes":[],
    "wof:tags":[]
},
  "bbox": [-84.544441,41.88448,-84.544441,41.88448],
  "geometry": {"coordinates":[-84.544441,41.88448],"type":"Point"}
}