{
  "id": 270256269,
  "type": "Feature",
  "properties": {
    "edtf:cessation":"u",
    "edtf:inception":"u",
    "geom:area":0.0,
    "geom:bbox":"6.5691,52.240273,6.5691,52.240273",
    "geom:latitude":52.240273,
    "geom:longitude":6.5691,
    "iso:country":"NL",
    "sg:address":"Coornhertstraat 2A",
    "sg:city":"Goor",
    "sg:classifiers":[],
    "sg:orig_category":"Fotostudio'S And Fotografen",
    "sg:owner":"simplegeo",
    "sg:phone":"+31 547 260 381",
    "sg:postcode":"7471 ZJ",
    "sg:province":"Overijssel",
    "src:geom":"simplegeo",
    "wof:belongsto":[
        85633337,
        101807197,
        85687045
    ],
    "wof:breaches":[],
    "wof:concordances":{
        "sg:id":"SG_7kuSfDSoycoErVwbPUcn6F_52.240273_6.569100@1306269963"
    },
    "wof:country":"NL",
    "wof:geomhash":"ce84fd9c3a20315debac2f03afa3f66d",
    "wof:hierarchy":[
        {
            "continent_id":-1,
            "country_id":85633337,
            "locality_id":101807197,
            "neighbourhood_id":-1,
            "region_id":85687045,
            "venue_id":270256269
        }
    ],
    "wof:id":270256269,
    "wof:lastmodified":1449010490,
    "wof:name":"Rwg Video Productions",
    "wof:parent_id":-1,
    "wof:placetype":"venue",
    "wof:superseded_by":[],
    "wof:supersedes":[],
    "wof:tags":[]
},
  "bbox": [6.5691,52.240273,6.5691,52.240273],
  "geometry": {"coordinates":[6.5691,52.240273],"type":"Point"}
}