{
  "id": 220125551,
  "type": "Feature",
  "properties": {
    "edtf:cessation":"u",
    "edtf:inception":"u",
    "geom:area":0.0,
    "geom:bbox":"6.19217,51.914806,6.19217,51.914806",
    "geom:latitude":51.914806,
    "geom:longitude":6.19217,
    "iso:country":"NL",
    "sg:address":"Den Hamwg 16",
    "sg:city":"Beek Gem Bergh",
    "sg:classifiers":[],
    "sg:orig_category":"Adviesbureaus",
    "sg:owner":"simplegeo",
    "sg:phone":"+31 316 531 525",
    "sg:postcode":"7037 DS",
    "sg:province":"Gelderland",
    "src:geom":"simplegeo",
    "wof:belongsto":[
        85633337,
        85687043
    ],
    "wof:breaches":[],
    "wof:concordances":{
        "sg:id":"SG_5sje7l1Hx5IxrIguYUGDlI_51.914806_6.192170@1306269932"
    },
    "wof:country":"NL",
    "wof:geomhash":"9b9ae5f43da6c37f98ad3cb1f49bf22e",
    "wof:hierarchy":[
        {
            "continent_id":-1,
            "country_id":85633337,
            "locality_id":-1,
            "neighbourhood_id":-1,
            "region_id":85687043,
            "venue_id":220125551
        }
    ],
    "wof:id":220125551,
    "wof:lastmodified":1449074845,
    "wof:name":"Heebing Bv",
    "wof:parent_id":-1,
    "wof:placetype":"venue",
    "wof:superseded_by":[],
    "wof:supersedes":[],
    "wof:tags":[]
},
  "bbox": [6.19217,51.914806,6.19217,51.914806],
  "geometry": {"coordinates":[6.19217,51.914806],"type":"Point"}
}