{
  "id": 269495913,
  "type": "Feature",
  "properties": {
    "edtf:cessation":"u",
    "edtf:inception":"u",
    "geom:area":0.0,
    "geom:bbox":"6.140642,51.927582,6.140642,51.927582",
    "geom:latitude":51.927582,
    "geom:longitude":6.140642,
    "iso:country":"NL",
    "sg:address":"Haaghwg 5",
    "sg:city":"Didam",
    "sg:classifiers":[],
    "sg:orig_category":"Poeliers",
    "sg:owner":"simplegeo",
    "sg:phone":"+31 316 221 456",
    "sg:postcode":"6942 GP",
    "sg:province":"Gelderland",
    "src:geom":"simplegeo",
    "wof:belongsto":[
        85633337,
        85687043
    ],
    "wof:breaches":[],
    "wof:concordances":{
        "sg:id":"SG_021IzR07aqfp8bU8RSnBBs_51.927582_6.140642@1306269953"
    },
    "wof:country":"NL",
    "wof:geomhash":"33c390914592f87dd70f94143d0faf86",
    "wof:hierarchy":[
        {
            "continent_id":-1,
            "country_id":85633337,
            "locality_id":-1,
            "neighbourhood_id":-1,
            "region_id":85687043,
            "venue_id":269495913
        }
    ],
    "wof:id":269495913,
    "wof:lastmodified":1449037190,
    "wof:name":"Loeters, G I M",
    "wof:parent_id":-1,
    "wof:placetype":"venue",
    "wof:superseded_by":[],
    "wof:supersedes":[],
    "wof:tags":[]
},
  "bbox": [6.140642,51.927582,6.140642,51.927582],
  "geometry": {"coordinates":[6.140642,51.927582],"type":"Point"}
}