{
  "id": 303643905,
  "type": "Feature",
  "properties": {
    "edtf:cessation":"u",
    "edtf:inception":"u",
    "geom:area":0.0,
    "geom:bbox":"5.04763,51.903168,5.04763,51.903168",
    "geom:latitude":51.903168,
    "geom:longitude":5.04763,
    "iso:country":"NL",
    "sg:address":"Geer 47",
    "sg:city":"Nieuwland",
    "sg:classifiers":[],
    "sg:orig_category":"Diverse Bedrijfsinstallaties Gh",
    "sg:owner":"simplegeo",
    "sg:phone":"+31 345 599 407",
    "sg:postcode":"4243 JT",
    "sg:province":"Zuid-Holland",
    "src:geom":"simplegeo",
    "wof:belongsto":[
        85633337,
        85687041
    ],
    "wof:breaches":[],
    "wof:concordances":{
        "sg:id":"SG_6LYSy73OWJitvjGzL5nJ4p_51.903168_5.047630@1306269986"
    },
    "wof:country":"NL",
    "wof:geomhash":"fc451d5209023851926762cc05e8e6b5",
    "wof:hierarchy":[
        {
            "continent_id":-1,
            "country_id":85633337,
            "locality_id":-1,
            "neighbourhood_id":-1,
            "region_id":85687041,
            "venue_id":303643905
        }
    ],
    "wof:id":303643905,
    "wof:lastmodified":1449000239,
    "wof:name":"W.E. Van Der Ham",
    "wof:parent_id":-1,
    "wof:placetype":"venue",
    "wof:superseded_by":[],
    "wof:supersedes":[],
    "wof:tags":[]
},
  "bbox": [5.04763,51.903168,5.04763,51.903168],
  "geometry": {"coordinates":[5.04763,51.903168],"type":"Point"}
}