{
  "id": 320156885,
  "type": "Feature",
  "properties": {
    "edtf:cessation":"u",
    "edtf:inception":"u",
    "geom:area":0.0,
    "geom:bbox":"5.316923,51.367451,5.316923,51.367451",
    "geom:latitude":51.367451,
    "geom:longitude":5.316923,
    "iso:country":"NL",
    "sg:address":"Brouwer 8",
    "sg:city":"Eersel",
    "sg:classifiers":[],
    "sg:orig_category":"Geluidshinderbestrijding",
    "sg:owner":"simplegeo",
    "sg:phone":"+31 497 515 809",
    "sg:postcode":"5521 DK",
    "sg:province":"Noord-Brabant",
    "sg:website":"http://www.havoo.com",
    "src:geom":"simplegeo",
    "wof:belongsto":[
        85633337,
        101839351,
        85687035
    ],
    "wof:breaches":[],
    "wof:concordances":{
        "sg:id":"SG_5sEQekhm6j5SBe9nfi4mI3_51.367451_5.316923@1306269995"
    },
    "wof:country":"NL",
    "wof:geomhash":"93d0cc8af7e0db68f3d3f312403ef8c6",
    "wof:hierarchy":[
        {
            "continent_id":-1,
            "country_id":85633337,
            "locality_id":101839351,
            "neighbourhood_id":-1,
            "region_id":85687035,
            "venue_id":320156885
        }
    ],
    "wof:id":320156885,
    "wof:lastmodified":1449011996,
    "wof:name":"Havoo Lawaaibestrijding Bv",
    "wof:parent_id":-1,
    "wof:placetype":"venue",
    "wof:superseded_by":[],
    "wof:supersedes":[],
    "wof:tags":[]
},
  "bbox": [5.316923,51.367451,5.316923,51.367451],
  "geometry": {"coordinates":[5.316923,51.367451],"type":"Point"}
}