{
  "id": 287023695,
  "type": "Feature",
  "properties": {
    "edtf:cessation":"u",
    "edtf:inception":"u",
    "geom:area":0.0,
    "geom:bbox":"4.14746,51.990803,4.14746,51.990803",
    "geom:latitude":51.990803,
    "geom:longitude":4.14746,
    "iso:country":"NL",
    "sg:address":"Kapittelland 6",
    "sg:city":"S Gravenzande",
    "sg:classifiers":[],
    "sg:orig_category":"Bloemen En Planten - Veilingen",
    "sg:owner":"simplegeo",
    "sg:phone":"+31 174 420 813",
    "sg:postcode":"2691 NB",
    "sg:province":"Zuid-Holland",
    "src:geom":"simplegeo",
    "wof:belongsto":[
        85633337,
        85687041
    ],
    "wof:breaches":[],
    "wof:concordances":{
        "sg:id":"SG_7EzD4xMsGGvrZ6NCOnE5HH_51.990803_4.147460@1306269975"
    },
    "wof:country":"NL",
    "wof:geomhash":"54ea7bd8c5d279c19091eb055db0627d",
    "wof:hierarchy":[
        {
            "continent_id":-1,
            "country_id":85633337,
            "locality_id":-1,
            "neighbourhood_id":-1,
            "region_id":85687041,
            "venue_id":287023695
        }
    ],
    "wof:id":287023695,
    "wof:lastmodified":1449001496,
    "wof:name":"M En M",
    "wof:parent_id":-1,
    "wof:placetype":"venue",
    "wof:superseded_by":[],
    "wof:supersedes":[],
    "wof:tags":[]
},
  "bbox": [4.14746,51.990803,4.14746,51.990803],
  "geometry": {"coordinates":[4.14746,51.990803],"type":"Point"}
}