{
  "id": 253305017,
  "type": "Feature",
  "properties": {
    "edtf:cessation":"u",
    "edtf:inception":"u",
    "geom:area":0.0,
    "geom:bbox":"6.100174,53.107742,6.100174,53.107742",
    "geom:latitude":53.107742,
    "geom:longitude":6.100174,
    "iso:country":"NL",
    "sg:address":"Oosterstraat 11",
    "sg:city":"Drachten",
    "sg:classifiers":[],
    "sg:orig_category":"Meubelzaken, Woning- And Keukeninrichting",
    "sg:owner":"simplegeo",
    "sg:phone":"+31 512 512 397",
    "sg:postcode":"9203 BA",
    "sg:province":"Friesland",
    "src:geom":"simplegeo",
    "wof:belongsto":[
        85797413,
        85633337,
        85687055
    ],
    "wof:breaches":[],
    "wof:concordances":{
        "sg:id":"SG_6rPwG6SV9CU6wRvHQx78MR_53.107742_6.100174@1306269948"
    },
    "wof:country":"NL",
    "wof:geomhash":"f5a3885bc4690a74c3fa786dc9bcb027",
    "wof:hierarchy":[
        {
            "continent_id":-1,
            "country_id":85633337,
            "locality_id":-1,
            "neighbourhood_id":85797413,
            "region_id":85687055,
            "venue_id":253305017
        }
    ],
    "wof:id":253305017,
    "wof:lastmodified":1449063269,
    "wof:name":"Postma Interieur Bv",
    "wof:parent_id":85797413,
    "wof:placetype":"venue",
    "wof:superseded_by":[],
    "wof:supersedes":[],
    "wof:tags":[]
},
  "bbox": [6.100174,53.107742,6.100174,53.107742],
  "geometry": {"coordinates":[6.100174,53.107742],"type":"Point"}
}