{
  "id": 320777347,
  "type": "Feature",
  "properties": {
    "edtf:cessation":"u",
    "edtf:inception":"u",
    "geom:area":0.0,
    "geom:bbox":"7.36695,51.232609,7.36695,51.232609",
    "geom:latitude":51.232609,
    "geom:longitude":7.36695,
    "iso:country":"NL",
    "sg:address":"Simonsstraat 35",
    "sg:city":"Kronenberg",
    "sg:classifiers":[],
    "sg:orig_category":"Zuivelproducten",
    "sg:owner":"simplegeo",
    "sg:phone":"+31 77 467 2648",
    "sg:postcode":"5976 NW",
    "sg:province":"Limburg",
    "src:geom":"simplegeo",
    "wof:belongsto":[
        85633111,
        85682513
    ],
    "wof:breaches":[],
    "wof:concordances":{
        "sg:id":"SG_3kXWNfVStLPPNhmwE1MJd5_51.232609_7.366950@1306270002"
    },
    "wof:country":"NL",
    "wof:geomhash":"60e90df2c6d34f3fb47dbfb968fc71e0",
    "wof:hierarchy":[
        {
            "continent_id":-1,
            "country_id":85633111,
            "locality_id":-1,
            "neighbourhood_id":-1,
            "region_id":85682513,
            "venue_id":320777347
        }
    ],
    "wof:id":320777347,
    "wof:lastmodified":1449013232,
    "wof:name":"Zuivelhandel J.B.M. Gommans",
    "wof:parent_id":-1,
    "wof:placetype":"venue",
    "wof:superseded_by":[],
    "wof:supersedes":[],
    "wof:tags":[]
},
  "bbox": [7.36695,51.232609,7.36695,51.232609],
  "geometry": {"coordinates":[7.36695,51.232609],"type":"Point"}
}