{
  "id": 219465127,
  "type": "Feature",
  "properties": {
    "edtf:cessation":"u",
    "edtf:inception":"u",
    "geom:area":0.0,
    "geom:bbox":"4.645735,52.042194,4.645735,52.042194",
    "geom:latitude":52.042194,
    "geom:longitude":4.645735,
    "iso:country":"NL",
    "sg:address":"Lysterbesstr 7",
    "sg:city":"Waddinxveen",
    "sg:classifiers":[],
    "sg:orig_category":"Loonbedrijven",
    "sg:owner":"simplegeo",
    "sg:phone":"+31 182 631 798",
    "sg:postcode":"2742 XS",
    "sg:province":"Zuid-Holland",
    "src:geom":"simplegeo",
    "wof:belongsto":[
        85633337,
        101754715,
        85687041
    ],
    "wof:breaches":[],
    "wof:concordances":{
        "sg:id":"SG_02Brcn38KZum0sFCEKfASI_52.042194_4.645735@1306269926"
    },
    "wof:country":"NL",
    "wof:geomhash":"7f67cc9fd1d1dfe88ff41e1edf2a36ff",
    "wof:hierarchy":[
        {
            "continent_id":-1,
            "country_id":85633337,
            "locality_id":101754715,
            "neighbourhood_id":-1,
            "region_id":85687041,
            "venue_id":219465127
        }
    ],
    "wof:id":219465127,
    "wof:lastmodified":1449072764,
    "wof:name":"Hendriksen, Edmond",
    "wof:parent_id":-1,
    "wof:placetype":"venue",
    "wof:superseded_by":[],
    "wof:supersedes":[],
    "wof:tags":[]
},
  "bbox": [4.645735,52.042194,4.645735,52.042194],
  "geometry": {"coordinates":[4.645735,52.042194],"type":"Point"}
}