{
  "id": 286275385,
  "type": "Feature",
  "properties": {
    "edtf:cessation":"u",
    "edtf:inception":"u",
    "geom:area":0.0,
    "geom:bbox":"5.233254,52.053013,5.233254,52.053013",
    "geom:latitude":52.053013,
    "geom:longitude":5.233254,
    "iso:country":"NL",
    "sg:address":"Cornelis Van Sandelaan 1",
    "sg:city":"Odijk",
    "sg:classifiers":[
        {
            "category":"Education",
            "subcategory":"Preschool",
            "type":"Public Place"
        }
    ],
    "sg:owner":"simplegeo",
    "sg:phone":"+31 30 656 1200",
    "sg:postcode":"3984 KV",
    "sg:province":"Utrecht",
    "sg:tags":[
        "kleuteronderwijs",
        "basis-"
    ],
    "src:geom":"simplegeo",
    "wof:belongsto":[
        85797785,
        85633337,
        101751823,
        85687039
    ],
    "wof:breaches":[],
    "wof:concordances":{
        "sg:id":"SG_0KdvLdRycoeg6zzWIGwTUE_52.053013_5.233254@1306269967"
    },
    "wof:country":"NL",
    "wof:geomhash":"76ccf03154651e1d075f9976138109ce",
    "wof:hierarchy":[
        {
            "continent_id":-1,
            "country_id":85633337,
            "locality_id":101751823,
            "neighbourhood_id":85797785,
            "region_id":85687039,
            "venue_id":286275385
        }
    ],
    "wof:id":286275385,
    "wof:lastmodified":1449016133,
    "wof:name":"Openbare Basisschool De Bongerd",
    "wof:parent_id":85797785,
    "wof:placetype":"venue",
    "wof:superseded_by":[],
    "wof:supersedes":[],
    "wof:tags":[
        "kleuteronderwijs",
        "basis-"
    ]
},
  "bbox": [5.233254,52.053013,5.233254,52.053013],
  "geometry": {"coordinates":[5.233254,52.053013],"type":"Point"}
}