{
  "id": 270473965,
  "type": "Feature",
  "properties": {
    "edtf:cessation":"u",
    "edtf:inception":"u",
    "geom:area":0.0,
    "geom:bbox":"-120.234116,37.018341,-120.234116,37.018341",
    "geom:latitude":37.018341,
    "geom:longitude":-120.234116,
    "iso:country":"NL",
    "sg:address":"Julianastraat 18",
    "sg:city":"Made",
    "sg:classifiers":[
        {
            "category":"Education",
            "subcategory":"Preschool",
            "type":"Public Place"
        }
    ],
    "sg:owner":"simplegeo",
    "sg:phone":"+31 162 682 470",
    "sg:postcode":"4921 KM",
    "sg:province":"California",
    "sg:tags":[
        "kleuteronderwijs",
        "basis-"
    ],
    "src:geom":"simplegeo",
    "wof:belongsto":[
        85688637,
        85633793,
        85922995,
        102084347,
        85824691
    ],
    "wof:breaches":[],
    "wof:concordances":{
        "sg:id":"SG_5SQeMtIXtfNF0cp6s7bqes_37.018341_-120.234116@1306269966"
    },
    "wof:country":"NL",
    "wof:geomhash":"b8fc4593851d5d3d816116e79114d581",
    "wof:hierarchy":[
        {
            "continent_id":-1,
            "country_id":85633793,
            "county_id":102084347,
            "locality_id":85922995,
            "neighbourhood_id":85824691,
            "region_id":85688637,
            "venue_id":270473965
        }
    ],
    "wof:id":270473965,
    "wof:lastmodified":1449009139,
    "wof:name":"Basisschool De Lage Weide",
    "wof:parent_id":85824691,
    "wof:placetype":"venue",
    "wof:superseded_by":[],
    "wof:supersedes":[],
    "wof:tags":[
        "kleuteronderwijs",
        "basis-"
    ]
},
  "bbox": [-120.234116,37.018341,-120.234116,37.018341],
  "geometry": {"coordinates":[-120.234116,37.018341],"type":"Point"}
}