{
  "id": 219393159,
  "type": "Feature",
  "properties": {
    "edtf:cessation":"u",
    "edtf:inception":"u",
    "geom:area":0.0,
    "geom:bbox":"5.457648,52.513752,5.457648,52.513752",
    "geom:latitude":52.513752,
    "geom:longitude":5.457648,
    "iso:country":"NL",
    "sg:address":"Gondel 3343",
    "sg:city":"Lelystad",
    "sg:classifiers":[],
    "sg:orig_category":"Loodgieterswerk, Verwarming And Sanitaire Installaties",
    "sg:owner":"simplegeo",
    "sg:phone":"+31 320 233 273",
    "sg:postcode":"8243 DA",
    "sg:province":"Flevoland",
    "src:geom":"simplegeo",
    "wof:belongsto":[
        85859951,
        85633337,
        101751873,
        85687049
    ],
    "wof:breaches":[],
    "wof:concordances":{
        "sg:id":"SG_5AaCrUBjtmz69V8RWqLRHj_52.513752_5.457648@1306269926"
    },
    "wof:country":"NL",
    "wof:geomhash":"3a4f7fe3f13836182138ce50bee8e3d7",
    "wof:hierarchy":[
        {
            "continent_id":-1,
            "country_id":85633337,
            "locality_id":101751873,
            "neighbourhood_id":85859951,
            "region_id":85687049,
            "venue_id":219393159
        }
    ],
    "wof:id":219393159,
    "wof:lastmodified":1449071501,
    "wof:name":"Flevoklus",
    "wof:parent_id":85859951,
    "wof:placetype":"venue",
    "wof:superseded_by":[],
    "wof:supersedes":[],
    "wof:tags":[]
},
  "bbox": [5.457648,52.513752,5.457648,52.513752],
  "geometry": {"coordinates":[5.457648,52.513752],"type":"Point"}
}