{
  "id": 303536723,
  "type": "Feature",
  "properties": {
    "edtf:cessation":"u",
    "edtf:inception":"u",
    "geom:area":0.0,
    "geom:bbox":"6.123744,52.205685,6.123744,52.205685",
    "geom:latitude":52.205685,
    "geom:longitude":6.123744,
    "iso:country":"NL",
    "sg:address":"Kneuterstraat 13",
    "sg:city":"Wilp Gld",
    "sg:classifiers":[],
    "sg:orig_category":"Recreatie- And Lunaparken",
    "sg:owner":"simplegeo",
    "sg:phone":"+31 571 261 789",
    "sg:postcode":"7384 CM",
    "sg:province":"Gelderland",
    "src:geom":"simplegeo",
    "wof:belongsto":[
        85797335,
        85633337,
        85687043
    ],
    "wof:breaches":[],
    "wof:concordances":{
        "sg:id":"SG_0gngtOJn3xRptTX1JSJ3uN_52.205685_6.123744@1306269985"
    },
    "wof:country":"NL",
    "wof:geomhash":"75eeec5ad4e3de89b0f8532b54bf9cf4",
    "wof:hierarchy":[
        {
            "continent_id":-1,
            "country_id":85633337,
            "locality_id":-1,
            "neighbourhood_id":85797335,
            "region_id":85687043,
            "venue_id":303536723
        }
    ],
    "wof:id":303536723,
    "wof:lastmodified":1448999577,
    "wof:name":"Recreatiegebied Bussloo",
    "wof:parent_id":85797335,
    "wof:placetype":"venue",
    "wof:superseded_by":[],
    "wof:supersedes":[],
    "wof:tags":[]
},
  "bbox": [6.123744,52.205685,6.123744,52.205685],
  "geometry": {"coordinates":[6.123744,52.205685],"type":"Point"}
}