{
  "id": 303792941,
  "type": "Feature",
  "properties": {
    "edtf:cessation":"u",
    "edtf:inception":"u",
    "geom:area":0.0,
    "geom:bbox":"4.969388,52.088444,4.969388,52.088444",
    "geom:latitude":52.088444,
    "geom:longitude":4.969388,
    "iso:country":"NL",
    "sg:address":"Korenmolen 8",
    "sg:city":"Harmelen",
    "sg:classifiers":[],
    "sg:orig_category":"Nagelstudio'S",
    "sg:owner":"simplegeo",
    "sg:phone":"+31 348 441 650",
    "sg:postcode":"3481 AV",
    "sg:province":"Utrecht",
    "src:geom":"simplegeo",
    "wof:belongsto":[
        85633337,
        85687039
    ],
    "wof:breaches":[],
    "wof:concordances":{
        "sg:id":"SG_6txrQWezGq5AE5M3JzhDfC_52.088444_4.969388@1306269987"
    },
    "wof:country":"NL",
    "wof:geomhash":"b882f0175bcf8f856b52034659574d92",
    "wof:hierarchy":[
        {
            "continent_id":-1,
            "country_id":85633337,
            "locality_id":-1,
            "neighbourhood_id":-1,
            "region_id":85687039,
            "venue_id":303792941
        }
    ],
    "wof:id":303792941,
    "wof:lastmodified":1448998638,
    "wof:name":"Accent",
    "wof:parent_id":-1,
    "wof:placetype":"venue",
    "wof:superseded_by":[],
    "wof:supersedes":[],
    "wof:tags":[]
},
  "bbox": [4.969388,52.088444,4.969388,52.088444],
  "geometry": {"coordinates":[4.969388,52.088444],"type":"Point"}
}