{
  "id": 186083637,
  "type": "Feature",
  "properties": {
    "edtf:cessation":"u",
    "edtf:inception":"u",
    "geom:area":0.0,
    "geom:bbox":"5.099725,52.233795,5.099725,52.233795",
    "geom:latitude":52.233795,
    "geom:longitude":5.099725,
    "iso:country":"NL",
    "sg:address":"Kortenhoefsedk 82",
    "sg:city":"Kortenhoef",
    "sg:classifiers":[],
    "sg:orig_category":"Koffie-Automaten",
    "sg:owner":"simplegeo",
    "sg:phone":"+31 35 656 2752",
    "sg:postcode":"1241 LS",
    "sg:province":"Noord-Holland",
    "src:geom":"simplegeo",
    "wof:belongsto":[
        85633337,
        85687053
    ],
    "wof:breaches":[],
    "wof:concordances":{
        "sg:id":"SG_1ZnCeoYhBP5QPKDKCvyh1t_52.233795_5.099725@1306269910"
    },
    "wof:country":"NL",
    "wof:geomhash":"fb6fdc05ef2f102201cb9cd1b1d761ed",
    "wof:hierarchy":[
        {
            "continent_id":-1,
            "country_id":85633337,
            "locality_id":-1,
            "neighbourhood_id":-1,
            "region_id":85687053,
            "venue_id":186083637
        }
    ],
    "wof:id":186083637,
    "wof:lastmodified":1449051651,
    "wof:name":"Hertog, G Den",
    "wof:parent_id":-1,
    "wof:placetype":"venue",
    "wof:superseded_by":[],
    "wof:supersedes":[],
    "wof:tags":[]
},
  "bbox": [5.099725,52.233795,5.099725,52.233795],
  "geometry": {"coordinates":[5.099725,52.233795],"type":"Point"}
}