{
  "id": 320366955,
  "type": "Feature",
  "properties": {
    "edtf:cessation":"u",
    "edtf:inception":"u",
    "geom:area":0.0,
    "geom:bbox":"6.950487,53.185711,6.950487,53.185711",
    "geom:latitude":53.185711,
    "geom:longitude":6.950487,
    "iso:country":"NL",
    "sg:address":"Scheemderzwaag 1",
    "sg:city":"Scheemda",
    "sg:classifiers":[],
    "sg:orig_category":"Goederenvervoer Over De Weg",
    "sg:owner":"simplegeo",
    "sg:phone":"+31 598 613 677",
    "sg:postcode":"9679 TM",
    "sg:province":"Groningen",
    "src:geom":"simplegeo",
    "wof:belongsto":[
        85633337,
        85687059
    ],
    "wof:breaches":[],
    "wof:concordances":{
        "sg:id":"SG_1aFFrjjOThGSDcxIIK8mWs_53.185711_6.950487@1306269997"
    },
    "wof:country":"NL",
    "wof:geomhash":"71310aaa73fb4ba98718830bef7877a4",
    "wof:hierarchy":[
        {
            "continent_id":-1,
            "country_id":85633337,
            "locality_id":-1,
            "neighbourhood_id":-1,
            "region_id":85687059,
            "venue_id":320366955
        }
    ],
    "wof:id":320366955,
    "wof:lastmodified":1449013982,
    "wof:name":"M. Lesterhuis En Zonen Bv",
    "wof:parent_id":-1,
    "wof:placetype":"venue",
    "wof:superseded_by":[],
    "wof:supersedes":[],
    "wof:tags":[]
},
  "bbox": [6.950487,53.185711,6.950487,53.185711],
  "geometry": {"coordinates":[6.950487,53.185711],"type":"Point"}
}