{
  "id": 286870965,
  "type": "Feature",
  "properties": {
    "edtf:cessation":"u",
    "edtf:inception":"u",
    "geom:area":0.0,
    "geom:bbox":"-74.726723,40.14278,-74.726723,40.14278",
    "geom:latitude":40.14278,
    "geom:longitude":-74.726723,
    "iso:country":"NL",
    "sg:address":"Karel Doormanlaan Ww",
    "sg:city":"Hilversum",
    "sg:classifiers":[],
    "sg:orig_category":"Bloemen And Planten",
    "sg:owner":"simplegeo",
    "sg:phone":"+31 35 624 6107",
    "sg:postcode":"1215 NJ",
    "sg:province":"Noord-Holland",
    "src:geom":"simplegeo",
    "wof:belongsto":[
        85688607,
        85633793,
        85975539,
        102087415,
        85834189
    ],
    "wof:breaches":[],
    "wof:concordances":{
        "sg:id":"SG_5LEMiUsY4cd1NofT5itLZW_40.142780_-74.726723@1306269974"
    },
    "wof:country":"NL",
    "wof:geomhash":"348ff288b48b9cc0ec67e00acbfa2a2a",
    "wof:hierarchy":[
        {
            "continent_id":-1,
            "country_id":85633793,
            "county_id":102087415,
            "locality_id":85975539,
            "neighbourhood_id":85834189,
            "region_id":85688607,
            "venue_id":286870965
        }
    ],
    "wof:id":286870965,
    "wof:lastmodified":1449015952,
    "wof:name":"Bloemenkiosk Reanca",
    "wof:parent_id":85834189,
    "wof:placetype":"venue",
    "wof:superseded_by":[],
    "wof:supersedes":[],
    "wof:tags":[]
},
  "bbox": [-74.726723,40.14278,-74.726723,40.14278],
  "geometry": {"coordinates":[-74.726723,40.14278],"type":"Point"}
}