{
  "id": 320391887,
  "type": "Feature",
  "properties": {
    "edtf:cessation":"u",
    "edtf:inception":"u",
    "geom:area":0.0,
    "geom:bbox":"4.942499,51.659737,4.942499,51.659737",
    "geom:latitude":51.659737,
    "geom:longitude":4.942499,
    "iso:country":"NL",
    "sg:address":"Bieselaar 33",
    "sg:city":"'S Gravenmoer",
    "sg:classifiers":[],
    "sg:orig_category":"Goederenvervoer Over De Weg",
    "sg:owner":"simplegeo",
    "sg:phone":"+31 162 314 494",
    "sg:postcode":"5109 BA",
    "sg:province":"Noord-Brabant",
    "src:geom":"simplegeo",
    "wof:belongsto":[
        85633337,
        101839415,
        85687035
    ],
    "wof:breaches":[],
    "wof:concordances":{
        "sg:id":"SG_6HHieXqfxsNmIgXT5awzS3_51.659737_4.942499@1306269998"
    },
    "wof:country":"NL",
    "wof:geomhash":"0852c6d1b1904e3ada08db415370edad",
    "wof:hierarchy":[
        {
            "continent_id":-1,
            "country_id":85633337,
            "locality_id":101839415,
            "neighbourhood_id":-1,
            "region_id":85687035,
            "venue_id":320391887
        }
    ],
    "wof:id":320391887,
    "wof:lastmodified":1449013651,
    "wof:name":"Transportbedrijf C. Faro",
    "wof:parent_id":-1,
    "wof:placetype":"venue",
    "wof:superseded_by":[],
    "wof:supersedes":[],
    "wof:tags":[]
},
  "bbox": [4.942499,51.659737,4.942499,51.659737],
  "geometry": {"coordinates":[4.942499,51.659737],"type":"Point"}
}