{
  "id": 303393071,
  "type": "Feature",
  "properties": {
    "edtf:cessation":"u",
    "edtf:inception":"u",
    "geom:area":0.0,
    "geom:bbox":"5.981229,51.703922,5.981229,51.703922",
    "geom:latitude":51.703922,
    "geom:longitude":5.981229,
    "iso:country":"NL",
    "sg:address":"Brink 20",
    "sg:city":"Ottersum",
    "sg:classifiers":[],
    "sg:orig_category":"Scholen Voor Basisonderwijs",
    "sg:owner":"simplegeo",
    "sg:phone":"+31 485 540 932",
    "sg:postcode":"6595 AN",
    "sg:province":"Limburg",
    "src:geom":"simplegeo",
    "wof:belongsto":[
        85633337,
        101839283,
        85687033
    ],
    "wof:breaches":[],
    "wof:concordances":{
        "sg:id":"SG_1y0XswwREtpidtNo5fgVYL_51.703922_5.981229@1306269983"
    },
    "wof:country":"NL",
    "wof:geomhash":"ab60495bda52717f8aa03ab065823d97",
    "wof:hierarchy":[
        {
            "continent_id":-1,
            "country_id":85633337,
            "locality_id":101839283,
            "neighbourhood_id":-1,
            "region_id":85687033,
            "venue_id":303393071
        }
    ],
    "wof:id":303393071,
    "wof:lastmodified":1448998884,
    "wof:name":"Brink, De",
    "wof:parent_id":-1,
    "wof:placetype":"venue",
    "wof:superseded_by":[],
    "wof:supersedes":[],
    "wof:tags":[]
},
  "bbox": [5.981229,51.703922,5.981229,51.703922],
  "geometry": {"coordinates":[5.981229,51.703922],"type":"Point"}
}