{
  "id": 253328429,
  "type": "Feature",
  "properties": {
    "edtf:cessation":"u",
    "edtf:inception":"u",
    "geom:area":0.0,
    "geom:bbox":"5.083899,51.567741,5.083899,51.567741",
    "geom:latitude":51.567741,
    "geom:longitude":5.083899,
    "iso:country":"NL",
    "sg:address":"Veldhovenring 71-73",
    "sg:city":"Tilburg",
    "sg:classifiers":[],
    "sg:orig_category":"Meubelzaken, Woning- And Keukeninrichting",
    "sg:owner":"simplegeo",
    "sg:phone":"+31 13 542 7866",
    "sg:postcode":"5041 BB",
    "sg:province":"Noord-Brabant",
    "src:geom":"simplegeo",
    "wof:belongsto":[
        85797669,
        85633337,
        101751817,
        85687035
    ],
    "wof:breaches":[],
    "wof:concordances":{
        "sg:id":"SG_2YDK7haofWXWvFluAteIKa_51.567741_5.083899@1306269948"
    },
    "wof:country":"NL",
    "wof:geomhash":"616b3137b3b360c63143c1921cb1b543",
    "wof:hierarchy":[
        {
            "continent_id":-1,
            "country_id":85633337,
            "locality_id":101751817,
            "neighbourhood_id":85797669,
            "region_id":85687035,
            "venue_id":253328429
        }
    ],
    "wof:id":253328429,
    "wof:lastmodified":1449064553,
    "wof:name":"Garden Life Style",
    "wof:parent_id":85797669,
    "wof:placetype":"venue",
    "wof:superseded_by":[],
    "wof:supersedes":[],
    "wof:tags":[]
},
  "bbox": [5.083899,51.567741,5.083899,51.567741],
  "geometry": {"coordinates":[5.083899,51.567741],"type":"Point"}
}