{
  "id": 320850667,
  "type": "Feature",
  "properties": {
    "edtf:cessation":"u",
    "edtf:inception":"u",
    "geom:area":0.0,
    "geom:bbox":"5.85875,51.841629,5.85875,51.841629",
    "geom:latitude":51.841629,
    "geom:longitude":5.85875,
    "iso:country":"NL",
    "sg:address":"Postbus 1117",
    "sg:city":"Nijmegen",
    "sg:classifiers":[],
    "sg:orig_category":"Juridische Dienstverlening",
    "sg:owner":"simplegeo",
    "sg:phone":"+31 24 324 1804",
    "sg:postcode":"6501 BC",
    "sg:province":"Gelderland",
    "src:geom":"simplegeo",
    "wof:belongsto":[
        85797179,
        85633337,
        101751859,
        85687043
    ],
    "wof:breaches":[],
    "wof:concordances":{
        "sg:id":"SG_1pBkEAWvEwTqCcFX3ayGqP_51.841629_5.858750@1306270003"
    },
    "wof:country":"NL",
    "wof:geomhash":"11c5320ec122561b9dc197bf65821dde",
    "wof:hierarchy":[
        {
            "continent_id":-1,
            "country_id":85633337,
            "locality_id":101751859,
            "neighbourhood_id":85797179,
            "region_id":85687043,
            "venue_id":320850667
        }
    ],
    "wof:id":320850667,
    "wof:lastmodified":1449013424,
    "wof:name":"Juridisch Adviesbureau Madejo",
    "wof:parent_id":85797179,
    "wof:placetype":"venue",
    "wof:superseded_by":[],
    "wof:supersedes":[],
    "wof:tags":[]
},
  "bbox": [5.85875,51.841629,5.85875,51.841629],
  "geometry": {"coordinates":[5.85875,51.841629],"type":"Point"}
}