{
  "id": 203268395,
  "type": "Feature",
  "properties": {
    "edtf:cessation":"u",
    "edtf:inception":"u",
    "geom:area":0.0,
    "geom:bbox":"5.137574,51.486626,5.137574,51.486626",
    "geom:latitude":51.486626,
    "geom:longitude":5.137574,
    "iso:country":"NL",
    "sg:address":"Doelenstraat 3B",
    "sg:city":"Hilvarenbeek",
    "sg:classifiers":[],
    "sg:orig_category":"Visspeciaalzaken",
    "sg:owner":"simplegeo",
    "sg:phone":"+31 13 505 1309",
    "sg:postcode":"5081 CJ",
    "sg:province":"Noord-Brabant",
    "src:geom":"simplegeo",
    "wof:belongsto":[
        85633337,
        101809705,
        85687035
    ],
    "wof:breaches":[],
    "wof:concordances":{
        "sg:id":"SG_1HwAHkUWbpJFdJJVojXvF2_51.486626_5.137574@1306269922"
    },
    "wof:country":"NL",
    "wof:geomhash":"ce9145e13923b4f0ad7042bb3765306a",
    "wof:hierarchy":[
        {
            "continent_id":-1,
            "country_id":85633337,
            "locality_id":101809705,
            "neighbourhood_id":-1,
            "region_id":85687035,
            "venue_id":203268395
        }
    ],
    "wof:id":203268395,
    "wof:lastmodified":1449026031,
    "wof:name":"Vishandel Kolsteren-Vischer",
    "wof:parent_id":-1,
    "wof:placetype":"venue",
    "wof:superseded_by":[],
    "wof:supersedes":[],
    "wof:tags":[]
},
  "bbox": [5.137574,51.486626,5.137574,51.486626],
  "geometry": {"coordinates":[5.137574,51.486626],"type":"Point"}
}