{
  "id": 320277131,
  "type": "Feature",
  "properties": {
    "edtf:cessation":"u",
    "edtf:inception":"u",
    "geom:area":0.0,
    "geom:bbox":"5.000809,51.582394,5.000809,51.582394",
    "geom:latitude":51.582394,
    "geom:longitude":5.000809,
    "iso:country":"NL",
    "sg:address":"Hattemplein 20",
    "sg:city":"Tilburg",
    "sg:classifiers":[],
    "sg:orig_category":"Glaszetten",
    "sg:owner":"simplegeo",
    "sg:phone":"+31 13 455 1484",
    "sg:postcode":"5045 AJ",
    "sg:province":"Noord-Brabant",
    "src:geom":"simplegeo",
    "wof:belongsto":[
        85797847,
        85633337,
        101751817,
        85687035
    ],
    "wof:breaches":[],
    "wof:concordances":{
        "sg:id":"SG_5jJ7k0Pjt58s5Nh0U0XCfH_51.582394_5.000809@1306269997"
    },
    "wof:country":"NL",
    "wof:geomhash":"794d959b04f0127ba201886caa645860",
    "wof:hierarchy":[
        {
            "continent_id":-1,
            "country_id":85633337,
            "locality_id":101751817,
            "neighbourhood_id":85797847,
            "region_id":85687035,
            "venue_id":320277131
        }
    ],
    "wof:id":320277131,
    "wof:lastmodified":1449011667,
    "wof:name":"Schildersbedrijf Hagen Van Berkel",
    "wof:parent_id":85797847,
    "wof:placetype":"venue",
    "wof:superseded_by":[],
    "wof:supersedes":[],
    "wof:tags":[]
},
  "bbox": [5.000809,51.582394,5.000809,51.582394],
  "geometry": {"coordinates":[5.000809,51.582394],"type":"Point"}
}