{
  "id": 320716729,
  "type": "Feature",
  "properties": {
    "edtf:cessation":"u",
    "edtf:inception":"u",
    "geom:area":0.0,
    "geom:bbox":"4.606235,51.872372,4.606235,51.872372",
    "geom:latitude":51.872372,
    "geom:longitude":4.606235,
    "iso:country":"NL",
    "sg:address":"Nyverheidstr 14",
    "sg:city":"Ridderkerk",
    "sg:classifiers":[],
    "sg:orig_category":"Zonweringen",
    "sg:owner":"simplegeo",
    "sg:phone":"+31 180 429 488",
    "sg:postcode":"2984 AH",
    "sg:province":"South Holland",
    "src:geom":"simplegeo",
    "wof:belongsto":[
        85797147,
        85633337,
        101754749,
        85687041
    ],
    "wof:breaches":[],
    "wof:concordances":{
        "sg:id":"SG_6p1QMmsadVrzNR5EySKn5m_51.872372_4.606235@1306270001"
    },
    "wof:country":"NL",
    "wof:geomhash":"4f4caffc6953e722369f6579dbdb5ed4",
    "wof:hierarchy":[
        {
            "continent_id":-1,
            "country_id":85633337,
            "locality_id":101754749,
            "neighbourhood_id":85797147,
            "region_id":85687041,
            "venue_id":320716729
        }
    ],
    "wof:id":320716729,
    "wof:lastmodified":1449011783,
    "wof:name":"Flamingos",
    "wof:parent_id":85797147,
    "wof:placetype":"venue",
    "wof:superseded_by":[],
    "wof:supersedes":[],
    "wof:tags":[]
},
  "bbox": [4.606235,51.872372,4.606235,51.872372],
  "geometry": {"coordinates":[4.606235,51.872372],"type":"Point"}
}