{
  "id": 320594033,
  "type": "Feature",
  "properties": {
    "edtf:cessation":"u",
    "edtf:inception":"u",
    "geom:area":0.0,
    "geom:bbox":"5.00599,51.577965,5.00599,51.577965",
    "geom:latitude":51.577965,
    "geom:longitude":5.00599,
    "iso:country":"NL",
    "sg:address":"Heyhoefpromenade 81",
    "sg:city":"Tilburg",
    "sg:classifiers":[
        {
            "category":"Food & Beverages",
            "subcategory":"Fruits & Vegetables",
            "type":"Retail Goods"
        }
    ],
    "sg:owner":"simplegeo",
    "sg:phone":"+31 13 572 0075",
    "sg:postcode":"5043 RB",
    "sg:province":"Noord-Brabant",
    "sg:tags":[
        "en",
        "groenten"
    ],
    "src:geom":"simplegeo",
    "wof:belongsto":[
        85797847,
        85633337,
        101751817,
        85687035
    ],
    "wof:breaches":[],
    "wof:concordances":{
        "sg:id":"SG_6N4JDA7Ao4tDUwZVTFhgT7_51.577965_5.005990@1306270000"
    },
    "wof:country":"NL",
    "wof:geomhash":"477c2160e1c72ba23e8e050d84a983fc",
    "wof:hierarchy":[
        {
            "continent_id":-1,
            "country_id":85633337,
            "locality_id":101751817,
            "neighbourhood_id":85797847,
            "region_id":85687035,
            "venue_id":320594033
        }
    ],
    "wof:id":320594033,
    "wof:lastmodified":1449011792,
    "wof:name":"Ton En Ren? Timmermans",
    "wof:parent_id":85797847,
    "wof:placetype":"venue",
    "wof:superseded_by":[],
    "wof:supersedes":[],
    "wof:tags":[
        "en",
        "groenten"
    ]
},
  "bbox": [5.00599,51.577965,5.00599,51.577965],
  "geometry": {"coordinates":[5.00599,51.577965],"type":"Point"}
}