{
  "id": 253297311,
  "type": "Feature",
  "properties": {
    "edtf:cessation":"u",
    "edtf:inception":"u",
    "geom:area":0.0,
    "geom:bbox":"5.681002,50.855896,5.681002,50.855896",
    "geom:latitude":50.855896,
    "geom:longitude":5.681002,
    "iso:country":"NL",
    "sg:address":"Cabergerweg 10",
    "sg:city":"Maastricht",
    "sg:classifiers":[],
    "sg:orig_category":"Meubelzaken, Woning- And Keukeninrichting",
    "sg:owner":"simplegeo",
    "sg:phone":"+31 43 321 5585",
    "sg:postcode":"6217 SC",
    "sg:province":"Limburg",
    "src:geom":"simplegeo",
    "wof:belongsto":[
        85798317,
        85633337,
        101751803,
        85687033
    ],
    "wof:breaches":[],
    "wof:concordances":{
        "sg:id":"SG_083Yz7JomRl0NaMBJkfc9W_50.855896_5.681002@1306269948"
    },
    "wof:country":"NL",
    "wof:geomhash":"9ebd28f89f37795facf59491a085f921",
    "wof:hierarchy":[
        {
            "continent_id":-1,
            "country_id":85633337,
            "locality_id":101751803,
            "neighbourhood_id":85798317,
            "region_id":85687033,
            "venue_id":253297311
        }
    ],
    "wof:id":253297311,
    "wof:lastmodified":1449064707,
    "wof:name":"Meubelboulevard Rene Pans Bv",
    "wof:parent_id":85798317,
    "wof:placetype":"venue",
    "wof:superseded_by":[],
    "wof:supersedes":[],
    "wof:tags":[]
},
  "bbox": [5.681002,50.855896,5.681002,50.855896],
  "geometry": {"coordinates":[5.681002,50.855896],"type":"Point"}
}