{
  "id": 219549713,
  "type": "Feature",
  "properties": {
    "edtf:cessation":"u",
    "edtf:inception":"u",
    "geom:area":0.0,
    "geom:bbox":"5.025465,51.528446,5.025465,51.528446",
    "geom:latitude":51.528446,
    "geom:longitude":5.025465,
    "iso:country":"NL",
    "sg:address":"Tilburgsewg 15A",
    "sg:city":"Riel",
    "sg:classifiers":[],
    "sg:orig_category":"Administratie- En Boekhoudkantoren",
    "sg:owner":"simplegeo",
    "sg:phone":"+31 13 518 1487",
    "sg:postcode":"5133 BA",
    "sg:province":"Noord-Brabant",
    "src:geom":"simplegeo",
    "wof:belongsto":[
        85797287,
        85633337,
        85687035
    ],
    "wof:breaches":[],
    "wof:concordances":{
        "sg:id":"SG_1gE6zZNYtMzRQousH71o41_51.528446_5.025465@1306269927"
    },
    "wof:country":"NL",
    "wof:geomhash":"bb7ef5259c5444fe7cecd585d7d8af28",
    "wof:hierarchy":[
        {
            "continent_id":-1,
            "country_id":85633337,
            "locality_id":-1,
            "neighbourhood_id":85797287,
            "region_id":85687035,
            "venue_id":219549713
        }
    ],
    "wof:id":219549713,
    "wof:lastmodified":1449071375,
    "wof:name":"Additie",
    "wof:parent_id":85797287,
    "wof:placetype":"venue",
    "wof:superseded_by":[],
    "wof:supersedes":[],
    "wof:tags":[]
},
  "bbox": [5.025465,51.528446,5.025465,51.528446],
  "geometry": {"coordinates":[5.025465,51.528446],"type":"Point"}
}