{
  "id": 220079037,
  "type": "Feature",
  "properties": {
    "edtf:cessation":"u",
    "edtf:inception":"u",
    "geom:area":0.0,
    "geom:bbox":"5.946034,51.997005,5.946034,51.997005",
    "geom:latitude":51.997005,
    "geom:longitude":5.946034,
    "iso:country":"NL",
    "sg:address":"Brederostr 15",
    "sg:city":"Arnhem",
    "sg:classifiers":[],
    "sg:orig_category":"Adviesbureaus Personeel",
    "sg:owner":"simplegeo",
    "sg:phone":"+31 26 364 2241",
    "sg:postcode":"6824 PA",
    "sg:province":"Gelderland",
    "src:geom":"simplegeo",
    "wof:belongsto":[
        85797571,
        85633337,
        85687043
    ],
    "wof:breaches":[],
    "wof:concordances":{
        "sg:id":"SG_28wkprZbVrtP2cgbpus41x_51.997005_5.946034@1306269931"
    },
    "wof:country":"NL",
    "wof:geomhash":"c16b42dea19147cf72c9d0177d49f2d7",
    "wof:hierarchy":[
        {
            "continent_id":-1,
            "country_id":85633337,
            "locality_id":-1,
            "neighbourhood_id":85797571,
            "region_id":85687043,
            "venue_id":220079037
        }
    ],
    "wof:id":220079037,
    "wof:lastmodified":1449074731,
    "wof:name":"Evers",
    "wof:parent_id":85797571,
    "wof:placetype":"venue",
    "wof:superseded_by":[],
    "wof:supersedes":[],
    "wof:tags":[]
},
  "bbox": [5.946034,51.997005,5.946034,51.997005],
  "geometry": {"coordinates":[5.946034,51.997005],"type":"Point"}
}