{
  "id": 203044681,
  "type": "Feature",
  "properties": {
    "edtf:cessation":"u",
    "edtf:inception":"u",
    "geom:area":0.0,
    "geom:bbox":"5.484388,52.519279,5.484388,52.519279",
    "geom:latitude":52.519279,
    "geom:longitude":5.484388,
    "iso:country":"NL",
    "sg:address":"Snydersstr 130",
    "sg:city":"Lelystad",
    "sg:classifiers":[],
    "sg:orig_category":"Verzekeringen - Verzekeringskantoren",
    "sg:owner":"simplegeo",
    "sg:phone":"+31 320 224 495",
    "sg:postcode":"8224 AA",
    "sg:province":"Flevoland",
    "src:geom":"simplegeo",
    "wof:belongsto":[
        85859951,
        85633337,
        101751873,
        85687049
    ],
    "wof:breaches":[],
    "wof:concordances":{
        "sg:id":"SG_5MStLJLXxc6TvdPplN3Lzb_52.519279_5.484388@1306269920"
    },
    "wof:country":"NL",
    "wof:geomhash":"dda9f6bb80cd30df3f2f73721bcd76c3",
    "wof:hierarchy":[
        {
            "continent_id":-1,
            "country_id":85633337,
            "locality_id":101751873,
            "neighbourhood_id":85859951,
            "region_id":85687049,
            "venue_id":203044681
        }
    ],
    "wof:id":203044681,
    "wof:lastmodified":1449025923,
    "wof:name":"Vos, De",
    "wof:parent_id":85859951,
    "wof:placetype":"venue",
    "wof:superseded_by":[],
    "wof:supersedes":[],
    "wof:tags":[]
},
  "bbox": [5.484388,52.519279,5.484388,52.519279],
  "geometry": {"coordinates":[5.484388,52.519279],"type":"Point"}
}