{
  "id": 219673091,
  "type": "Feature",
  "properties": {
    "edtf:cessation":"u",
    "edtf:inception":"u",
    "geom:area":0.0,
    "geom:bbox":"4.344893,52.015766,4.344893,52.015766",
    "geom:latitude":52.015766,
    "geom:longitude":4.344893,
    "iso:country":"NL",
    "sg:address":"Wallerstr 16A",
    "sg:city":"Delft",
    "sg:classifiers":[],
    "sg:orig_category":"Administratie- En Boekhoudkantoren",
    "sg:owner":"simplegeo",
    "sg:phone":"+31 15 214 1315",
    "sg:postcode":"2613 ZS",
    "sg:province":"Zuid-Holland",
    "src:geom":"simplegeo",
    "wof:belongsto":[
        85798599,
        85633337,
        101752765,
        85687041
    ],
    "wof:breaches":[],
    "wof:concordances":{
        "sg:id":"SG_4ij0NueUlonOQXxYHg9uJk_52.015766_4.344893@1306269928"
    },
    "wof:country":"NL",
    "wof:geomhash":"5b48a84ac827cf003585f7b6e44a76e3",
    "wof:hierarchy":[
        {
            "continent_id":-1,
            "country_id":85633337,
            "locality_id":101752765,
            "neighbourhood_id":85798599,
            "region_id":85687041,
            "venue_id":219673091
        }
    ],
    "wof:id":219673091,
    "wof:lastmodified":1449071752,
    "wof:name":"Labore Delft Bv",
    "wof:parent_id":85798599,
    "wof:placetype":"venue",
    "wof:superseded_by":[],
    "wof:supersedes":[],
    "wof:tags":[]
},
  "bbox": [4.344893,52.015766,4.344893,52.015766],
  "geometry": {"coordinates":[4.344893,52.015766],"type":"Point"}
}