{
  "id": 270337649,
  "type": "Feature",
  "properties": {
    "edtf:cessation":"u",
    "edtf:inception":"u",
    "geom:area":0.0,
    "geom:bbox":"4.708332,51.944839,4.708332,51.944839",
    "geom:latitude":51.944839,
    "geom:longitude":4.708332,
    "iso:country":"NL",
    "sg:address":"Kon Julianastr 14",
    "sg:city":"Berkenwoude",
    "sg:classifiers":[],
    "sg:orig_category":"Ballonvaarten En -Reclame",
    "sg:owner":"simplegeo",
    "sg:phone":"+31 182 362 378",
    "sg:postcode":"2825 BK",
    "sg:province":"South Holland",
    "sg:website":"http://www.dbi-reklame.nl",
    "src:geom":"simplegeo",
    "wof:belongsto":[
        85633337,
        101837687,
        85687041
    ],
    "wof:breaches":[],
    "wof:concordances":{
        "sg:id":"SG_299uD57BZhfHBb6Gaucrs6_51.944839_4.708332@1306269964"
    },
    "wof:country":"NL",
    "wof:geomhash":"f20345640e6b94ecd4cb8c7691867585",
    "wof:hierarchy":[
        {
            "continent_id":-1,
            "country_id":85633337,
            "locality_id":101837687,
            "neighbourhood_id":-1,
            "region_id":85687041,
            "venue_id":270337649
        }
    ],
    "wof:id":270337649,
    "wof:lastmodified":1449009790,
    "wof:name":"Dutch Blimp Innovations",
    "wof:parent_id":-1,
    "wof:placetype":"venue",
    "wof:superseded_by":[],
    "wof:supersedes":[],
    "wof:tags":[]
},
  "bbox": [4.708332,51.944839,4.708332,51.944839],
  "geometry": {"coordinates":[4.708332,51.944839],"type":"Point"}
}