{
  "id": 320333419,
  "type": "Feature",
  "properties": {
    "edtf:cessation":"u",
    "edtf:inception":"u",
    "geom:area":0.0,
    "geom:bbox":"4.217972,51.99189,4.217972,51.99189",
    "geom:latitude":51.99189,
    "geom:longitude":4.217972,
    "iso:country":"NL",
    "sg:address":"Dreeslaan 4",
    "sg:city":"Naaldwijk",
    "sg:classifiers":[],
    "sg:orig_category":"Goederenvervoer Over De Weg",
    "sg:owner":"simplegeo",
    "sg:phone":"+31 174 648 210",
    "sg:postcode":"2672 DN",
    "sg:province":"South Holland",
    "src:geom":"simplegeo",
    "wof:belongsto":[
        85859575,
        85633337,
        85687041
    ],
    "wof:breaches":[],
    "wof:concordances":{
        "sg:id":"SG_40xCjKe8a24Ps1p4nsY5ZK_51.991890_4.217972@1306269997"
    },
    "wof:country":"NL",
    "wof:geomhash":"98001b63252fec6db6b44e5c94bb29c6",
    "wof:hierarchy":[
        {
            "continent_id":-1,
            "country_id":85633337,
            "locality_id":-1,
            "neighbourhood_id":85859575,
            "region_id":85687041,
            "venue_id":320333419
        }
    ],
    "wof:id":320333419,
    "wof:lastmodified":1449014703,
    "wof:name":"G. V.D. Linden",
    "wof:parent_id":85859575,
    "wof:placetype":"venue",
    "wof:superseded_by":[],
    "wof:supersedes":[],
    "wof:tags":[]
},
  "bbox": [4.217972,51.99189,4.217972,51.99189],
  "geometry": {"coordinates":[4.217972,51.99189],"type":"Point"}
}