{
  "id": 236680311,
  "type": "Feature",
  "properties": {
    "edtf:cessation":"u",
    "edtf:inception":"u",
    "geom:area":0.0,
    "geom:bbox":"6.456861,53.067726,6.456861,53.067726",
    "geom:latitude":53.067726,
    "geom:longitude":6.456861,
    "iso:country":"NL",
    "sg:address":"Westeind 26",
    "sg:city":"Norg",
    "sg:classifiers":[],
    "sg:orig_category":"Autokeuringen",
    "sg:owner":"simplegeo",
    "sg:phone":"+31 592 614 000",
    "sg:postcode":"9331 CB",
    "sg:province":"Provincie Drenthe",
    "src:geom":"simplegeo",
    "wof:belongsto":[
        85633337,
        101806049,
        85687051
    ],
    "wof:breaches":[],
    "wof:concordances":{
        "sg:id":"SG_5nqVQ4LtgDyqFJ4McxCnY9_53.067726_6.456861@1306269940"
    },
    "wof:country":"NL",
    "wof:geomhash":"36e260f2315a6ce9b41879343a46766e",
    "wof:hierarchy":[
        {
            "continent_id":-1,
            "country_id":85633337,
            "locality_id":101806049,
            "neighbourhood_id":-1,
            "region_id":85687051,
            "venue_id":236680311
        }
    ],
    "wof:id":236680311,
    "wof:lastmodified":1449004063,
    "wof:name":"Dorenbos Bv",
    "wof:parent_id":-1,
    "wof:placetype":"venue",
    "wof:superseded_by":[],
    "wof:supersedes":[],
    "wof:tags":[]
},
  "bbox": [6.456861,53.067726,6.456861,53.067726],
  "geometry": {"coordinates":[6.456861,53.067726],"type":"Point"}
}