{
  "id": 252973843,
  "type": "Feature",
  "properties": {
    "edtf:cessation":"u",
    "edtf:inception":"u",
    "geom:area":0.0,
    "geom:bbox":"4.948929,51.533516,4.948929,51.533516",
    "geom:latitude":51.533516,
    "geom:longitude":4.948929,
    "iso:country":"NL",
    "sg:address":"Weilenseind 18",
    "sg:city":"Gilze",
    "sg:classifiers":[],
    "sg:orig_category":"Metaalbewerking",
    "sg:owner":"simplegeo",
    "sg:phone":"+31 161 455 596",
    "sg:postcode":"5126 PM",
    "sg:province":"North Brabant",
    "src:geom":"simplegeo",
    "wof:belongsto":[
        85633337,
        85687035
    ],
    "wof:breaches":[],
    "wof:concordances":{
        "sg:id":"SG_2r4kcYZwQjzww9ar38HZuZ_51.533516_4.948929@1306269945"
    },
    "wof:country":"NL",
    "wof:geomhash":"6081d9fc7f4b0876c1ed9ad80e1c70d4",
    "wof:hierarchy":[
        {
            "continent_id":-1,
            "country_id":85633337,
            "locality_id":-1,
            "neighbourhood_id":-1,
            "region_id":85687035,
            "venue_id":252973843
        }
    ],
    "wof:id":252973843,
    "wof:lastmodified":1449006080,
    "wof:name":"Appels",
    "wof:parent_id":-1,
    "wof:placetype":"venue",
    "wof:superseded_by":[],
    "wof:supersedes":[],
    "wof:tags":[]
},
  "bbox": [4.948929,51.533516,4.948929,51.533516],
  "geometry": {"coordinates":[4.948929,51.533516],"type":"Point"}
}