{
  "id": 320147777,
  "type": "Feature",
  "properties": {
    "edtf:cessation":"u",
    "edtf:inception":"u",
    "geom:area":0.0,
    "geom:bbox":"6.63624,52.571308,6.63624,52.571308",
    "geom:latitude":52.571308,
    "geom:longitude":6.63624,
    "iso:country":"NL",
    "sg:address":"Vlasakkerkamp 19",
    "sg:city":"Hardenberg",
    "sg:classifiers":[],
    "sg:orig_category":"Gehandicapteninformatie",
    "sg:owner":"simplegeo",
    "sg:phone":"+31 523 287 100",
    "sg:postcode":"7772 MK",
    "sg:province":"Overijssel",
    "sg:website":"http://www.nieuwbaalderborg.nl",
    "src:geom":"simplegeo",
    "wof:belongsto":[
        85797673,
        85633337,
        101807179,
        85687045
    ],
    "wof:breaches":[],
    "wof:concordances":{
        "sg:id":"SG_4RY1YMauJJ6wynpyBmjdFh_52.571308_6.636240@1306269995"
    },
    "wof:country":"NL",
    "wof:geomhash":"54beaff840c53cb4694fee55642da133",
    "wof:hierarchy":[
        {
            "continent_id":-1,
            "country_id":85633337,
            "locality_id":101807179,
            "neighbourhood_id":85797673,
            "region_id":85687045,
            "venue_id":320147777
        }
    ],
    "wof:id":320147777,
    "wof:lastmodified":1449014556,
    "wof:name":"Nieuw Baalderborg",
    "wof:parent_id":85797673,
    "wof:placetype":"venue",
    "wof:superseded_by":[],
    "wof:supersedes":[],
    "wof:tags":[]
},
  "bbox": [6.63624,52.571308,6.63624,52.571308],
  "geometry": {"coordinates":[6.63624,52.571308],"type":"Point"}
}