{
  "id": 185955735,
  "type": "Feature",
  "properties": {
    "edtf:cessation":"u",
    "edtf:inception":"u",
    "geom:area":0.0,
    "geom:bbox":"4.393017,51.856911,4.393017,51.856911",
    "geom:latitude":51.856911,
    "geom:longitude":4.393017,
    "iso:country":"NL",
    "sg:address":"Emmastr 44",
    "sg:city":"Poortugaal",
    "sg:classifiers":[],
    "sg:orig_category":"Kinderopvang",
    "sg:owner":"simplegeo",
    "sg:phone":"+31 10 501 0444",
    "sg:postcode":"3171 AH",
    "sg:province":"Zuid-Holland",
    "src:geom":"simplegeo",
    "wof:belongsto":[
        85798213,
        85633337,
        101754659,
        85687041
    ],
    "wof:breaches":[],
    "wof:concordances":{
        "sg:id":"SG_1vR061mOuNoVpwpHpl61Ix_51.856911_4.393017@1306269908"
    },
    "wof:country":"NL",
    "wof:geomhash":"757cd8a44d90007a502ec4ab25d2d79b",
    "wof:hierarchy":[
        {
            "continent_id":-1,
            "country_id":85633337,
            "locality_id":101754659,
            "neighbourhood_id":85798213,
            "region_id":85687041,
            "venue_id":185955735
        }
    ],
    "wof:id":185955735,
    "wof:lastmodified":1449007707,
    "wof:name":"Bon Bon, Sticht",
    "wof:parent_id":85798213,
    "wof:placetype":"venue",
    "wof:superseded_by":[],
    "wof:supersedes":[],
    "wof:tags":[]
},
  "bbox": [4.393017,51.856911,4.393017,51.856911],
  "geometry": {"coordinates":[4.393017,51.856911],"type":"Point"}
}