{
  "id": 303691183,
  "type": "Feature",
  "properties": {
    "edtf:cessation":"u",
    "edtf:inception":"u",
    "geom:area":0.0,
    "geom:bbox":"6.373458,53.154942,6.373458,53.154942",
    "geom:latitude":53.154942,
    "geom:longitude":6.373458,
    "iso:country":"NL",
    "sg:address":"Wolveschansdreef 25",
    "sg:city":"Leek",
    "sg:classifiers":[],
    "sg:orig_category":"Diverse Grafische Activiteiten",
    "sg:owner":"simplegeo",
    "sg:phone":"+31 594 518 678",
    "sg:postcode":"9351 SE",
    "sg:province":"Groningen",
    "src:geom":"simplegeo",
    "wof:belongsto":[
        85633337,
        101837999,
        85687059
    ],
    "wof:breaches":[],
    "wof:concordances":{
        "sg:id":"SG_1YOgjascBFoFQ7FtNsSpgI_53.154942_6.373458@1306269986"
    },
    "wof:country":"NL",
    "wof:geomhash":"35ded87ce2e7b7bab98684b0ed21768d",
    "wof:hierarchy":[
        {
            "continent_id":-1,
            "country_id":85633337,
            "locality_id":101837999,
            "neighbourhood_id":-1,
            "region_id":85687059,
            "venue_id":303691183
        }
    ],
    "wof:id":303691183,
    "wof:lastmodified":1448998320,
    "wof:name":"Franken Vormgeving B N O",
    "wof:parent_id":-1,
    "wof:placetype":"venue",
    "wof:superseded_by":[],
    "wof:supersedes":[],
    "wof:tags":[]
},
  "bbox": [6.373458,53.154942,6.373458,53.154942],
  "geometry": {"coordinates":[6.373458,53.154942],"type":"Point"}
}