{
  "id": 286319829,
  "type": "Feature",
  "properties": {
    "edtf:cessation":"u",
    "edtf:inception":"u",
    "geom:area":0.0,
    "geom:bbox":"5.717566,51.210873,5.717566,51.210873",
    "geom:latitude":51.210873,
    "geom:longitude":5.717566,
    "iso:country":"NL",
    "sg:address":"Tuurkesweg 5",
    "sg:city":"Weert",
    "sg:classifiers":[],
    "sg:orig_category":"Beautyfarms And Sauna'S",
    "sg:owner":"simplegeo",
    "sg:phone":"+31 495 566 088",
    "sg:postcode":"6006 SG",
    "sg:province":"Limburg",
    "src:geom":"simplegeo",
    "wof:belongsto":[
        85633337,
        101809523,
        85687033
    ],
    "wof:breaches":[],
    "wof:concordances":{
        "sg:id":"SG_1E0yzb6IPyjd1cKIO9Jq8y_51.210873_5.717566@1306269967"
    },
    "wof:country":"NL",
    "wof:geomhash":"516a297df07d43d931ec9e1e02fdaab3",
    "wof:hierarchy":[
        {
            "continent_id":-1,
            "country_id":85633337,
            "locality_id":101809523,
            "neighbourhood_id":-1,
            "region_id":85687033,
            "venue_id":286319829
        }
    ],
    "wof:id":286319829,
    "wof:lastmodified":1449016381,
    "wof:name":"L'Institut Nouveau Cosmetique",
    "wof:parent_id":-1,
    "wof:placetype":"venue",
    "wof:superseded_by":[],
    "wof:supersedes":[],
    "wof:tags":[]
},
  "bbox": [5.717566,51.210873,5.717566,51.210873],
  "geometry": {"coordinates":[5.717566,51.210873],"type":"Point"}
}