{
  "id": 219898273,
  "type": "Feature",
  "properties": {
    "edtf:cessation":"u",
    "edtf:inception":"u",
    "geom:area":0.0,
    "geom:bbox":"6.066658,52.441032,6.066658,52.441032",
    "geom:latitude":52.441032,
    "geom:longitude":6.066658,
    "iso:country":"NL",
    "sg:address":"Moswg 1",
    "sg:city":"Wapenveld",
    "sg:classifiers":[],
    "sg:orig_category":"Adviesbureaus Bedrijfsorganisatie",
    "sg:owner":"simplegeo",
    "sg:phone":"+31 38 447 0169",
    "sg:postcode":"8191 JN",
    "sg:province":"Gelderland",
    "src:geom":"simplegeo",
    "wof:belongsto":[
        85633337,
        85687043
    ],
    "wof:breaches":[],
    "wof:concordances":{
        "sg:id":"SG_1YQ4f3I3jWdMqIIHgCCWuo_52.441032_6.066658@1306269930"
    },
    "wof:country":"NL",
    "wof:geomhash":"f89f910c8f65157a18ee3e85446a0374",
    "wof:hierarchy":[
        {
            "continent_id":-1,
            "country_id":85633337,
            "locality_id":-1,
            "neighbourhood_id":-1,
            "region_id":85687043,
            "venue_id":219898273
        }
    ],
    "wof:id":219898273,
    "wof:lastmodified":1449070306,
    "wof:name":"Ortech Vof",
    "wof:parent_id":-1,
    "wof:placetype":"venue",
    "wof:superseded_by":[],
    "wof:supersedes":[],
    "wof:tags":[]
},
  "bbox": [6.066658,52.441032,6.066658,52.441032],
  "geometry": {"coordinates":[6.066658,52.441032],"type":"Point"}
}