{
  "id": 235983119,
  "type": "Feature",
  "properties": {
    "edtf:cessation":"u",
    "edtf:inception":"u",
    "geom:area":0.0,
    "geom:bbox":"6.661561,52.364056,6.661561,52.364056",
    "geom:latitude":52.364056,
    "geom:longitude":6.661561,
    "iso:country":"NL",
    "sg:address":"Vissedijk 1",
    "sg:city":"Almelo",
    "sg:classifiers":[],
    "sg:orig_category":"Alternatieve Geneeskunde",
    "sg:owner":"simplegeo",
    "sg:phone":"+31 546 865 215",
    "sg:postcode":"7602 CN",
    "sg:province":"Overijssel",
    "src:geom":"simplegeo",
    "wof:belongsto":[
        85797827,
        85633337,
        101751863,
        85687045
    ],
    "wof:breaches":[],
    "wof:concordances":{
        "sg:id":"SG_02EVBWW4sATgFnIhJ90Q3g_52.364056_6.661561@1306269933"
    },
    "wof:country":"NL",
    "wof:geomhash":"21eba3791b4db20c5e916e612b000152",
    "wof:hierarchy":[
        {
            "continent_id":-1,
            "country_id":85633337,
            "locality_id":101751863,
            "neighbourhood_id":85797827,
            "region_id":85687045,
            "venue_id":235983119
        }
    ],
    "wof:id":235983119,
    "wof:lastmodified":1449008591,
    "wof:name":"Groepspraktijk Voor Fysiotherapeuten M.J. Peeters",
    "wof:parent_id":85797827,
    "wof:placetype":"venue",
    "wof:superseded_by":[],
    "wof:supersedes":[],
    "wof:tags":[]
},
  "bbox": [6.661561,52.364056,6.661561,52.364056],
  "geometry": {"coordinates":[6.661561,52.364056],"type":"Point"}
}