{
  "id": 186111529,
  "type": "Feature",
  "properties": {
    "edtf:cessation":"u",
    "edtf:inception":"u",
    "geom:area":0.0,
    "geom:bbox":"5.291926,51.506554,5.291926,51.506554",
    "geom:latitude":51.506554,
    "geom:longitude":5.291926,
    "iso:country":"NL",
    "sg:address":"Boterwijksestraat 10",
    "sg:city":"Oirschot",
    "sg:classifiers":[],
    "sg:orig_category":"Kunst And Kunstenaarsbenodigdheden",
    "sg:owner":"simplegeo",
    "sg:phone":"+31 499 572 042",
    "sg:postcode":"5688 HX",
    "sg:province":"North Brabant",
    "src:geom":"simplegeo",
    "wof:belongsto":[
        85633337,
        85687035
    ],
    "wof:breaches":[],
    "wof:concordances":{
        "sg:id":"SG_01pM4eJGZyJhA8fOKa7iIM_51.506554_5.291926@1306269910"
    },
    "wof:country":"NL",
    "wof:geomhash":"527de2332db5cbeef8eb5823e930d31b",
    "wof:hierarchy":[
        {
            "continent_id":-1,
            "country_id":85633337,
            "locality_id":-1,
            "neighbourhood_id":-1,
            "region_id":85687035,
            "venue_id":186111529
        }
    ],
    "wof:id":186111529,
    "wof:lastmodified":1449053105,
    "wof:name":"Hans Van Eerd",
    "wof:parent_id":-1,
    "wof:placetype":"venue",
    "wof:superseded_by":[],
    "wof:supersedes":[],
    "wof:tags":[]
},
  "bbox": [5.291926,51.506554,5.291926,51.506554],
  "geometry": {"coordinates":[5.291926,51.506554],"type":"Point"}
}