{
  "id": 320114803,
  "type": "Feature",
  "properties": {
    "edtf:cessation":"u",
    "edtf:inception":"u",
    "geom:area":0.0,
    "geom:bbox":"5.119564,52.256432,5.119564,52.256432",
    "geom:latitude":52.256432,
    "geom:longitude":5.119564,
    "iso:country":"NL",
    "sg:address":"Cannenburgerwg 57E",
    "sg:city":"Ankeveen",
    "sg:classifiers":[
        {
            "category":"Retail",
            "subcategory":"Auto Repair",
            "type":"Services"
        }
    ],
    "sg:owner":"simplegeo",
    "sg:phone":"+31 35 656 1516",
    "sg:postcode":"1244 RH",
    "sg:province":"North Holland",
    "sg:tags":[
        "garage"
    ],
    "src:geom":"simplegeo",
    "wof:belongsto":[
        85798667,
        85633337,
        85687053
    ],
    "wof:breaches":[],
    "wof:concordances":{
        "sg:id":"SG_35oqCpJhOjIC1RLtGwOZZZ_52.256432_5.119564@1306269994"
    },
    "wof:country":"NL",
    "wof:geomhash":"1f78cf946824c9f53a8e0c04ba86d5e0",
    "wof:hierarchy":[
        {
            "continent_id":-1,
            "country_id":85633337,
            "locality_id":-1,
            "neighbourhood_id":85798667,
            "region_id":85687053,
            "venue_id":320114803
        }
    ],
    "wof:id":320114803,
    "wof:lastmodified":1449012822,
    "wof:name":"Veen, Garage Van Der",
    "wof:parent_id":85798667,
    "wof:placetype":"venue",
    "wof:superseded_by":[],
    "wof:supersedes":[],
    "wof:tags":[
        "garage"
    ]
},
  "bbox": [5.119564,52.256432,5.119564,52.256432],
  "geometry": {"coordinates":[5.119564,52.256432],"type":"Point"}
}