{
  "id": 220036567,
  "type": "Feature",
  "properties": {
    "edtf:cessation":"u",
    "edtf:inception":"u",
    "geom:area":0.0,
    "geom:bbox":"5.191324,51.576923,5.191324,51.576923",
    "geom:latitude":51.576923,
    "geom:longitude":5.191324,
    "iso:country":"NL",
    "sg:address":"Wildemanstr 2",
    "sg:city":"Oisterwyk",
    "sg:classifiers":[],
    "sg:orig_category":"Adviesbureaus Economie",
    "sg:owner":"simplegeo",
    "sg:phone":"+31 13 528 5989",
    "sg:postcode":"5062 HB",
    "sg:province":"Noord-Brabant",
    "src:geom":"simplegeo",
    "wof:belongsto":[
        85798195,
        85633337,
        101808311,
        85687035
    ],
    "wof:breaches":[],
    "wof:concordances":{
        "sg:id":"SG_1hIUxfOOP0US7d3IXtmMki_51.576923_5.191324@1306269931"
    },
    "wof:country":"NL",
    "wof:geomhash":"145c457825ce52213535b784e2cfcac1",
    "wof:hierarchy":[
        {
            "continent_id":-1,
            "country_id":85633337,
            "locality_id":101808311,
            "neighbourhood_id":85798195,
            "region_id":85687035,
            "venue_id":220036567
        }
    ],
    "wof:id":220036567,
    "wof:lastmodified":1449074216,
    "wof:name":"Venma Bv",
    "wof:parent_id":85798195,
    "wof:placetype":"venue",
    "wof:superseded_by":[],
    "wof:supersedes":[],
    "wof:tags":[]
},
  "bbox": [5.191324,51.576923,5.191324,51.576923],
  "geometry": {"coordinates":[5.191324,51.576923],"type":"Point"}
}