{
  "id": 270040393,
  "type": "Feature",
  "properties": {
    "edtf:cessation":"u",
    "edtf:inception":"u",
    "geom:area":0.0,
    "geom:bbox":"4.889049,52.356434,4.889049,52.356434",
    "geom:latitude":52.356434,
    "geom:longitude":4.889049,
    "iso:country":"NL",
    "sg:address":"Daniel Stalpertstraat 35",
    "sg:city":"Amsterdam",
    "sg:classifiers":[],
    "sg:orig_category":"Fitnesscentra",
    "sg:owner":"simplegeo",
    "sg:phone":"+31 20 662 6062",
    "sg:postcode":"1072 XA",
    "sg:province":"Noord-Holland",
    "src:geom":"simplegeo",
    "wof:belongsto":[
        85797363,
        85633337,
        101751893,
        85687053
    ],
    "wof:breaches":[],
    "wof:concordances":{
        "sg:id":"SG_4AvaA3jJzAAzIzOxNkHxFP_52.356434_4.889049@1306269961"
    },
    "wof:country":"NL",
    "wof:geomhash":"cfb20953bab4612d061621881205d959",
    "wof:hierarchy":[
        {
            "continent_id":-1,
            "country_id":85633337,
            "locality_id":101751893,
            "neighbourhood_id":85797363,
            "region_id":85687053,
            "venue_id":270040393
        }
    ],
    "wof:id":270040393,
    "wof:lastmodified":1449011064,
    "wof:name":"Cinline",
    "wof:parent_id":85797363,
    "wof:placetype":"venue",
    "wof:superseded_by":[],
    "wof:supersedes":[],
    "wof:tags":[]
},
  "bbox": [4.889049,52.356434,4.889049,52.356434],
  "geometry": {"coordinates":[4.889049,52.356434],"type":"Point"}
}