{
  "id": 236240943,
  "type": "Feature",
  "properties": {
    "edtf:cessation":"u",
    "edtf:inception":"u",
    "geom:area":0.0,
    "geom:bbox":"4.395514,52.044102,4.395514,52.044102",
    "geom:latitude":52.044102,
    "geom:longitude":4.395514,
    "iso:country":"NL",
    "sg:address":"Kon Wilhelminastr 2",
    "sg:city":"Nootdorp",
    "sg:classifiers":[
        {
            "category":"Education",
            "subcategory":"Special Training",
            "type":"Public Place"
        }
    ],
    "sg:owner":"simplegeo",
    "sg:phone":"+31 15 310 1047",
    "sg:postcode":"2631 CW",
    "sg:province":"Zuid-Holland",
    "sg:tags":[
        "expertise"
    ],
    "src:geom":"simplegeo",
    "wof:belongsto":[
        85798113,
        85633337,
        85687041
    ],
    "wof:breaches":[],
    "wof:concordances":{
        "sg:id":"SG_7DoW53qXXmCVDy0zdnpHFl_52.044102_4.395514@1306269936"
    },
    "wof:country":"NL",
    "wof:geomhash":"87c3d3d396773d9f38a1dbb3a6bbe0a7",
    "wof:hierarchy":[
        {
            "continent_id":-1,
            "country_id":85633337,
            "locality_id":-1,
            "neighbourhood_id":85798113,
            "region_id":85687041,
            "venue_id":236240943
        }
    ],
    "wof:id":236240943,
    "wof:lastmodified":1449001933,
    "wof:name":"Traffic Control",
    "wof:parent_id":85798113,
    "wof:placetype":"venue",
    "wof:superseded_by":[],
    "wof:supersedes":[],
    "wof:tags":[
        "expertise"
    ]
},
  "bbox": [4.395514,52.044102,4.395514,52.044102],
  "geometry": {"coordinates":[4.395514,52.044102],"type":"Point"}
}