{
  "id": 320362837,
  "type": "Feature",
  "properties": {
    "edtf:cessation":"u",
    "edtf:inception":"u",
    "geom:area":0.0,
    "geom:bbox":"4.311132,51.496124,4.311132,51.496124",
    "geom:latitude":51.496124,
    "geom:longitude":4.311132,
    "iso:country":"NL",
    "sg:address":"Gagelboslaan 35",
    "sg:city":"Bergen Op Zoom",
    "sg:classifiers":[],
    "sg:orig_category":"Goederenvervoer Over De Weg",
    "sg:owner":"simplegeo",
    "sg:phone":"+31 164 255 144",
    "sg:postcode":"4623 AA",
    "sg:province":"Noord-Brabant",
    "src:geom":"simplegeo",
    "wof:belongsto":[
        85798057,
        85633337,
        101839323,
        85687035
    ],
    "wof:breaches":[],
    "wof:concordances":{
        "sg:id":"SG_3Hv98bpsGEhnpgZ8v9raUD_51.496124_4.311132@1306269997"
    },
    "wof:country":"NL",
    "wof:geomhash":"03624d272a28d6070b9629b38ee19393",
    "wof:hierarchy":[
        {
            "continent_id":-1,
            "country_id":85633337,
            "locality_id":101839323,
            "neighbourhood_id":85798057,
            "region_id":85687035,
            "venue_id":320362837
        }
    ],
    "wof:id":320362837,
    "wof:lastmodified":1449013678,
    "wof:name":"L. Lamme - Heyboer",
    "wof:parent_id":85798057,
    "wof:placetype":"venue",
    "wof:superseded_by":[],
    "wof:supersedes":[],
    "wof:tags":[]
},
  "bbox": [4.311132,51.496124,4.311132,51.496124],
  "geometry": {"coordinates":[4.311132,51.496124],"type":"Point"}
}