{
  "id": 336737635,
  "type": "Feature",
  "properties": {
    "edtf:cessation":"u",
    "edtf:inception":"u",
    "geom:area":0.0,
    "geom:bbox":"4.221458,51.990444,4.221458,51.990444",
    "geom:latitude":51.990444,
    "geom:longitude":4.221458,
    "iso:country":"NL",
    "sg:address":"Tiendweg 32",
    "sg:city":"Naaldwijk",
    "sg:classifiers":[
        {
            "category":"Professional",
            "subcategory":"Accounting & Tax Preparation",
            "type":"Services"
        }
    ],
    "sg:owner":"simplegeo",
    "sg:phone":"+31 174 639 700",
    "sg:postcode":"2671 SB",
    "sg:province":"South Holland",
    "sg:tags":[
        "accountant"
    ],
    "src:geom":"simplegeo",
    "wof:belongsto":[
        85859575,
        85633337,
        85687041
    ],
    "wof:breaches":[],
    "wof:concordances":{
        "sg:id":"SG_1XDMRc86UTnqid7WZrV4As_51.990444_4.221458@1306270005"
    },
    "wof:country":"NL",
    "wof:geomhash":"444d4506bcc32114b74a4eba97ebfe6b",
    "wof:hierarchy":[
        {
            "continent_id":-1,
            "country_id":85633337,
            "locality_id":-1,
            "neighbourhood_id":85859575,
            "region_id":85687041,
            "venue_id":336737635
        }
    ],
    "wof:id":336737635,
    "wof:lastmodified":1448997191,
    "wof:name":"Ernst & Young",
    "wof:parent_id":85859575,
    "wof:placetype":"venue",
    "wof:superseded_by":[],
    "wof:supersedes":[],
    "wof:tags":[
        "accountant"
    ]
},
  "bbox": [4.221458,51.990444,4.221458,51.990444],
  "geometry": {"coordinates":[4.221458,51.990444],"type":"Point"}
}