{
  "id": 236813329,
  "type": "Feature",
  "properties": {
    "edtf:cessation":"u",
    "edtf:inception":"u",
    "geom:area":0.0,
    "geom:bbox":"6.879995,52.188644,6.879995,52.188644",
    "geom:latitude":52.188644,
    "geom:longitude":6.879995,
    "iso:country":"NL",
    "sg:address":"Eibergenbrink 4",
    "sg:city":"Enschede",
    "sg:classifiers":[],
    "sg:orig_category":"Autorijscholen",
    "sg:owner":"simplegeo",
    "sg:phone":"+31 53 476 2490",
    "sg:postcode":"7544 HS",
    "sg:province":"NL.08",
    "src:geom":"simplegeo",
    "wof:belongsto":[
        85798259,
        85633337,
        101751871,
        85687045
    ],
    "wof:breaches":[],
    "wof:concordances":{
        "sg:id":"SG_32JU2lTLp19t9zS2l22TRF_52.188644_6.879995@1306269941"
    },
    "wof:country":"NL",
    "wof:geomhash":"1dbd65ec818d688ec20b9696ca251419",
    "wof:hierarchy":[
        {
            "continent_id":-1,
            "country_id":85633337,
            "locality_id":101751871,
            "neighbourhood_id":85798259,
            "region_id":85687045,
            "venue_id":236813329
        }
    ],
    "wof:id":236813329,
    "wof:lastmodified":1449002316,
    "wof:name":"Rishen",
    "wof:parent_id":85798259,
    "wof:placetype":"venue",
    "wof:superseded_by":[],
    "wof:supersedes":[],
    "wof:tags":[]
},
  "bbox": [6.879995,52.188644,6.879995,52.188644],
  "geometry": {"coordinates":[6.879995,52.188644],"type":"Point"}
}