{
  "id": 270264259,
  "type": "Feature",
  "properties": {
    "edtf:cessation":"u",
    "edtf:inception":"u",
    "geom:area":0.0,
    "geom:bbox":"5.545405,51.617989,5.545405,51.617989",
    "geom:latitude":51.617989,
    "geom:longitude":5.545405,
    "iso:country":"NL",
    "sg:address":"Molenstr 40",
    "sg:city":"Veghel",
    "sg:classifiers":[],
    "sg:orig_category":"Fotozaken",
    "sg:owner":"simplegeo",
    "sg:phone":"+31 413 367 329",
    "sg:postcode":"5461 JR",
    "sg:province":"North Brabant",
    "src:geom":"simplegeo",
    "wof:belongsto":[
        85633337,
        101808329,
        85687035
    ],
    "wof:breaches":[],
    "wof:concordances":{
        "sg:id":"SG_43R41hpKoWVIDlUOiZRRzv_51.617989_5.545405@1306269963"
    },
    "wof:country":"NL",
    "wof:geomhash":"48887607ad326b919fbdf718f5751a4f",
    "wof:hierarchy":[
        {
            "continent_id":-1,
            "country_id":85633337,
            "locality_id":101808329,
            "neighbourhood_id":-1,
            "region_id":85687035,
            "venue_id":270264259
        }
    ],
    "wof:id":270264259,
    "wof:lastmodified":1449010253,
    "wof:name":"Combifoto",
    "wof:parent_id":-1,
    "wof:placetype":"venue",
    "wof:superseded_by":[],
    "wof:supersedes":[],
    "wof:tags":[]
},
  "bbox": [5.545405,51.617989,5.545405,51.617989],
  "geometry": {"coordinates":[5.545405,51.617989],"type":"Point"}
}