{
  "id": 253005119,
  "type": "Feature",
  "properties": {
    "edtf:cessation":"u",
    "edtf:inception":"u",
    "geom:area":0.0,
    "geom:bbox":"5.70198,52.846695,5.70198,52.846695",
    "geom:latitude":52.846695,
    "geom:longitude":5.70198,
    "iso:country":"NL",
    "sg:address":"Turfland 3",
    "sg:city":"Lemmer",
    "sg:classifiers":[],
    "sg:orig_category":"Metaaldraaierijen",
    "sg:owner":"simplegeo",
    "sg:phone":"+31 514 561 559",
    "sg:postcode":"8531 JJ",
    "sg:province":"Friesland",
    "src:geom":"simplegeo",
    "wof:belongsto":[
        85633337,
        101807477,
        85687055
    ],
    "wof:breaches":[],
    "wof:concordances":{
        "sg:id":"SG_3tGJNNxGBVRfqa49pEtwQk_52.846695_5.701980@1306269945"
    },
    "wof:country":"NL",
    "wof:geomhash":"284bb58d811be4e02a19f1e98550c056",
    "wof:hierarchy":[
        {
            "continent_id":-1,
            "country_id":85633337,
            "locality_id":101807477,
            "neighbourhood_id":-1,
            "region_id":85687055,
            "venue_id":253005119
        }
    ],
    "wof:id":253005119,
    "wof:lastmodified":1449065553,
    "wof:name":"Remacon",
    "wof:parent_id":-1,
    "wof:placetype":"venue",
    "wof:superseded_by":[],
    "wof:supersedes":[],
    "wof:tags":[]
},
  "bbox": [5.70198,52.846695,5.70198,52.846695],
  "geometry": {"coordinates":[5.70198,52.846695],"type":"Point"}
}