{
  "id": 303319831,
  "type": "Feature",
  "properties": {
    "edtf:cessation":"u",
    "edtf:inception":"u",
    "geom:area":0.0,
    "geom:bbox":"4.66921,51.813416,4.66921,51.813416",
    "geom:latitude":51.813416,
    "geom:longitude":4.66921,
    "iso:country":"NL",
    "sg:address":"Drievriendenhof 59",
    "sg:city":"Dordrecht",
    "sg:classifiers":[],
    "sg:orig_category":"Schoenen",
    "sg:owner":"simplegeo",
    "sg:phone":"+31 78 614 8773",
    "sg:postcode":"3311 NM",
    "sg:province":"Zuid-Holland",
    "src:geom":"simplegeo",
    "wof:belongsto":[
        85797875,
        85633337,
        101751841,
        85687041
    ],
    "wof:breaches":[],
    "wof:concordances":{
        "sg:id":"SG_35aCbYC4eGznjkY467Ri7J_51.813416_4.669210@1306269982"
    },
    "wof:country":"NL",
    "wof:geomhash":"95fc5efe227d0098f16afe4389ffbf1d",
    "wof:hierarchy":[
        {
            "continent_id":-1,
            "country_id":85633337,
            "locality_id":101751841,
            "neighbourhood_id":85797875,
            "region_id":85687041,
            "venue_id":303319831
        }
    ],
    "wof:id":303319831,
    "wof:lastmodified":1448999116,
    "wof:name":"Brandshoes",
    "wof:parent_id":85797875,
    "wof:placetype":"venue",
    "wof:superseded_by":[],
    "wof:supersedes":[],
    "wof:tags":[]
},
  "bbox": [4.66921,51.813416,4.66921,51.813416],
  "geometry": {"coordinates":[4.66921,51.813416],"type":"Point"}
}