{
  "id": 320693141,
  "type": "Feature",
  "properties": {
    "edtf:cessation":"u",
    "edtf:inception":"u",
    "geom:area":0.0,
    "geom:bbox":"3.912389,51.724789,3.912389,51.724789",
    "geom:latitude":51.724789,
    "geom:longitude":3.912389,
    "iso:country":"NL",
    "sg:address":"Zuiddykstr 16",
    "sg:city":"Brouwershaven",
    "sg:classifiers":[],
    "sg:orig_category":"Zoetwaren - Winkels",
    "sg:owner":"simplegeo",
    "sg:phone":"+31 111 695 065",
    "sg:postcode":"4318 BE",
    "sg:province":"Zeeland",
    "src:geom":"simplegeo",
    "wof:belongsto":[
        85633337,
        101808353,
        85687037
    ],
    "wof:breaches":[],
    "wof:concordances":{
        "sg:id":"SG_4jOur6JoodmeimedFuvfCd_51.724789_3.912389@1306270001"
    },
    "wof:country":"NL",
    "wof:geomhash":"a054db488be095298c11453d2326fc91",
    "wof:hierarchy":[
        {
            "continent_id":-1,
            "country_id":85633337,
            "locality_id":101808353,
            "neighbourhood_id":-1,
            "region_id":85687037,
            "venue_id":320693141
        }
    ],
    "wof:id":320693141,
    "wof:lastmodified":1449011462,
    "wof:name":"Elicor",
    "wof:parent_id":-1,
    "wof:placetype":"venue",
    "wof:superseded_by":[],
    "wof:supersedes":[],
    "wof:tags":[]
},
  "bbox": [3.912389,51.724789,3.912389,51.724789],
  "geometry": {"coordinates":[3.912389,51.724789],"type":"Point"}
}