{
  "id": 336728413,
  "type": "Feature",
  "properties": {
    "edtf:cessation":"u",
    "edtf:inception":"u",
    "geom:area":0.0,
    "geom:bbox":"6.898787,52.407417,6.898787,52.407417",
    "geom:latitude":52.407417,
    "geom:longitude":6.898787,
    "iso:country":"NL",
    "sg:address":"Walstraat 3",
    "sg:city":"Ootmarsum",
    "sg:classifiers":[
        {
            "category":"Professional",
            "subcategory":"Accounting & Tax Preparation",
            "type":"Services"
        }
    ],
    "sg:owner":"simplegeo",
    "sg:phone":"+31 541 292 275",
    "sg:postcode":"7631 ET",
    "sg:province":"NL.08",
    "sg:tags":[
        "accountant"
    ],
    "src:geom":"simplegeo",
    "wof:belongsto":[
        85633337,
        101807233,
        85687045
    ],
    "wof:breaches":[],
    "wof:concordances":{
        "sg:id":"SG_7XVJCxHHiwi5kfCyxJMQom_52.407417_6.898787@1306270005"
    },
    "wof:country":"NL",
    "wof:geomhash":"70352ecb3c5e2c662c9b26083b533ad0",
    "wof:hierarchy":[
        {
            "continent_id":-1,
            "country_id":85633337,
            "locality_id":101807233,
            "neighbourhood_id":-1,
            "region_id":85687045,
            "venue_id":336728413
        }
    ],
    "wof:id":336728413,
    "wof:lastmodified":1448997200,
    "wof:name":"Gibo Accountantskantoor Amil",
    "wof:parent_id":-1,
    "wof:placetype":"venue",
    "wof:superseded_by":[],
    "wof:supersedes":[],
    "wof:tags":[
        "accountant"
    ]
},
  "bbox": [6.898787,52.407417,6.898787,52.407417],
  "geometry": {"coordinates":[6.898787,52.407417],"type":"Point"}
}