{
  "id": 203322505,
  "type": "Feature",
  "properties": {
    "edtf:cessation":"u",
    "edtf:inception":"u",
    "geom:area":0.0,
    "geom:bbox":"5.09275,51.818943,5.09275,51.818943",
    "geom:latitude":51.818943,
    "geom:longitude":5.09275,
    "iso:country":"NL",
    "sg:address":"Postbus 44",
    "sg:city":"Brakel",
    "sg:classifiers":[],
    "sg:orig_category":"Voetbalverenigingen",
    "sg:owner":"simplegeo",
    "sg:phone":"+31 418 671 502",
    "sg:postcode":"5306 ZG",
    "sg:province":"Gelderland",
    "src:geom":"simplegeo",
    "wof:belongsto":[
        85633337,
        101808609,
        85687043
    ],
    "wof:breaches":[],
    "wof:concordances":{
        "sg:id":"SG_48nqouAcPlEKJCoNCeHeEg_51.818943_5.092750@1306269923"
    },
    "wof:country":"NL",
    "wof:geomhash":"ffdb8a6b1524ea273e22b688dca8ac6d",
    "wof:hierarchy":[
        {
            "continent_id":-1,
            "country_id":85633337,
            "locality_id":101808609,
            "neighbourhood_id":-1,
            "region_id":85687043,
            "venue_id":203322505
        }
    ],
    "wof:id":203322505,
    "wof:lastmodified":1449024926,
    "wof:name":"Brakel Vv",
    "wof:parent_id":-1,
    "wof:placetype":"venue",
    "wof:superseded_by":[],
    "wof:supersedes":[],
    "wof:tags":[]
},
  "bbox": [5.09275,51.818943,5.09275,51.818943],
  "geometry": {"coordinates":[5.09275,51.818943],"type":"Point"}
}