{
  "id": 303168401,
  "type": "Feature",
  "properties": {
    "edtf:cessation":"u",
    "edtf:inception":"u",
    "geom:area":0.0,
    "geom:bbox":"6.983191,52.976616,6.983191,52.976616",
    "geom:latitude":52.976616,
    "geom:longitude":6.983191,
    "iso:country":"NL",
    "sg:address":"Wagenmaker 5",
    "sg:city":"Stadskanaal",
    "sg:classifiers":[],
    "sg:orig_category":"Sanitaire Artikelen",
    "sg:owner":"simplegeo",
    "sg:phone":"+31 599 652 669",
    "sg:postcode":"9502 ES",
    "sg:province":"Groningen",
    "src:geom":"simplegeo",
    "wof:belongsto":[
        85633337,
        101837895,
        85687059
    ],
    "wof:breaches":[],
    "wof:concordances":{
        "sg:id":"SG_5z5F5vmUIyVZttI1ANCl4n_52.976616_6.983191@1306269981"
    },
    "wof:country":"NL",
    "wof:geomhash":"b794a2aa7b2a192b3f0ab464a8f8b5d1",
    "wof:hierarchy":[
        {
            "continent_id":-1,
            "country_id":85633337,
            "locality_id":101837895,
            "neighbourhood_id":-1,
            "region_id":85687059,
            "venue_id":303168401
        }
    ],
    "wof:id":303168401,
    "wof:lastmodified":1448999398,
    "wof:name":"Sani-Lux",
    "wof:parent_id":-1,
    "wof:placetype":"venue",
    "wof:superseded_by":[],
    "wof:supersedes":[],
    "wof:tags":[]
},
  "bbox": [6.983191,52.976616,6.983191,52.976616],
  "geometry": {"coordinates":[6.983191,52.976616],"type":"Point"}
}