{
  "id": 320077003,
  "type": "Feature",
  "properties": {
    "edtf:cessation":"u",
    "edtf:inception":"u",
    "geom:area":0.0,
    "geom:bbox":"7.013931,52.248604,7.013931,52.248604",
    "geom:latitude":52.248604,
    "geom:longitude":7.013931,
    "iso:country":"NL",
    "sg:address":"Nyverheidstr 18",
    "sg:city":"Losser",
    "sg:classifiers":[
        {
            "category":"Retail",
            "subcategory":"Auto Repair",
            "type":"Services"
        }
    ],
    "sg:owner":"simplegeo",
    "sg:phone":"+31 53 536 4545",
    "sg:postcode":"7581 PV",
    "sg:province":"Overijssel",
    "sg:tags":[
        "garage"
    ],
    "src:geom":"simplegeo",
    "wof:belongsto":[
        85633337,
        101807147,
        85687045
    ],
    "wof:breaches":[],
    "wof:concordances":{
        "sg:id":"SG_5gDtfc4pBWMWN3LJFdLXu1_52.248604_7.013931@1306269994"
    },
    "wof:country":"NL",
    "wof:geomhash":"7ad8c7dcfd64188ba6f241272d4cad3d",
    "wof:hierarchy":[
        {
            "continent_id":-1,
            "country_id":85633337,
            "locality_id":101807147,
            "neighbourhood_id":-1,
            "region_id":85687045,
            "venue_id":320077003
        }
    ],
    "wof:id":320077003,
    "wof:lastmodified":1449011851,
    "wof:name":"Hobby Garage Losser",
    "wof:parent_id":-1,
    "wof:placetype":"venue",
    "wof:superseded_by":[],
    "wof:supersedes":[],
    "wof:tags":[
        "garage"
    ]
},
  "bbox": [7.013931,52.248604,7.013931,52.248604],
  "geometry": {"coordinates":[7.013931,52.248604],"type":"Point"}
}