{
  "id": 203382069,
  "type": "Feature",
  "properties": {
    "edtf:cessation":"u",
    "edtf:inception":"u",
    "geom:area":0.0,
    "geom:bbox":"5.905078,51.145603,5.905078,51.145603",
    "geom:latitude":51.145603,
    "geom:longitude":5.905078,
    "iso:country":"NL",
    "sg:address":"Kerkstr 30",
    "sg:city":"Maasbracht",
    "sg:classifiers":[],
    "sg:orig_category":"Land- En Tuinbouw - Loonbedrijven",
    "sg:owner":"simplegeo",
    "sg:phone":"+31 475 468 147",
    "sg:postcode":"6051 JH",
    "sg:province":"Limburg",
    "src:geom":"simplegeo",
    "wof:belongsto":[
        85633337,
        101839219,
        85687033
    ],
    "wof:breaches":[],
    "wof:concordances":{
        "sg:id":"SG_7bYEVyvmtSlmghfibShqe8_51.145603_5.905078@1306269923"
    },
    "wof:country":"NL",
    "wof:geomhash":"d1325715d9725b76a52edf658a36c504",
    "wof:hierarchy":[
        {
            "continent_id":-1,
            "country_id":85633337,
            "locality_id":101839219,
            "neighbourhood_id":-1,
            "region_id":85687033,
            "venue_id":203382069
        }
    ],
    "wof:id":203382069,
    "wof:lastmodified":1449025418,
    "wof:name":"Piet Houben",
    "wof:parent_id":-1,
    "wof:placetype":"venue",
    "wof:superseded_by":[],
    "wof:supersedes":[],
    "wof:tags":[]
},
  "bbox": [5.905078,51.145603,5.905078,51.145603],
  "geometry": {"coordinates":[5.905078,51.145603],"type":"Point"}
}