{
  "id": 253130923,
  "type": "Feature",
  "properties": {
    "edtf:cessation":"u",
    "edtf:inception":"u",
    "geom:area":0.0,
    "geom:bbox":"6.197935,53.173988,6.197935,53.173988",
    "geom:latitude":53.173988,
    "geom:longitude":6.197935,
    "iso:country":"NL",
    "sg:address":"Provincialewg 56-58",
    "sg:city":"Opende",
    "sg:classifiers":[],
    "sg:orig_category":"Meubelen",
    "sg:owner":"simplegeo",
    "sg:phone":"+31 594 659 218",
    "sg:postcode":"9865 AJ",
    "sg:province":"Groningen",
    "src:geom":"simplegeo",
    "wof:belongsto":[
        85633337,
        101807511,
        85687059
    ],
    "wof:breaches":[],
    "wof:concordances":{
        "sg:id":"SG_3Cf5R8LmPpnxbpFH5OKmOK_53.173988_6.197935@1306269946"
    },
    "wof:country":"NL",
    "wof:geomhash":"ff91deed9ebf8796af4b2315acfbc450",
    "wof:hierarchy":[
        {
            "continent_id":-1,
            "country_id":85633337,
            "locality_id":101807511,
            "neighbourhood_id":-1,
            "region_id":85687059,
            "venue_id":253130923
        }
    ],
    "wof:id":253130923,
    "wof:lastmodified":1449063846,
    "wof:name":"Ijtsma",
    "wof:parent_id":-1,
    "wof:placetype":"venue",
    "wof:superseded_by":[],
    "wof:supersedes":[],
    "wof:tags":[]
},
  "bbox": [6.197935,53.173988,6.197935,53.173988],
  "geometry": {"coordinates":[6.197935,53.173988],"type":"Point"}
}