{
  "id": 220025489,
  "type": "Feature",
  "properties": {
    "edtf:cessation":"u",
    "edtf:inception":"u",
    "geom:area":0.0,
    "geom:bbox":"5.703781,51.255016,5.703781,51.255016",
    "geom:latitude":51.255016,
    "geom:longitude":5.703781,
    "iso:country":"NL",
    "sg:address":"Postbus 44",
    "sg:city":"Weert",
    "sg:classifiers":[],
    "sg:orig_category":"Adviesbureaus Bouwkunde",
    "sg:owner":"simplegeo",
    "sg:phone":"+31 495 450 235",
    "sg:postcode":"6000 AA",
    "sg:province":"Limburg",
    "sg:website":"http://www.wesmoll.com/wm5",
    "src:geom":"simplegeo",
    "wof:belongsto":[
        85633337,
        101839297,
        85687033
    ],
    "wof:breaches":[],
    "wof:concordances":{
        "sg:id":"SG_1D1RbBM2nsbcN5F9Msx89z_51.255016_5.703781@1306269931"
    },
    "wof:country":"NL",
    "wof:geomhash":"e2a39be6a54fce54193e18ebfe86e385",
    "wof:hierarchy":[
        {
            "continent_id":-1,
            "country_id":85633337,
            "locality_id":101839297,
            "neighbourhood_id":-1,
            "region_id":85687033,
            "venue_id":220025489
        }
    ],
    "wof:id":220025489,
    "wof:lastmodified":1449074732,
    "wof:name":"Wm5 Project Engineers Bv",
    "wof:parent_id":-1,
    "wof:placetype":"venue",
    "wof:superseded_by":[],
    "wof:supersedes":[],
    "wof:tags":[]
},
  "bbox": [5.703781,51.255016,5.703781,51.255016],
  "geometry": {"coordinates":[5.703781,51.255016],"type":"Point"}
}