{
  "id": 253057191,
  "type": "Feature",
  "properties": {
    "edtf:cessation":"u",
    "edtf:inception":"u",
    "geom:area":0.0,
    "geom:bbox":"-94.539925,33.812393,-94.539925,33.812393",
    "geom:latitude":33.812393,
    "geom:longitude":-94.539925,
    "iso:country":"NL",
    "sg:address":"Nusseleinstraat 8",
    "sg:city":"America",
    "sg:classifiers":[],
    "sg:orig_category":"Metaalwerken",
    "sg:owner":"simplegeo",
    "sg:phone":"+31 77 464 1287",
    "sg:postcode":"5966 NJ",
    "sg:province":"Limburg",
    "src:geom":"simplegeo",
    "wof:belongsto":[
        85633793,
        85688585
    ],
    "wof:breaches":[],
    "wof:concordances":{
        "sg:id":"SG_4itHRgH3Yhyv1XPV1yjofY_33.812393_-94.539925@1306269946"
    },
    "wof:country":"NL",
    "wof:geomhash":"5f539a64e6cec516c1ec761107665ab9",
    "wof:hierarchy":[
        {
            "continent_id":-1,
            "country_id":85633793,
            "locality_id":-1,
            "neighbourhood_id":-1,
            "region_id":85688585,
            "venue_id":253057191
        }
    ],
    "wof:id":253057191,
    "wof:lastmodified":1449064284,
    "wof:name":"Gebroeders Wijnhoven America Bv",
    "wof:parent_id":-1,
    "wof:placetype":"venue",
    "wof:superseded_by":[],
    "wof:supersedes":[],
    "wof:tags":[]
},
  "bbox": [-94.539925,33.812393,-94.539925,33.812393],
  "geometry": {"coordinates":[-94.539925,33.812393],"type":"Point"}
}