{
  "id": 169804785,
  "type": "Feature",
  "properties": {
    "edtf:cessation":"u",
    "edtf:inception":"u",
    "geom:area":0.0,
    "geom:bbox":"6.308769,53.263554,6.308769,53.263554",
    "geom:latitude":53.263554,
    "geom:longitude":6.308769,
    "iso:country":"NL",
    "sg:address":"Herestr 16",
    "sg:city":"Grypskerk",
    "sg:classifiers":[],
    "sg:orig_category":"Kappers",
    "sg:owner":"simplegeo",
    "sg:phone":"+31 594 212 980",
    "sg:postcode":"9843 AK",
    "sg:province":"Groningen",
    "src:geom":"simplegeo",
    "wof:belongsto":[
        85633337,
        101803731,
        85687059
    ],
    "wof:breaches":[],
    "wof:concordances":{
        "sg:id":"SG_6qhDKOWv7qHA1upJwDQFF1_53.263554_6.308769@1306269906"
    },
    "wof:country":"NL",
    "wof:geomhash":"e883bf7fe1f66e0f891f32ab672352c1",
    "wof:hierarchy":[
        {
            "continent_id":-1,
            "country_id":85633337,
            "locality_id":101803731,
            "neighbourhood_id":-1,
            "region_id":85687059,
            "venue_id":169804785
        }
    ],
    "wof:id":169804785,
    "wof:lastmodified":1449034987,
    "wof:name":"Ostara",
    "wof:parent_id":-1,
    "wof:placetype":"venue",
    "wof:superseded_by":[],
    "wof:supersedes":[],
    "wof:tags":[]
},
  "bbox": [6.308769,53.263554,6.308769,53.263554],
  "geometry": {"coordinates":[6.308769,53.263554],"type":"Point"}
}