{
  "id": 336728215,
  "type": "Feature",
  "properties": {
    "edtf:cessation":"u",
    "edtf:inception":"u",
    "geom:area":0.0,
    "geom:bbox":"5.57992,51.935566,5.57992,51.935566",
    "geom:latitude":51.935566,
    "geom:longitude":5.57992,
    "iso:country":"NL",
    "sg:address":"De Peel 1",
    "sg:city":"Kesteren",
    "sg:classifiers":[
        {
            "category":"Professional",
            "subcategory":"Accounting & Tax Preparation",
            "type":"Services"
        }
    ],
    "sg:owner":"simplegeo",
    "sg:phone":"+31 488 482 214",
    "sg:postcode":"4041 EK",
    "sg:province":"Gelderland",
    "sg:tags":[
        "accountant"
    ],
    "src:geom":"simplegeo",
    "wof:belongsto":[
        85633337,
        85687043
    ],
    "wof:breaches":[],
    "wof:concordances":{
        "sg:id":"SG_2mvsGFsaeQZdkjyUw2c8Jh_51.935566_5.579920@1306270005"
    },
    "wof:country":"NL",
    "wof:geomhash":"1290c32162697bcd8b87831264491ee2",
    "wof:hierarchy":[
        {
            "continent_id":-1,
            "country_id":85633337,
            "locality_id":-1,
            "neighbourhood_id":-1,
            "region_id":85687043,
            "venue_id":336728215
        }
    ],
    "wof:id":336728215,
    "wof:lastmodified":1448997202,
    "wof:name":"D.J. Eelderink Bv",
    "wof:parent_id":-1,
    "wof:placetype":"venue",
    "wof:superseded_by":[],
    "wof:supersedes":[],
    "wof:tags":[
        "accountant"
    ]
},
  "bbox": [5.57992,51.935566,5.57992,51.935566],
  "geometry": {"coordinates":[5.57992,51.935566],"type":"Point"}
}