{
  "id": 269673967,
  "type": "Feature",
  "properties": {
    "edtf:cessation":"u",
    "edtf:inception":"u",
    "geom:area":0.0,
    "geom:bbox":"5.961601,52.232182,5.961601,52.232182",
    "geom:latitude":52.232182,
    "geom:longitude":5.961601,
    "iso:country":"NL",
    "sg:address":"Balmerstraat 1",
    "sg:city":"Apeldoorn",
    "sg:classifiers":[],
    "sg:orig_category":"Public Relationbureaus",
    "sg:owner":"simplegeo",
    "sg:phone":"+31 55 578 7575",
    "sg:postcode":"7316 JV",
    "sg:province":"Gelderland",
    "src:geom":"simplegeo",
    "wof:belongsto":[
        85797037,
        85633337,
        85687043
    ],
    "wof:breaches":[],
    "wof:concordances":{
        "sg:id":"SG_6PynAXUfDVLeYcyjtQw3Qm_52.232182_5.961601@1306269955"
    },
    "wof:country":"NL",
    "wof:geomhash":"43db3cda064fa2d7c0fdb3860d177d45",
    "wof:hierarchy":[
        {
            "continent_id":-1,
            "country_id":85633337,
            "locality_id":-1,
            "neighbourhood_id":85797037,
            "region_id":85687043,
            "venue_id":269673967
        }
    ],
    "wof:id":269673967,
    "wof:lastmodified":1449037084,
    "wof:name":"Adviesbureau Voor Red. En Publ. Hilkemei",
    "wof:parent_id":85797037,
    "wof:placetype":"venue",
    "wof:superseded_by":[],
    "wof:supersedes":[],
    "wof:tags":[]
},
  "bbox": [5.961601,52.232182,5.961601,52.232182],
  "geometry": {"coordinates":[5.961601,52.232182],"type":"Point"}
}