{
  "id": 286487381,
  "type": "Feature",
  "properties": {
    "edtf:cessation":"u",
    "edtf:inception":"u",
    "geom:area":0.0,
    "geom:bbox":"5.946981,51.71983,5.946981,51.71983",
    "geom:latitude":51.71983,
    "geom:longitude":5.946981,
    "iso:country":"NL",
    "sg:address":"Sprokkelsveld 19",
    "sg:city":"Milsbeek",
    "sg:classifiers":[],
    "sg:orig_category":"Beeldende Kunstenaars",
    "sg:owner":"simplegeo",
    "sg:phone":"+31 485 516 347",
    "sg:postcode":"6596 DH",
    "sg:province":"Limburg",
    "src:geom":"simplegeo",
    "wof:belongsto":[
        85633337,
        85687033
    ],
    "wof:breaches":[],
    "wof:concordances":{
        "sg:id":"SG_5vgnKthqR55So1P845kkI7_51.719830_5.946981@1306269969"
    },
    "wof:country":"NL",
    "wof:geomhash":"2a17dfaff077765a93d2fd27b358d763",
    "wof:hierarchy":[
        {
            "continent_id":-1,
            "country_id":85633337,
            "locality_id":-1,
            "neighbourhood_id":-1,
            "region_id":85687033,
            "venue_id":286487381
        }
    ],
    "wof:id":286487381,
    "wof:lastmodified":1449016141,
    "wof:name":"Klabbers, W",
    "wof:parent_id":-1,
    "wof:placetype":"venue",
    "wof:superseded_by":[],
    "wof:supersedes":[],
    "wof:tags":[]
},
  "bbox": [5.946981,51.71983,5.946981,51.71983],
  "geometry": {"coordinates":[5.946981,51.71983],"type":"Point"}
}