{
  "id": 303947047,
  "type": "Feature",
  "properties": {
    "edtf:cessation":"u",
    "edtf:inception":"u",
    "geom:area":0.0,
    "geom:bbox":"3.991051,51.463154,3.991051,51.463154",
    "geom:latitude":51.463154,
    "geom:longitude":3.991051,
    "iso:country":"NL",
    "sg:address":"Eewg 9",
    "sg:city":"Schore",
    "sg:classifiers":[],
    "sg:orig_category":"Hoefsmederijen",
    "sg:owner":"simplegeo",
    "sg:phone":"+31 113 342 152",
    "sg:postcode":"4423 PE",
    "sg:province":"Zeeland",
    "src:geom":"simplegeo",
    "wof:belongsto":[
        85633337,
        85687037
    ],
    "wof:breaches":[],
    "wof:concordances":{
        "sg:id":"SG_53c0FnydJmFzbjGw5Ui4FE_51.463154_3.991051@1306269989"
    },
    "wof:country":"NL",
    "wof:geomhash":"beb9803c389fbd893cc4e7dfae03c963",
    "wof:hierarchy":[
        {
            "continent_id":-1,
            "country_id":85633337,
            "locality_id":-1,
            "neighbourhood_id":-1,
            "region_id":85687037,
            "venue_id":303947047
        }
    ],
    "wof:id":303947047,
    "wof:lastmodified":1448999889,
    "wof:name":"Leunus Van Lieren Hexagon",
    "wof:parent_id":-1,
    "wof:placetype":"venue",
    "wof:superseded_by":[],
    "wof:supersedes":[],
    "wof:tags":[]
},
  "bbox": [3.991051,51.463154,3.991051,51.463154],
  "geometry": {"coordinates":[3.991051,51.463154],"type":"Point"}
}