{
  "id": 186124641,
  "type": "Feature",
  "properties": {
    "edtf:cessation":"u",
    "edtf:inception":"u",
    "geom:area":0.0,
    "geom:bbox":"5.402375,52.942657,5.402375,52.942657",
    "geom:latitude":52.942657,
    "geom:longitude":5.402375,
    "iso:country":"NL",
    "sg:address":"Nieuwstad 19",
    "sg:city":"Hindeloopen",
    "sg:classifiers":[],
    "sg:orig_category":"Kunst And Kunstenaarsbenodigdheden",
    "sg:owner":"simplegeo",
    "sg:phone":"+31 514 521 389",
    "sg:postcode":"8713 JL",
    "sg:province":"Provincie Friesland",
    "src:geom":"simplegeo",
    "wof:belongsto":[
        85633337,
        85687055
    ],
    "wof:breaches":[],
    "wof:concordances":{
        "sg:id":"SG_2OG8SDm8jlKITOpk0WsBgT_52.942657_5.402375@1306269910"
    },
    "wof:country":"NL",
    "wof:geomhash":"9e1d4a8ebd4541a4b253e8045b46be8e",
    "wof:hierarchy":[
        {
            "continent_id":-1,
            "country_id":85633337,
            "locality_id":-1,
            "neighbourhood_id":-1,
            "region_id":85687055,
            "venue_id":186124641
        }
    ],
    "wof:id":186124641,
    "wof:lastmodified":1449052824,
    "wof:name":"Stallmann, Kunst- En Cadeauboetiek",
    "wof:parent_id":-1,
    "wof:placetype":"venue",
    "wof:superseded_by":[],
    "wof:supersedes":[],
    "wof:tags":[]
},
  "bbox": [5.402375,52.942657,5.402375,52.942657],
  "geometry": {"coordinates":[5.402375,52.942657],"type":"Point"}
}