{
  "id": 336719787,
  "type": "Feature",
  "properties": {
    "edtf:cessation":"u",
    "edtf:inception":"u",
    "geom:area":0.0,
    "geom:bbox":"5.307517,51.502342,5.307517,51.502342",
    "geom:latitude":51.502342,
    "geom:longitude":5.307517,
    "iso:country":"NL",
    "sg:address":"De Moriaan 9",
    "sg:city":"Oirschot",
    "sg:classifiers":[
        {
            "category":"Professional",
            "subcategory":"Accounting & Tax Preparation",
            "type":"Services"
        }
    ],
    "sg:owner":"simplegeo",
    "sg:phone":"+31 499 571 772",
    "sg:postcode":"5688 ER",
    "sg:province":"Noord-Brabant",
    "sg:tags":[
        "accountant"
    ],
    "src:geom":"simplegeo",
    "wof:belongsto":[
        85633337,
        101809741,
        85687035
    ],
    "wof:breaches":[],
    "wof:concordances":{
        "sg:id":"SG_28ngOmXwiWhlNvKWcxPcrF_51.502342_5.307517@1306270005"
    },
    "wof:country":"NL",
    "wof:geomhash":"fcb40eb5995208da3f39d32471130762",
    "wof:hierarchy":[
        {
            "continent_id":-1,
            "country_id":85633337,
            "locality_id":101809741,
            "neighbourhood_id":-1,
            "region_id":85687035,
            "venue_id":336719787
        }
    ],
    "wof:id":336719787,
    "wof:lastmodified":1448997067,
    "wof:name":"Kab Accountants",
    "wof:parent_id":-1,
    "wof:placetype":"venue",
    "wof:superseded_by":[],
    "wof:supersedes":[],
    "wof:tags":[
        "accountant"
    ]
},
  "bbox": [5.307517,51.502342,5.307517,51.502342],
  "geometry": {"coordinates":[5.307517,51.502342],"type":"Point"}
}