{
  "id": 169742075,
  "type": "Feature",
  "properties": {
    "edtf:cessation":"u",
    "edtf:inception":"u",
    "geom:area":0.0,
    "geom:bbox":"5.138127,51.482376,5.138127,51.482376",
    "geom:latitude":51.482376,
    "geom:longitude":5.138127,
    "iso:country":"NL",
    "sg:address":"Rogier Van Leefdaelstr 2",
    "sg:city":"Hilvarenbeek",
    "sg:classifiers":[],
    "sg:orig_category":"Kappers",
    "sg:owner":"simplegeo",
    "sg:phone":"+31 13 505 3029",
    "sg:postcode":"5081 JL",
    "sg:province":"Noord-Brabant",
    "src:geom":"simplegeo",
    "wof:belongsto":[
        85633337,
        101809705,
        85687035
    ],
    "wof:breaches":[],
    "wof:concordances":{
        "sg:id":"SG_5xhUv0QoNGOsfqWJRMyEnG_51.482376_5.138127@1306269905"
    },
    "wof:country":"NL",
    "wof:geomhash":"0d08f018f47867566f82865667eeaa59",
    "wof:hierarchy":[
        {
            "continent_id":-1,
            "country_id":85633337,
            "locality_id":101809705,
            "neighbourhood_id":-1,
            "region_id":85687035,
            "venue_id":169742075
        }
    ],
    "wof:id":169742075,
    "wof:lastmodified":1449032898,
    "wof:name":"M. Hoogers-Kluijtmans",
    "wof:parent_id":-1,
    "wof:placetype":"venue",
    "wof:superseded_by":[],
    "wof:supersedes":[],
    "wof:tags":[]
},
  "bbox": [5.138127,51.482376,5.138127,51.482376],
  "geometry": {"coordinates":[5.138127,51.482376],"type":"Point"}
}