{
  "id": 303794499,
  "type": "Feature",
  "properties": {
    "edtf:cessation":"u",
    "edtf:inception":"u",
    "geom:area":0.0,
    "geom:bbox":"4.52729,52.370747,4.52729,52.370747",
    "geom:latitude":52.370747,
    "geom:longitude":4.52729,
    "iso:country":"NL",
    "sg:address":"Engelbertsstr 94",
    "sg:city":"Zandvoort",
    "sg:classifiers":[],
    "sg:orig_category":"Nagelstudio'S",
    "sg:owner":"simplegeo",
    "sg:phone":"+31 23 571 3338",
    "sg:postcode":"2042 KP",
    "sg:province":"Noord-Holland",
    "src:geom":"simplegeo",
    "wof:belongsto":[
        85633337,
        101808813,
        85687053
    ],
    "wof:breaches":[],
    "wof:concordances":{
        "sg:id":"SG_1piFwKYXurQHUV8L6K5Tge_52.370747_4.527290@1306269987"
    },
    "wof:country":"NL",
    "wof:geomhash":"2d725cdc4e607a3044272e897591e036",
    "wof:hierarchy":[
        {
            "continent_id":-1,
            "country_id":85633337,
            "locality_id":101808813,
            "neighbourhood_id":-1,
            "region_id":85687053,
            "venue_id":303794499
        }
    ],
    "wof:id":303794499,
    "wof:lastmodified":1448999292,
    "wof:name":"Bianca",
    "wof:parent_id":-1,
    "wof:placetype":"venue",
    "wof:superseded_by":[],
    "wof:supersedes":[],
    "wof:tags":[]
},
  "bbox": [4.52729,52.370747,4.52729,52.370747],
  "geometry": {"coordinates":[4.52729,52.370747],"type":"Point"}
}