{
  "id": 219943183,
  "type": "Feature",
  "properties": {
    "edtf:cessation":"u",
    "edtf:inception":"u",
    "geom:area":0.0,
    "geom:bbox":"4.255427,51.92849,4.255427,51.92849",
    "geom:latitude":51.92849,
    "geom:longitude":4.255427,
    "iso:country":"NL",
    "sg:address":"Hagedoorn 4",
    "sg:city":"Maassluis",
    "sg:classifiers":[],
    "sg:orig_category":"Adviesbureaus Bedrijfsorganisatie",
    "sg:owner":"simplegeo",
    "sg:phone":"+31 10 590 3490",
    "sg:postcode":"3142 KB",
    "sg:province":"South Holland",
    "src:geom":"simplegeo",
    "wof:belongsto":[
        85797123,
        85633337,
        101760475,
        85687041
    ],
    "wof:breaches":[],
    "wof:concordances":{
        "sg:id":"SG_45uT6upt6Gcw71aLLbhh2O_51.928490_4.255427@1306269930"
    },
    "wof:country":"NL",
    "wof:geomhash":"634bdb63d59ad1a87c55563ef5afd337",
    "wof:hierarchy":[
        {
            "continent_id":-1,
            "country_id":85633337,
            "locality_id":101760475,
            "neighbourhood_id":85797123,
            "region_id":85687041,
            "venue_id":219943183
        }
    ],
    "wof:id":219943183,
    "wof:lastmodified":1449071334,
    "wof:name":"Wel, J J Van Der",
    "wof:parent_id":85797123,
    "wof:placetype":"venue",
    "wof:superseded_by":[],
    "wof:supersedes":[],
    "wof:tags":[]
},
  "bbox": [4.255427,51.92849,4.255427,51.92849],
  "geometry": {"coordinates":[4.255427,51.92849],"type":"Point"}
}