{
  "id": 236139699,
  "type": "Feature",
  "properties": {
    "edtf:cessation":"u",
    "edtf:inception":"u",
    "geom:area":0.0,
    "geom:bbox":"4.782734,51.93293,4.782734,51.93293",
    "geom:latitude":51.93293,
    "geom:longitude":4.782734,
    "iso:country":"NL",
    "sg:address":"Hoofdstr 12D",
    "sg:city":"Bergambacht",
    "sg:classifiers":[],
    "sg:orig_category":"Tuinaanleg En -Onderhoud",
    "sg:owner":"simplegeo",
    "sg:phone":"+31 182 351 787",
    "sg:postcode":"2861 AP",
    "sg:province":"Zuid-Holland",
    "src:geom":"simplegeo",
    "wof:belongsto":[
        85633337,
        101837685,
        85687041
    ],
    "wof:breaches":[],
    "wof:concordances":{
        "sg:id":"SG_7GgkDEcH2TujbQXW3qbMLY_51.932930_4.782734@1306269935"
    },
    "wof:country":"NL",
    "wof:geomhash":"788dc0e2ebd15a0cf70d054baf637c9d",
    "wof:hierarchy":[
        {
            "continent_id":-1,
            "country_id":85633337,
            "locality_id":101837685,
            "neighbourhood_id":-1,
            "region_id":85687041,
            "venue_id":236139699
        }
    ],
    "wof:id":236139699,
    "wof:lastmodified":1449001907,
    "wof:name":"Andriessen, M H",
    "wof:parent_id":-1,
    "wof:placetype":"venue",
    "wof:superseded_by":[],
    "wof:supersedes":[],
    "wof:tags":[]
},
  "bbox": [4.782734,51.93293,4.782734,51.93293],
  "geometry": {"coordinates":[4.782734,51.93293],"type":"Point"}
}