{
  "id": 336739477,
  "type": "Feature",
  "properties": {
    "edtf:cessation":"u",
    "edtf:inception":"u",
    "geom:area":0.0,
    "geom:bbox":"6.586705,52.234928,6.586705,52.234928",
    "geom:latitude":52.234928,
    "geom:longitude":6.586705,
    "iso:country":"NL",
    "sg:address":"Grotestraat 26",
    "sg:city":"Goor",
    "sg:classifiers":[
        {
            "category":"Professional",
            "subcategory":"Accounting & Tax Preparation",
            "type":"Services"
        }
    ],
    "sg:owner":"simplegeo",
    "sg:phone":"+31 547 272 544",
    "sg:postcode":"7471 BP",
    "sg:province":"Overijssel",
    "sg:tags":[
        "accountant"
    ],
    "src:geom":"simplegeo",
    "wof:belongsto":[
        85633337,
        101807197,
        85687045
    ],
    "wof:breaches":[],
    "wof:concordances":{
        "sg:id":"SG_1pPIvOzcJRxohxVOzsRHu9_52.234928_6.586705@1306270005"
    },
    "wof:country":"NL",
    "wof:geomhash":"c051f3df8f20d98fc1cb29e61593438c",
    "wof:hierarchy":[
        {
            "continent_id":-1,
            "country_id":85633337,
            "locality_id":101807197,
            "neighbourhood_id":-1,
            "region_id":85687045,
            "venue_id":336739477
        }
    ],
    "wof:id":336739477,
    "wof:lastmodified":1448997397,
    "wof:name":"Mazars Paardekooper Hoffman Accountants & Belastin",
    "wof:parent_id":-1,
    "wof:placetype":"venue",
    "wof:superseded_by":[],
    "wof:supersedes":[],
    "wof:tags":[
        "accountant"
    ]
},
  "bbox": [6.586705,52.234928,6.586705,52.234928],
  "geometry": {"coordinates":[6.586705,52.234928],"type":"Point"}
}