{
  "id": 286430619,
  "type": "Feature",
  "properties": {
    "edtf:cessation":"u",
    "edtf:inception":"u",
    "geom:area":0.0,
    "geom:bbox":"5.206323,51.953037,5.206323,51.953037",
    "geom:latitude":51.953037,
    "geom:longitude":5.206323,
    "iso:country":"NL",
    "sg:address":"Eksterstr 22",
    "sg:city":"Culemborg",
    "sg:classifiers":[],
    "sg:orig_category":"Bedrijfsopleidingen",
    "sg:owner":"simplegeo",
    "sg:phone":"+31 345 533 228",
    "sg:postcode":"4105 WJ",
    "sg:province":"Gelderland",
    "src:geom":"simplegeo",
    "wof:belongsto":[
        85798491,
        85633337,
        101808619,
        85687043
    ],
    "wof:breaches":[],
    "wof:concordances":{
        "sg:id":"SG_2nCf1IVgFDwE9bWWra8Vt1_51.953037_5.206323@1306269969"
    },
    "wof:country":"NL",
    "wof:geomhash":"efe3440419856396321df261a4b23448",
    "wof:hierarchy":[
        {
            "continent_id":-1,
            "country_id":85633337,
            "locality_id":101808619,
            "neighbourhood_id":85798491,
            "region_id":85687043,
            "venue_id":286430619
        }
    ],
    "wof:id":286430619,
    "wof:lastmodified":1449017060,
    "wof:name":"Helder I D",
    "wof:parent_id":85798491,
    "wof:placetype":"venue",
    "wof:superseded_by":[],
    "wof:supersedes":[],
    "wof:tags":[]
},
  "bbox": [5.206323,51.953037,5.206323,51.953037],
  "geometry": {"coordinates":[5.206323,51.953037],"type":"Point"}
}