{
  "id": 236694219,
  "type": "Feature",
  "properties": {
    "edtf:cessation":"u",
    "edtf:inception":"u",
    "geom:area":0.0,
    "geom:bbox":"6.131709,52.525932,6.131709,52.525932",
    "geom:latitude":52.525932,
    "geom:longitude":6.131709,
    "iso:country":"NL",
    "sg:address":"Schrevenwg 14",
    "sg:city":"Zwolle",
    "sg:classifiers":[],
    "sg:orig_category":"Autolakken",
    "sg:owner":"simplegeo",
    "sg:phone":"+31 38 452 7500",
    "sg:postcode":"8024 HA",
    "sg:province":"NL.08",
    "sg:website":"http://www.glasuritnet.com/glasurit/",
    "src:geom":"simplegeo",
    "wof:belongsto":[
        85797453,
        85633337,
        85687045
    ],
    "wof:breaches":[],
    "wof:concordances":{
        "sg:id":"SG_5tEizO30vVojguzfywJLLH_52.525932_6.131709@1306269940"
    },
    "wof:country":"NL",
    "wof:geomhash":"f3c6be342f3d7daf9508f78c2b982071",
    "wof:hierarchy":[
        {
            "continent_id":-1,
            "country_id":85633337,
            "locality_id":-1,
            "neighbourhood_id":85797453,
            "region_id":85687045,
            "venue_id":236694219
        }
    ],
    "wof:id":236694219,
    "wof:lastmodified":1449002397,
    "wof:name":"Glasurit",
    "wof:parent_id":85797453,
    "wof:placetype":"venue",
    "wof:superseded_by":[],
    "wof:supersedes":[],
    "wof:tags":[]
},
  "bbox": [6.131709,52.525932,6.131709,52.525932],
  "geometry": {"coordinates":[6.131709,52.525932],"type":"Point"}
}