{
  "id": 320065487,
  "type": "Feature",
  "properties": {
    "edtf:cessation":"u",
    "edtf:inception":"u",
    "geom:area":0.0,
    "geom:bbox":"5.219421,52.349873,5.219421,52.349873",
    "geom:latitude":52.349873,
    "geom:longitude":5.219421,
    "iso:country":"NL",
    "sg:address":"De Steiger 21",
    "sg:city":"Almere",
    "sg:classifiers":[
        {
            "category":"Retail",
            "subcategory":"Auto Repair",
            "type":"Services"
        }
    ],
    "sg:owner":"simplegeo",
    "sg:phone":"+31 36 534 9911",
    "sg:postcode":"1351 AB",
    "sg:province":"Flevoland",
    "sg:tags":[
        "garage"
    ],
    "sg:website":"http://www.dorestad.nl",
    "src:geom":"simplegeo",
    "wof:belongsto":[
        85633337,
        101807237,
        85687049
    ],
    "wof:breaches":[],
    "wof:concordances":{
        "sg:id":"SG_4xhu4pP7xylpmUFXdkuPAr_52.349873_5.219421@1306269994"
    },
    "wof:country":"NL",
    "wof:geomhash":"efbd7172fe87585810a698745c5f18cc",
    "wof:hierarchy":[
        {
            "continent_id":-1,
            "country_id":85633337,
            "locality_id":101807237,
            "neighbourhood_id":-1,
            "region_id":85687049,
            "venue_id":320065487
        }
    ],
    "wof:id":320065487,
    "wof:lastmodified":1449014921,
    "wof:name":"Dorestad",
    "wof:parent_id":-1,
    "wof:placetype":"venue",
    "wof:superseded_by":[],
    "wof:supersedes":[],
    "wof:tags":[
        "garage"
    ]
},
  "bbox": [5.219421,52.349873,5.219421,52.349873],
  "geometry": {"coordinates":[5.219421,52.349873],"type":"Point"}
}