{
  "id": 303801771,
  "type": "Feature",
  "properties": {
    "edtf:cessation":"u",
    "edtf:inception":"u",
    "geom:area":0.0,
    "geom:bbox":"5.023679,51.525818,5.023679,51.525818",
    "geom:latitude":51.525818,
    "geom:longitude":5.023679,
    "iso:country":"NL",
    "sg:address":"Dorpstr 20",
    "sg:city":"Riel",
    "sg:classifiers":[],
    "sg:orig_category":"Nagelstudio'S",
    "sg:owner":"simplegeo",
    "sg:phone":"+31 13 518 2315",
    "sg:postcode":"5133 AG",
    "sg:province":"Noord-Brabant",
    "src:geom":"simplegeo",
    "wof:belongsto":[
        85797287,
        85633337,
        85687035
    ],
    "wof:breaches":[],
    "wof:concordances":{
        "sg:id":"SG_24VoOdyemGyiUFja7ei83d_51.525818_5.023679@1306269988"
    },
    "wof:country":"NL",
    "wof:geomhash":"568029f3ee8b76f5be0dfde1ba01e7c5",
    "wof:hierarchy":[
        {
            "continent_id":-1,
            "country_id":85633337,
            "locality_id":-1,
            "neighbourhood_id":85797287,
            "region_id":85687035,
            "venue_id":303801771
        }
    ],
    "wof:id":303801771,
    "wof:lastmodified":1449000133,
    "wof:name":"Riel Art Nails",
    "wof:parent_id":85797287,
    "wof:placetype":"venue",
    "wof:superseded_by":[],
    "wof:supersedes":[],
    "wof:tags":[]
},
  "bbox": [5.023679,51.525818,5.023679,51.525818],
  "geometry": {"coordinates":[5.023679,51.525818],"type":"Point"}
}