{
  "id": 270275761,
  "type": "Feature",
  "properties": {
    "edtf:cessation":"u",
    "edtf:inception":"u",
    "geom:area":0.0,
    "geom:bbox":"4.976907,52.267815,4.976907,52.267815",
    "geom:latitude":52.267815,
    "geom:longitude":4.976907,
    "iso:country":"NL",
    "sg:address":"Sandbergstraat 14",
    "sg:city":"Abcoude",
    "sg:classifiers":[],
    "sg:orig_category":"Fruit And Groenten Gh",
    "sg:owner":"simplegeo",
    "sg:phone":"+31 294 283 190",
    "sg:postcode":"1391 EL",
    "sg:province":"North Holland",
    "src:geom":"simplegeo",
    "wof:belongsto":[
        85633337,
        101754595,
        85687039
    ],
    "wof:breaches":[],
    "wof:concordances":{
        "sg:id":"SG_2SoAjZRKGEtVhbIBDx7EZz_52.267815_4.976907@1306269964"
    },
    "wof:country":"NL",
    "wof:geomhash":"95683454140cc7f4bd218e9610291e92",
    "wof:hierarchy":[
        {
            "continent_id":-1,
            "country_id":85633337,
            "locality_id":101754595,
            "neighbourhood_id":-1,
            "region_id":85687039,
            "venue_id":270275761
        }
    ],
    "wof:id":270275761,
    "wof:lastmodified":1449009409,
    "wof:name":"Firma G.A. Scholte",
    "wof:parent_id":-1,
    "wof:placetype":"venue",
    "wof:superseded_by":[],
    "wof:supersedes":[],
    "wof:tags":[]
},
  "bbox": [4.976907,52.267815,4.976907,52.267815],
  "geometry": {"coordinates":[4.976907,52.267815],"type":"Point"}
}