{
  "id": 320682223,
  "type": "Feature",
  "properties": {
    "edtf:cessation":"u",
    "edtf:inception":"u",
    "geom:area":0.0,
    "geom:bbox":"4.77592,51.999866,4.77592,51.999866",
    "geom:latitude":51.999866,
    "geom:longitude":4.77592,
    "iso:country":"NL",
    "sg:address":"Concordiapln 3",
    "sg:city":"Haastrecht",
    "sg:classifiers":[],
    "sg:orig_category":"Ziekenhuizen, Sanatoria, Verpleeghuizen",
    "sg:owner":"simplegeo",
    "sg:phone":"+31 182 502 399",
    "sg:postcode":"2851 VV",
    "sg:province":"Zuid-Holland",
    "src:geom":"simplegeo",
    "wof:belongsto":[
        85633337,
        101808079,
        85687041
    ],
    "wof:breaches":[],
    "wof:concordances":{
        "sg:id":"SG_66KV8mDOQkDhArWwOkdnMx_51.999866_4.775920@1306270001"
    },
    "wof:country":"NL",
    "wof:geomhash":"fc17ced62a95d35ff5ac68a072ddda1a",
    "wof:hierarchy":[
        {
            "continent_id":-1,
            "country_id":85633337,
            "locality_id":101808079,
            "neighbourhood_id":-1,
            "region_id":85687041,
            "venue_id":320682223
        }
    ],
    "wof:id":320682223,
    "wof:lastmodified":1449011909,
    "wof:name":"Vliststaete",
    "wof:parent_id":-1,
    "wof:placetype":"venue",
    "wof:superseded_by":[],
    "wof:supersedes":[],
    "wof:tags":[]
},
  "bbox": [4.77592,51.999866,4.77592,51.999866],
  "geometry": {"coordinates":[4.77592,51.999866],"type":"Point"}
}