{
  "id": 320725255,
  "type": "Feature",
  "properties": {
    "edtf:cessation":"u",
    "edtf:inception":"u",
    "geom:area":0.0,
    "geom:bbox":"5.198646,52.364223,5.198646,52.364223",
    "geom:latitude":52.364223,
    "geom:longitude":5.198646,
    "iso:country":"NL",
    "sg:address":"Wagnerstr 18",
    "sg:city":"Almere",
    "sg:classifiers":[],
    "sg:orig_category":"Zonweringen",
    "sg:owner":"simplegeo",
    "sg:phone":"+31 36 536 2695",
    "sg:postcode":"1323 CM",
    "sg:province":"NL.",
    "src:geom":"simplegeo",
    "wof:belongsto":[
        85633337,
        101751877,
        85687049
    ],
    "wof:breaches":[],
    "wof:concordances":{
        "sg:id":"SG_0IDG49fZ2HQZseWAvf5Tap_52.364223_5.198646@1306270001"
    },
    "wof:country":"NL",
    "wof:geomhash":"006fb590060b7bb6442a78b8db17e461",
    "wof:hierarchy":[
        {
            "continent_id":-1,
            "country_id":85633337,
            "locality_id":101751877,
            "neighbourhood_id":-1,
            "region_id":85687049,
            "venue_id":320725255
        }
    ],
    "wof:id":320725255,
    "wof:lastmodified":1449012172,
    "wof:name":"Pege",
    "wof:parent_id":-1,
    "wof:placetype":"venue",
    "wof:superseded_by":[],
    "wof:supersedes":[],
    "wof:tags":[]
},
  "bbox": [5.198646,52.364223,5.198646,52.364223],
  "geometry": {"coordinates":[5.198646,52.364223],"type":"Point"}
}