{
  "id": 219155099,
  "type": "Feature",
  "properties": {
    "edtf:cessation":"u",
    "edtf:inception":"u",
    "geom:area":0.0,
    "geom:bbox":"4.976771,52.516937,4.976771,52.516937",
    "geom:latitude":52.516937,
    "geom:longitude":4.976771,
    "iso:country":"NL",
    "sg:address":"Nyverheidswg 16",
    "sg:city":"Purmerend",
    "sg:classifiers":[],
    "sg:orig_category":"Lasbedrijven",
    "sg:owner":"simplegeo",
    "sg:phone":"+31 299 660 053",
    "sg:postcode":"1442 LD",
    "sg:province":"Noord-Holland",
    "src:geom":"simplegeo",
    "wof:belongsto":[
        85859941,
        85633337,
        101751889,
        85687053
    ],
    "wof:breaches":[],
    "wof:concordances":{
        "sg:id":"SG_6JLIGOBqkXUjMa38YztSWe_52.516937_4.976771@1306269923"
    },
    "wof:country":"NL",
    "wof:geomhash":"649a20c0567a6a9acf4440a70368376b",
    "wof:hierarchy":[
        {
            "continent_id":-1,
            "country_id":85633337,
            "locality_id":101751889,
            "neighbourhood_id":85859941,
            "region_id":85687053,
            "venue_id":219155099
        }
    ],
    "wof:id":219155099,
    "wof:lastmodified":1449073308,
    "wof:name":"Beekelaar",
    "wof:parent_id":85859941,
    "wof:placetype":"venue",
    "wof:superseded_by":[],
    "wof:supersedes":[],
    "wof:tags":[]
},
  "bbox": [4.976771,52.516937,4.976771,52.516937],
  "geometry": {"coordinates":[4.976771,52.516937],"type":"Point"}
}