{
  "id": 236841935,
  "type": "Feature",
  "properties": {
    "edtf:cessation":"u",
    "edtf:inception":"u",
    "geom:area":0.0,
    "geom:bbox":"3.843832,51.308399,3.843832,51.308399",
    "geom:latitude":51.308399,
    "geom:longitude":3.843832,
    "iso:country":"NL",
    "sg:address":"Mr F J Haarmanwg 32A",
    "sg:city":"Terneuzen",
    "sg:classifiers":[],
    "sg:orig_category":"Autoruiten",
    "sg:owner":"simplegeo",
    "sg:phone":"+31 115 648 888",
    "sg:postcode":"4538 AS",
    "sg:province":"Zeeland",
    "src:geom":"simplegeo",
    "wof:belongsto":[
        85797471,
        85633337,
        101809831,
        85687037
    ],
    "wof:breaches":[],
    "wof:concordances":{
        "sg:id":"SG_10xpF7Z7I2tubwNHCQpz4T_51.308399_3.843832@1306269941"
    },
    "wof:country":"NL",
    "wof:geomhash":"278db7439618c77bd94b62132191b077",
    "wof:hierarchy":[
        {
            "continent_id":-1,
            "country_id":85633337,
            "locality_id":101809831,
            "neighbourhood_id":85797471,
            "region_id":85687037,
            "venue_id":236841935
        }
    ],
    "wof:id":236841935,
    "wof:lastmodified":1449002197,
    "wof:name":"Autoglas Terneuzen",
    "wof:parent_id":85797471,
    "wof:placetype":"venue",
    "wof:superseded_by":[],
    "wof:supersedes":[],
    "wof:tags":[]
},
  "bbox": [3.843832,51.308399,3.843832,51.308399],
  "geometry": {"coordinates":[3.843832,51.308399],"type":"Point"}
}