{
  "id": 202444231,
  "type": "Feature",
  "properties": {
    "edtf:cessation":"u",
    "edtf:inception":"u",
    "geom:area":0.0,
    "geom:bbox":"4.849125,52.60535,4.849125,52.60535",
    "geom:latitude":52.60535,
    "geom:longitude":4.849125,
    "iso:country":"NL",
    "sg:address":"Noordervaart 32",
    "sg:city":"Stompetoren",
    "sg:classifiers":[],
    "sg:orig_category":"Verhuur Bouwmachines",
    "sg:owner":"simplegeo",
    "sg:phone":"+31 72 503 9594",
    "sg:postcode":"1841 HA",
    "sg:province":"Noord-Holland",
    "src:geom":"simplegeo",
    "wof:belongsto":[
        85633337,
        85687053
    ],
    "wof:breaches":[],
    "wof:concordances":{
        "sg:id":"SG_1aFTiktj4HKSRBGAclpSL3_52.605350_4.849125@1306269915"
    },
    "wof:country":"NL",
    "wof:geomhash":"449619e437cac001e04da6ac7042388f",
    "wof:hierarchy":[
        {
            "continent_id":-1,
            "country_id":85633337,
            "locality_id":-1,
            "neighbourhood_id":-1,
            "region_id":85687053,
            "venue_id":202444231
        }
    ],
    "wof:id":202444231,
    "wof:lastmodified":1449062309,
    "wof:name":"Appelman Kraanverhuur",
    "wof:parent_id":-1,
    "wof:placetype":"venue",
    "wof:superseded_by":[],
    "wof:supersedes":[],
    "wof:tags":[]
},
  "bbox": [4.849125,52.60535,4.849125,52.60535],
  "geometry": {"coordinates":[4.849125,52.60535],"type":"Point"}
}