{
  "id": 320287641,
  "type": "Feature",
  "properties": {
    "edtf:cessation":"u",
    "edtf:inception":"u",
    "geom:area":0.0,
    "geom:bbox":"-77.235214,38.312599,-77.235214,38.312599",
    "geom:latitude":38.312599,
    "geom:longitude":-77.235214,
    "iso:country":"NL",
    "sg:address":"De Bongerd 26",
    "sg:city":"Oss",
    "sg:classifiers":[],
    "sg:orig_category":"Glazenwasserijen",
    "sg:owner":"simplegeo",
    "sg:phone":"+31 412 625 346",
    "sg:postcode":"5345 JT",
    "sg:province":"Noord-Brabant",
    "src:geom":"simplegeo",
    "wof:belongsto":[
        85633793,
        85688747
    ],
    "wof:breaches":[],
    "wof:concordances":{
        "sg:id":"SG_3MsGmuiF7vmnY0sfgxAKxC_38.312599_-77.235214@1306269997"
    },
    "wof:country":"NL",
    "wof:geomhash":"23a57a094c9f8217d6c22a5f78a22dd9",
    "wof:hierarchy":[
        {
            "continent_id":-1,
            "country_id":85633793,
            "locality_id":-1,
            "neighbourhood_id":-1,
            "region_id":85688747,
            "venue_id":320287641
        }
    ],
    "wof:id":320287641,
    "wof:lastmodified":1449011473,
    "wof:name":"Florisant",
    "wof:parent_id":-1,
    "wof:placetype":"venue",
    "wof:superseded_by":[],
    "wof:supersedes":[],
    "wof:tags":[]
},
  "bbox": [-77.235214,38.312599,-77.235214,38.312599],
  "geometry": {"coordinates":[-77.235214,38.312599],"type":"Point"}
}