{
  "id": 320724213,
  "type": "Feature",
  "properties": {
    "edtf:cessation":"u",
    "edtf:inception":"u",
    "geom:area":0.0,
    "geom:bbox":"6.097699,52.591915,6.097699,52.591915",
    "geom:latitude":52.591915,
    "geom:longitude":6.097699,
    "iso:country":"NL",
    "sg:address":"Mulertstr 18",
    "sg:city":"Hasselt",
    "sg:classifiers":[],
    "sg:orig_category":"Zonweringen",
    "sg:owner":"simplegeo",
    "sg:phone":"+31 38 477 1669",
    "sg:postcode":"8061 CE",
    "sg:province":"NL.08",
    "src:geom":"simplegeo",
    "wof:belongsto":[
        85633337,
        101807183,
        85687045
    ],
    "wof:breaches":[],
    "wof:concordances":{
        "sg:id":"SG_48tgyYmNa5j2BUSjQ8jTDf_52.591915_6.097699@1306270001"
    },
    "wof:country":"NL",
    "wof:geomhash":"48fc83ca4016d8fb8bad1dc943d35c9d",
    "wof:hierarchy":[
        {
            "continent_id":-1,
            "country_id":85633337,
            "locality_id":101807183,
            "neighbourhood_id":-1,
            "region_id":85687045,
            "venue_id":320724213
        }
    ],
    "wof:id":320724213,
    "wof:lastmodified":1449014887,
    "wof:name":"Nijmeijer",
    "wof:parent_id":-1,
    "wof:placetype":"venue",
    "wof:superseded_by":[],
    "wof:supersedes":[],
    "wof:tags":[]
},
  "bbox": [6.097699,52.591915,6.097699,52.591915],
  "geometry": {"coordinates":[6.097699,52.591915],"type":"Point"}
}