{
  "id": 320158477,
  "type": "Feature",
  "properties": {
    "edtf:cessation":"u",
    "edtf:inception":"u",
    "geom:area":0.0,
    "geom:bbox":"5.950155,53.328079,5.950155,53.328079",
    "geom:latitude":53.328079,
    "geom:longitude":5.950155,
    "iso:country":"NL",
    "sg:address":"De Tange 1",
    "sg:city":"Raard",
    "sg:classifiers":[],
    "sg:orig_category":"Geluidsinstallaties - Verhuur",
    "sg:owner":"simplegeo",
    "sg:phone":"+31 519 292 889",
    "sg:postcode":"9155 AL",
    "sg:province":"Provincie Friesland",
    "src:geom":"simplegeo",
    "wof:belongsto":[
        85633337,
        85687055
    ],
    "wof:breaches":[],
    "wof:concordances":{
        "sg:id":"SG_0I9No7GkRM4kG8EBJ2wGXI_53.328079_5.950155@1306269995"
    },
    "wof:country":"NL",
    "wof:geomhash":"810fc37c4135fb39e60a5c68cca50500",
    "wof:hierarchy":[
        {
            "continent_id":-1,
            "country_id":85633337,
            "locality_id":-1,
            "neighbourhood_id":-1,
            "region_id":85687055,
            "venue_id":320158477
        }
    ],
    "wof:id":320158477,
    "wof:lastmodified":1449013759,
    "wof:name":"Action Driver",
    "wof:parent_id":-1,
    "wof:placetype":"venue",
    "wof:superseded_by":[],
    "wof:supersedes":[],
    "wof:tags":[]
},
  "bbox": [5.950155,53.328079,5.950155,53.328079],
  "geometry": {"coordinates":[5.950155,53.328079],"type":"Point"}
}