{
  "id": 202856617,
  "type": "Feature",
  "properties": {
    "edtf:cessation":"u",
    "edtf:inception":"u",
    "geom:area":0.0,
    "geom:bbox":"5.611836,51.43792,5.611836,51.43792",
    "geom:latitude":51.43792,
    "geom:longitude":5.611836,
    "iso:country":"NL",
    "sg:address":"Suylke 3",
    "sg:city":"Mierlo",
    "sg:classifiers":[],
    "sg:orig_category":"Vertaalbureaus",
    "sg:owner":"simplegeo",
    "sg:phone":"+31 492 432 112",
    "sg:postcode":"5731 CH",
    "sg:province":"North Brabant",
    "src:geom":"simplegeo",
    "wof:belongsto":[
        85797807,
        85633337,
        85687035
    ],
    "wof:breaches":[],
    "wof:concordances":{
        "sg:id":"SG_27ERiHTXOKIruMugK0PH2P_51.437920_5.611836@1306269919"
    },
    "wof:country":"NL",
    "wof:geomhash":"658e4804790ae6e3a92dfdc3374ee113",
    "wof:hierarchy":[
        {
            "continent_id":-1,
            "country_id":85633337,
            "locality_id":-1,
            "neighbourhood_id":85797807,
            "region_id":85687035,
            "venue_id":202856617
        }
    ],
    "wof:id":202856617,
    "wof:lastmodified":1449060842,
    "wof:name":"Write-On",
    "wof:parent_id":85797807,
    "wof:placetype":"venue",
    "wof:superseded_by":[],
    "wof:supersedes":[],
    "wof:tags":[]
},
  "bbox": [5.611836,51.43792,5.611836,51.43792],
  "geometry": {"coordinates":[5.611836,51.43792],"type":"Point"}
}