{
  "id": 236309785,
  "type": "Feature",
  "properties": {
    "edtf:cessation":"u",
    "edtf:inception":"u",
    "geom:area":0.0,
    "geom:bbox":"4.785631,51.823505,4.785631,51.823505",
    "geom:latitude":51.823505,
    "geom:longitude":4.785631,
    "iso:country":"NL",
    "sg:address":"Lysterwg 31",
    "sg:city":"Sliedrecht",
    "sg:classifiers":[
        {
            "category":"Real Estate",
            "subcategory":"Real Estate Operator",
            "type":"Services"
        }
    ],
    "sg:owner":"simplegeo",
    "sg:phone":"+31 184 414 355",
    "sg:postcode":"3362 BB",
    "sg:province":"Zuid-Holland",
    "sg:tags":[
        "appartementen",
        "en",
        "flat"
    ],
    "src:geom":"simplegeo",
    "wof:belongsto":[
        85633337,
        101754745,
        85687041
    ],
    "wof:breaches":[],
    "wof:concordances":{
        "sg:id":"SG_0GAriYreTStjxHPdAGfAUT_51.823505_4.785631@1306269936"
    },
    "wof:country":"NL",
    "wof:geomhash":"e65b43d0642541ca410ac3887e65acda",
    "wof:hierarchy":[
        {
            "continent_id":-1,
            "country_id":85633337,
            "locality_id":101754745,
            "neighbourhood_id":-1,
            "region_id":85687041,
            "venue_id":236309785
        }
    ],
    "wof:id":236309785,
    "wof:lastmodified":1449002228,
    "wof:name":"Drechtstreek",
    "wof:parent_id":-1,
    "wof:placetype":"venue",
    "wof:superseded_by":[],
    "wof:supersedes":[],
    "wof:tags":[
        "appartementen",
        "en",
        "flat"
    ]
},
  "bbox": [4.785631,51.823505,4.785631,51.823505],
  "geometry": {"coordinates":[4.785631,51.823505],"type":"Point"}
}