{
  "id": 185753319,
  "type": "Feature",
  "properties": {
    "edtf:cessation":"u",
    "edtf:inception":"u",
    "geom:area":0.0,
    "geom:bbox":"6.891748,53.118401,6.891748,53.118401",
    "geom:latitude":53.118401,
    "geom:longitude":6.891748,
    "iso:country":"NL",
    "sg:address":"Transportweg 52",
    "sg:city":"Veendam",
    "sg:classifiers":[],
    "sg:orig_category":"Keukens",
    "sg:owner":"simplegeo",
    "sg:phone":"+31 598 621 679",
    "sg:postcode":"9645 KX",
    "sg:province":"Groningen",
    "sg:website":"http://www.robhuisman.nl",
    "src:geom":"simplegeo",
    "wof:belongsto":[
        85633337,
        101838023,
        85687059
    ],
    "wof:breaches":[],
    "wof:concordances":{
        "sg:id":"SG_3KoeWk6K30If6LyucnNafI_53.118401_6.891748@1306269907"
    },
    "wof:country":"NL",
    "wof:geomhash":"e16e73460628e097324bf775dcc8df4f",
    "wof:hierarchy":[
        {
            "continent_id":-1,
            "country_id":85633337,
            "locality_id":101838023,
            "neighbourhood_id":-1,
            "region_id":85687059,
            "venue_id":185753319
        }
    ],
    "wof:id":185753319,
    "wof:lastmodified":1449006792,
    "wof:name":"Huisman Keukens En Kasten, Rob",
    "wof:parent_id":-1,
    "wof:placetype":"venue",
    "wof:superseded_by":[],
    "wof:supersedes":[],
    "wof:tags":[]
},
  "bbox": [6.891748,53.118401,6.891748,53.118401],
  "geometry": {"coordinates":[6.891748,53.118401],"type":"Point"}
}