{
  "id": 185687211,
  "type": "Feature",
  "properties": {
    "edtf:cessation":"u",
    "edtf:inception":"u",
    "geom:area":0.0,
    "geom:bbox":"5.122244,52.634541,5.122244,52.634541",
    "geom:latitude":52.634541,
    "geom:longitude":5.122244,
    "iso:country":"NL",
    "sg:address":"Dorpswg 107",
    "sg:city":"Schellinkhout",
    "sg:classifiers":[
        {
            "category":"Animal Shelter",
            "subcategory":"",
            "type":"Public Place"
        }
    ],
    "sg:owner":"simplegeo",
    "sg:phone":"+31 229 501 885",
    "sg:postcode":"1697 KG",
    "sg:province":"North Holland",
    "sg:tags":[
        "kennel"
    ],
    "sg:website":"http://www.border-collie.nl",
    "src:geom":"simplegeo",
    "wof:belongsto":[
        85633337,
        85687053
    ],
    "wof:breaches":[],
    "wof:concordances":{
        "sg:id":"SG_55NbX2ZRF5FgQPIlWT7eqX_52.634541_5.122244@1306269907"
    },
    "wof:country":"NL",
    "wof:geomhash":"84eb19a5b0999ae6d11885779559d1ca",
    "wof:hierarchy":[
        {
            "continent_id":-1,
            "country_id":85633337,
            "locality_id":-1,
            "neighbourhood_id":-1,
            "region_id":85687053,
            "venue_id":185687211
        }
    ],
    "wof:id":185687211,
    "wof:lastmodified":1449007055,
    "wof:name":"Llanfyllins",
    "wof:parent_id":-1,
    "wof:placetype":"venue",
    "wof:superseded_by":[],
    "wof:supersedes":[],
    "wof:tags":[
        "kennel"
    ]
},
  "bbox": [5.122244,52.634541,5.122244,52.634541],
  "geometry": {"coordinates":[5.122244,52.634541],"type":"Point"}
}