{
  "id": 236873477,
  "type": "Feature",
  "properties": {
    "edtf:cessation":"u",
    "edtf:inception":"u",
    "geom:area":0.0,
    "geom:bbox":"4.431608,52.151138,4.431608,52.151138",
    "geom:latitude":52.151138,
    "geom:longitude":4.431608,
    "iso:country":"NL",
    "sg:address":"Hangar 3",
    "sg:city":"Wassenaar",
    "sg:classifiers":[],
    "sg:orig_category":"Autoschade- Herstelbedrijven",
    "sg:owner":"simplegeo",
    "sg:phone":"+31 70 517 8776",
    "sg:postcode":"2241 TZ",
    "sg:province":"Zuid-Holland",
    "src:geom":"simplegeo",
    "wof:belongsto":[
        85797425,
        85633337,
        101754719,
        85687041
    ],
    "wof:breaches":[],
    "wof:concordances":{
        "sg:id":"SG_3p2bWv4ruuRJSIiQxf8Gsd_52.151138_4.431608@1306269941"
    },
    "wof:country":"NL",
    "wof:geomhash":"1bab0d571ecf6d3d3ae1cef9472a8199",
    "wof:hierarchy":[
        {
            "continent_id":-1,
            "country_id":85633337,
            "locality_id":101754719,
            "neighbourhood_id":85797425,
            "region_id":85687041,
            "venue_id":236873477
        }
    ],
    "wof:id":236873477,
    "wof:lastmodified":1449002194,
    "wof:name":"Maaldrift",
    "wof:parent_id":85797425,
    "wof:placetype":"venue",
    "wof:superseded_by":[],
    "wof:supersedes":[],
    "wof:tags":[]
},
  "bbox": [4.431608,52.151138,4.431608,52.151138],
  "geometry": {"coordinates":[4.431608,52.151138],"type":"Point"}
}