{
  "id": 236683007,
  "type": "Feature",
  "properties": {
    "edtf:cessation":"u",
    "edtf:inception":"u",
    "geom:area":0.0,
    "geom:bbox":"5.68343,51.469692,5.68343,51.469692",
    "geom:latitude":51.469692,
    "geom:longitude":5.68343,
    "iso:country":"NL",
    "sg:address":"Buitendijk 4",
    "sg:city":"Helmond",
    "sg:classifiers":[],
    "sg:orig_category":"Autokeuringen",
    "sg:owner":"simplegeo",
    "sg:phone":"+31 492 534 349",
    "sg:postcode":"5705 CD",
    "sg:province":"North Brabant",
    "src:geom":"simplegeo",
    "wof:belongsto":[
        85633337,
        101751805,
        85687035
    ],
    "wof:breaches":[],
    "wof:concordances":{
        "sg:id":"SG_0ZJ38cZu78cXzkwjtuG1JP_51.469692_5.683430@1306269940"
    },
    "wof:country":"NL",
    "wof:geomhash":"fec537f237b5487d7e340809034a59a9",
    "wof:hierarchy":[
        {
            "continent_id":-1,
            "country_id":85633337,
            "locality_id":101751805,
            "neighbourhood_id":-1,
            "region_id":85687035,
            "venue_id":236683007
        }
    ],
    "wof:id":236683007,
    "wof:lastmodified":1449002747,
    "wof:name":"Helmondse Motoren Revisie Bv",
    "wof:parent_id":-1,
    "wof:placetype":"venue",
    "wof:superseded_by":[],
    "wof:supersedes":[],
    "wof:tags":[]
},
  "bbox": [5.68343,51.469692,5.68343,51.469692],
  "geometry": {"coordinates":[5.68343,51.469692],"type":"Point"}
}