{
  "id": 336717701,
  "type": "Feature",
  "properties": {
    "edtf:cessation":"u",
    "edtf:inception":"u",
    "geom:area":0.0,
    "geom:bbox":"6.131176,52.79248,6.131176,52.79248",
    "geom:latitude":52.79248,
    "geom:longitude":6.131176,
    "iso:country":"NL",
    "sg:address":"Het Schar 7",
    "sg:city":"Steenwijk",
    "sg:classifiers":[
        {
            "category":"Professional",
            "subcategory":"Accounting & Tax Preparation",
            "type":"Services"
        }
    ],
    "sg:owner":"simplegeo",
    "sg:phone":"+31 521 518 236",
    "sg:postcode":"8332 CL",
    "sg:province":"Overijssel",
    "sg:tags":[
        "accountant"
    ],
    "src:geom":"simplegeo",
    "wof:belongsto":[
        85798191,
        85633337,
        85687045
    ],
    "wof:breaches":[],
    "wof:concordances":{
        "sg:id":"SG_4SYFAib9tYRnOeoFWMFifg_52.792480_6.131176@1306270005"
    },
    "wof:country":"NL",
    "wof:geomhash":"9c3ca55c0ab3a0181cfe591d83d76fda",
    "wof:hierarchy":[
        {
            "continent_id":-1,
            "country_id":85633337,
            "locality_id":-1,
            "neighbourhood_id":85798191,
            "region_id":85687045,
            "venue_id":336717701
        }
    ],
    "wof:id":336717701,
    "wof:lastmodified":1448996942,
    "wof:name":"Efficient Data Service",
    "wof:parent_id":85798191,
    "wof:placetype":"venue",
    "wof:superseded_by":[],
    "wof:supersedes":[],
    "wof:tags":[
        "accountant"
    ]
},
  "bbox": [6.131176,52.79248,6.131176,52.79248],
  "geometry": {"coordinates":[6.131176,52.79248],"type":"Point"}
}