{
  "id": 286696343,
  "type": "Feature",
  "properties": {
    "edtf:cessation":"u",
    "edtf:inception":"u",
    "geom:area":0.0,
    "geom:bbox":"5.096589,51.541504,5.096589,51.541504",
    "geom:latitude":51.541504,
    "geom:longitude":5.096589,
    "iso:country":"NL",
    "sg:address":"Oude Hilvarenb Wg 2",
    "sg:city":"Tilburg",
    "sg:classifiers":[],
    "sg:orig_category":"Beveiliging",
    "sg:owner":"simplegeo",
    "sg:phone":"+31 13 581 0700",
    "sg:postcode":"5022 EN",
    "sg:province":"Noord-Brabant",
    "src:geom":"simplegeo",
    "wof:belongsto":[
        85797591,
        85633337,
        101751817,
        85687035
    ],
    "wof:breaches":[],
    "wof:concordances":{
        "sg:id":"SG_3kO1zAyBVbfslkBoYsuCwX_51.541504_5.096589@1306269972"
    },
    "wof:country":"NL",
    "wof:geomhash":"4b4f0165edfbb03cce3b5bcc77c4beb7",
    "wof:hierarchy":[
        {
            "continent_id":-1,
            "country_id":85633337,
            "locality_id":101751817,
            "neighbourhood_id":85797591,
            "region_id":85687035,
            "venue_id":286696343
        }
    ],
    "wof:id":286696343,
    "wof:lastmodified":1449015396,
    "wof:name":"Maas Technisch Advies Buro",
    "wof:parent_id":85797591,
    "wof:placetype":"venue",
    "wof:superseded_by":[],
    "wof:supersedes":[],
    "wof:tags":[]
},
  "bbox": [5.096589,51.541504,5.096589,51.541504],
  "geometry": {"coordinates":[5.096589,51.541504],"type":"Point"}
}