{
  "id": 319975573,
  "type": "Feature",
  "properties": {
    "edtf:cessation":"u",
    "edtf:inception":"u",
    "geom:area":0.0,
    "geom:bbox":"6.85558,52.1936,6.85558,52.1936",
    "geom:latitude":52.1936,
    "geom:longitude":6.85558,
    "iso:country":"NL",
    "sg:address":"Kevelhamhoek 83",
    "sg:city":"Enschede",
    "sg:classifiers":[],
    "sg:orig_category":"Huishoudelijke Apparaten En Artikelen",
    "sg:owner":"simplegeo",
    "sg:phone":"+31 53 477 0444",
    "sg:postcode":"7546 EN",
    "sg:province":"Overijssel",
    "src:geom":"simplegeo",
    "wof:belongsto":[
        85798259,
        85633337,
        101751871,
        85687045
    ],
    "wof:breaches":[],
    "wof:concordances":{
        "sg:id":"SG_1MxfC56E7wzL6z5j8Llfh4_52.193600_6.855580@1306269993"
    },
    "wof:country":"NL",
    "wof:geomhash":"bd89944cb35117e0791173a47536a6ac",
    "wof:hierarchy":[
        {
            "continent_id":-1,
            "country_id":85633337,
            "locality_id":101751871,
            "neighbourhood_id":85798259,
            "region_id":85687045,
            "venue_id":319975573
        }
    ],
    "wof:id":319975573,
    "wof:lastmodified":1449024778,
    "wof:name":"Veelzijdige Winkel, De",
    "wof:parent_id":85798259,
    "wof:placetype":"venue",
    "wof:superseded_by":[],
    "wof:supersedes":[],
    "wof:tags":[]
},
  "bbox": [6.85558,52.1936,6.85558,52.1936],
  "geometry": {"coordinates":[6.85558,52.1936],"type":"Point"}
}