{
  "id": 236331727,
  "type": "Feature",
  "properties": {
    "edtf:cessation":"u",
    "edtf:inception":"u",
    "geom:area":0.0,
    "geom:bbox":"5.903115,51.986485,5.903115,51.986485",
    "geom:latitude":51.986485,
    "geom:longitude":5.903115,
    "iso:country":"NL",
    "sg:address":"Zypendaalsewg 25",
    "sg:city":"Arnhem",
    "sg:classifiers":[],
    "sg:orig_category":"Architecten En Architectenbureaus",
    "sg:owner":"simplegeo",
    "sg:phone":"+31 26 445 2451",
    "sg:postcode":"6814 CC",
    "sg:province":"Gelderland",
    "sg:website":"http://www.gaj.nl",
    "src:geom":"simplegeo",
    "wof:belongsto":[
        85797665,
        85633337,
        85687043
    ],
    "wof:breaches":[],
    "wof:concordances":{
        "sg:id":"SG_6JswmIsU3LHyjRw1Hh8Ntt_51.986485_5.903115@1306269936"
    },
    "wof:country":"NL",
    "wof:geomhash":"1f7e7c215aa7b7de05235f96535225bb",
    "wof:hierarchy":[
        {
            "continent_id":-1,
            "country_id":85633337,
            "locality_id":-1,
            "neighbourhood_id":85797665,
            "region_id":85687043,
            "venue_id":236331727
        }
    ],
    "wof:id":236331727,
    "wof:lastmodified":1449003695,
    "wof:name":"Gaj Architecten Bv",
    "wof:parent_id":85797665,
    "wof:placetype":"venue",
    "wof:superseded_by":[],
    "wof:supersedes":[],
    "wof:tags":[]
},
  "bbox": [5.903115,51.986485,5.903115,51.986485],
  "geometry": {"coordinates":[5.903115,51.986485],"type":"Point"}
}