{
  "id": 320786009,
  "type": "Feature",
  "properties": {
    "edtf:cessation":"u",
    "edtf:inception":"u",
    "geom:area":0.0,
    "geom:bbox":"4.729809,52.233219,4.729809,52.233219",
    "geom:latitude":52.233219,
    "geom:longitude":4.729809,
    "iso:country":"NL",
    "sg:address":"Herenwg 68",
    "sg:city":"Kudelstaart",
    "sg:classifiers":[],
    "sg:orig_category":"Jachthavens - Jachtwerven",
    "sg:owner":"simplegeo",
    "sg:phone":"+31 297 327 180",
    "sg:postcode":"1433 HB",
    "sg:province":"North Holland",
    "src:geom":"simplegeo",
    "wof:belongsto":[
        85633337,
        85687053
    ],
    "wof:breaches":[],
    "wof:concordances":{
        "sg:id":"SG_6vcVvIGeL2Qy98tRx3R5zF_52.233219_4.729809@1306270002"
    },
    "wof:country":"NL",
    "wof:geomhash":"f7f3d4da2c444bc05774dbc738e0e0ed",
    "wof:hierarchy":[
        {
            "continent_id":-1,
            "country_id":85633337,
            "locality_id":-1,
            "neighbourhood_id":-1,
            "region_id":85687053,
            "venue_id":320786009
        }
    ],
    "wof:id":320786009,
    "wof:lastmodified":1449011740,
    "wof:name":"Been, G D",
    "wof:parent_id":-1,
    "wof:placetype":"venue",
    "wof:superseded_by":[],
    "wof:supersedes":[],
    "wof:tags":[]
},
  "bbox": [4.729809,52.233219,4.729809,52.233219],
  "geometry": {"coordinates":[4.729809,52.233219],"type":"Point"}
}