{
  "id": 219213857,
  "type": "Feature",
  "properties": {
    "edtf:cessation":"u",
    "edtf:inception":"u",
    "geom:area":0.0,
    "geom:bbox":"4.90927,51.536602,4.90927,51.536602",
    "geom:latitude":51.536602,
    "geom:longitude":4.90927,
    "iso:country":"NL",
    "sg:address":"Chaamseweg 6",
    "sg:city":"Gilze",
    "sg:classifiers":[],
    "sg:orig_category":"Levende Dieren Gh",
    "sg:owner":"simplegeo",
    "sg:phone":"+31 161 451 700",
    "sg:postcode":"5126 NE",
    "sg:province":"North Brabant",
    "src:geom":"simplegeo",
    "wof:belongsto":[
        85633337,
        85687035
    ],
    "wof:breaches":[],
    "wof:concordances":{
        "sg:id":"SG_4annXV8R1tVEVPPwVBhcny_51.536602_4.909270@1306269924"
    },
    "wof:country":"NL",
    "wof:geomhash":"e236d32d716a06c51fce2a8dd7224613",
    "wof:hierarchy":[
        {
            "continent_id":-1,
            "country_id":85633337,
            "locality_id":-1,
            "neighbourhood_id":-1,
            "region_id":85687035,
            "venue_id":219213857
        }
    ],
    "wof:id":219213857,
    "wof:lastmodified":1449070415,
    "wof:name":"W. Van Boxel",
    "wof:parent_id":-1,
    "wof:placetype":"venue",
    "wof:superseded_by":[],
    "wof:supersedes":[],
    "wof:tags":[]
},
  "bbox": [4.90927,51.536602,4.90927,51.536602],
  "geometry": {"coordinates":[4.90927,51.536602],"type":"Point"}
}