{
  "id": 219223477,
  "type": "Feature",
  "properties": {
    "edtf:cessation":"u",
    "edtf:inception":"u",
    "geom:area":0.0,
    "geom:bbox":"4.453051,51.896164,4.453051,51.896164",
    "geom:latitude":51.896164,
    "geom:longitude":4.453051,
    "iso:country":"NL",
    "sg:address":"Sluisjesdk 102",
    "sg:city":"Rotterdam",
    "sg:classifiers":[],
    "sg:orig_category":"Levensmiddelen - Fabrieken En Groothandel",
    "sg:owner":"simplegeo",
    "sg:phone":"+31 10 429 3400",
    "sg:postcode":"3087 AJ",
    "sg:province":"South Holland",
    "src:geom":"simplegeo",
    "wof:belongsto":[
        85859771,
        85633337,
        101751843,
        85687041
    ],
    "wof:breaches":[],
    "wof:concordances":{
        "sg:id":"SG_5XlQx3M9tPDGLsrbmtLMBR_51.896164_4.453051@1306269924"
    },
    "wof:country":"NL",
    "wof:geomhash":"67f1b6e0c5845284284945d2b247fea7",
    "wof:hierarchy":[
        {
            "continent_id":-1,
            "country_id":85633337,
            "locality_id":101751843,
            "neighbourhood_id":85859771,
            "region_id":85687041,
            "venue_id":219223477
        }
    ],
    "wof:id":219223477,
    "wof:lastmodified":1449070626,
    "wof:name":"Swartberg Bv",
    "wof:parent_id":85859771,
    "wof:placetype":"venue",
    "wof:superseded_by":[],
    "wof:supersedes":[],
    "wof:tags":[]
},
  "bbox": [4.453051,51.896164,4.453051,51.896164],
  "geometry": {"coordinates":[4.453051,51.896164],"type":"Point"}
}