{
  "id": 236758217,
  "type": "Feature",
  "properties": {
    "edtf:cessation":"u",
    "edtf:inception":"u",
    "geom:area":0.0,
    "geom:bbox":"4.759408,52.669109,4.759408,52.669109",
    "geom:latitude":52.669109,
    "geom:longitude":4.759408,
    "iso:country":"NL",
    "sg:address":"De Kempenstr 1",
    "sg:city":"Alkmaar",
    "sg:classifiers":[],
    "sg:orig_category":"Autorijscholen",
    "sg:owner":"simplegeo",
    "sg:phone":"+31 72 561 5836",
    "sg:postcode":"1827 AG",
    "sg:province":"North Holland",
    "src:geom":"simplegeo",
    "wof:belongsto":[
        85633337,
        101751887,
        85687053
    ],
    "wof:breaches":[],
    "wof:concordances":{
        "sg:id":"SG_0LSF0wc5nhmjtkYsJvPSYw_52.669109_4.759408@1306269940"
    },
    "wof:country":"NL",
    "wof:geomhash":"c22c1ea2d97c428a192894efdccf5ced",
    "wof:hierarchy":[
        {
            "continent_id":-1,
            "country_id":85633337,
            "locality_id":101751887,
            "neighbourhood_id":-1,
            "region_id":85687053,
            "venue_id":236758217
        }
    ],
    "wof:id":236758217,
    "wof:lastmodified":1449002485,
    "wof:name":"Bruschke, Tine",
    "wof:parent_id":-1,
    "wof:placetype":"venue",
    "wof:superseded_by":[],
    "wof:supersedes":[],
    "wof:tags":[]
},
  "bbox": [4.759408,52.669109,4.759408,52.669109],
  "geometry": {"coordinates":[4.759408,52.669109],"type":"Point"}
}