{
  "id": 336734719,
  "type": "Feature",
  "properties": {
    "edtf:cessation":"u",
    "edtf:inception":"u",
    "geom:area":0.0,
    "geom:bbox":"3.489502,51.326576,3.489502,51.326576",
    "geom:latitude":51.326576,
    "geom:longitude":3.489502,
    "iso:country":"NL",
    "sg:address":"Markt 21",
    "sg:city":"Oostburg",
    "sg:classifiers":[
        {
            "category":"Professional",
            "subcategory":"Accounting & Tax Preparation",
            "type":"Services"
        }
    ],
    "sg:owner":"simplegeo",
    "sg:phone":"+31 117 454 250",
    "sg:postcode":"4501 CK",
    "sg:province":"Zeeland",
    "sg:tags":[
        "accountant"
    ],
    "src:geom":"simplegeo",
    "wof:belongsto":[
        85633337,
        101808415,
        85687037
    ],
    "wof:breaches":[],
    "wof:concordances":{
        "sg:id":"SG_3zDvuZLE9rfYyyn6vLYu0d_51.326576_3.489502@1306270005"
    },
    "wof:country":"NL",
    "wof:geomhash":"4f4e50b0b141844f887ed8a38593b1d9",
    "wof:hierarchy":[
        {
            "continent_id":-1,
            "country_id":85633337,
            "locality_id":101808415,
            "neighbourhood_id":-1,
            "region_id":85687037,
            "venue_id":336734719
        }
    ],
    "wof:id":336734719,
    "wof:lastmodified":1448997886,
    "wof:name":"Abab Accountants",
    "wof:parent_id":-1,
    "wof:placetype":"venue",
    "wof:superseded_by":[],
    "wof:supersedes":[],
    "wof:tags":[
        "accountant"
    ]
},
  "bbox": [3.489502,51.326576,3.489502,51.326576],
  "geometry": {"coordinates":[3.489502,51.326576],"type":"Point"}
}