{
  "id": 303861037,
  "type": "Feature",
  "properties": {
    "edtf:cessation":"u",
    "edtf:inception":"u",
    "geom:area":0.0,
    "geom:bbox":"5.092306,52.115669,5.092306,52.115669",
    "geom:latitude":52.115669,
    "geom:longitude":5.092306,
    "iso:country":"NL",
    "sg:address":"Vreelanthof 30",
    "sg:city":"Utrecht",
    "sg:classifiers":[],
    "sg:orig_category":"Hefwerktuigen",
    "sg:owner":"simplegeo",
    "sg:phone":"+31 30 242 3272",
    "sg:postcode":"3554 GT",
    "sg:province":"Utrecht",
    "src:geom":"simplegeo",
    "wof:belongsto":[
        85798231,
        85633337,
        85687039
    ],
    "wof:breaches":[],
    "wof:concordances":{
        "sg:id":"SG_7mk7mGVazGcFQkbFRgMhWx_52.115669_5.092306@1306269988"
    },
    "wof:country":"NL",
    "wof:geomhash":"859cac02651ff1ab61b492c76d1c766e",
    "wof:hierarchy":[
        {
            "continent_id":-1,
            "country_id":85633337,
            "locality_id":-1,
            "neighbourhood_id":85798231,
            "region_id":85687039,
            "venue_id":303861037
        }
    ],
    "wof:id":303861037,
    "wof:lastmodified":1449000551,
    "wof:name":"Khedoe",
    "wof:parent_id":85798231,
    "wof:placetype":"venue",
    "wof:superseded_by":[],
    "wof:supersedes":[],
    "wof:tags":[]
},
  "bbox": [5.092306,52.115669,5.092306,52.115669],
  "geometry": {"coordinates":[5.092306,52.115669],"type":"Point"}
}