{
  "id": 320060435,
  "type": "Feature",
  "properties": {
    "edtf:cessation":"u",
    "edtf:inception":"u",
    "geom:area":0.0,
    "geom:bbox":"4.65296,52.291527,4.65296,52.291527",
    "geom:latitude":52.291527,
    "geom:longitude":4.65296,
    "iso:country":"NL",
    "sg:address":"Bennebroekerwg 711A",
    "sg:city":"Hoofddorp",
    "sg:classifiers":[
        {
            "category":"Retail",
            "subcategory":"Auto Repair",
            "type":"Services"
        }
    ],
    "sg:owner":"simplegeo",
    "sg:phone":"+31 23 562 9854",
    "sg:postcode":"2135 AA",
    "sg:province":"Noord-Holland",
    "sg:tags":[
        "garage"
    ],
    "src:geom":"simplegeo",
    "wof:belongsto":[
        85797085,
        85633337,
        85687053
    ],
    "wof:breaches":[],
    "wof:concordances":{
        "sg:id":"SG_6oOn9KNGfTRILhpPQZGLTy_52.291527_4.652960@1306269994"
    },
    "wof:country":"NL",
    "wof:geomhash":"a5bdeceb6586605b409400927fbffb93",
    "wof:hierarchy":[
        {
            "continent_id":-1,
            "country_id":85633337,
            "locality_id":-1,
            "neighbourhood_id":85797085,
            "region_id":85687053,
            "venue_id":320060435
        }
    ],
    "wof:id":320060435,
    "wof:lastmodified":1449014625,
    "wof:name":"Carvon",
    "wof:parent_id":85797085,
    "wof:placetype":"venue",
    "wof:superseded_by":[],
    "wof:supersedes":[],
    "wof:tags":[
        "garage"
    ]
},
  "bbox": [4.65296,52.291527,4.65296,52.291527],
  "geometry": {"coordinates":[4.65296,52.291527],"type":"Point"}
}