{
  "id": 303909115,
  "type": "Feature",
  "properties": {
    "edtf:cessation":"u",
    "edtf:inception":"u",
    "geom:area":0.0,
    "geom:bbox":"-93.129936,36.705662,-93.129936,36.705662",
    "geom:latitude":36.705662,
    "geom:longitude":-93.129936,
    "iso:country":"NL",
    "sg:address":"Marktstraat 24A",
    "sg:city":"Beek Lb",
    "sg:classifiers":[],
    "sg:orig_category":"Herenmodezaken",
    "sg:owner":"simplegeo",
    "sg:phone":"+31 46 437 0293",
    "sg:postcode":"6191 JX",
    "sg:province":"Missouri",
    "src:geom":"simplegeo",
    "wof:belongsto":[
        85633793,
        85688661
    ],
    "wof:breaches":[],
    "wof:concordances":{
        "sg:id":"SG_0PXK5T0KjmNHX7LS9hEX3Y_36.705662_-93.129936@1306269989"
    },
    "wof:country":"NL",
    "wof:geomhash":"84dbc5f02e9a770a770fe25dd191bc48",
    "wof:hierarchy":[
        {
            "continent_id":-1,
            "country_id":85633793,
            "locality_id":-1,
            "neighbourhood_id":-1,
            "region_id":85688661,
            "venue_id":303909115
        }
    ],
    "wof:id":303909115,
    "wof:lastmodified":1448999960,
    "wof:name":"Fredrix Fashion Herenmode",
    "wof:parent_id":-1,
    "wof:placetype":"venue",
    "wof:superseded_by":[],
    "wof:supersedes":[],
    "wof:tags":[]
},
  "bbox": [-93.129936,36.705662,-93.129936,36.705662],
  "geometry": {"coordinates":[-93.129936,36.705662],"type":"Point"}
}