{
  "id": 253200065,
  "type": "Feature",
  "properties": {
    "edtf:cessation":"u",
    "edtf:inception":"u",
    "geom:area":0.0,
    "geom:bbox":"4.74652,52.269852,4.74652,52.269852",
    "geom:latitude":52.269852,
    "geom:longitude":4.74652,
    "iso:country":"NL",
    "sg:address":"Dorpsstraat 8",
    "sg:city":"Aalsmeer",
    "sg:classifiers":[],
    "sg:orig_category":"Meubelreparatie And -Restauratie",
    "sg:owner":"simplegeo",
    "sg:phone":"+31 297 346 062",
    "sg:postcode":"1431  C",
    "sg:province":"Noord-Holland",
    "src:geom":"simplegeo",
    "wof:belongsto":[
        85797169,
        85633337,
        85687053
    ],
    "wof:breaches":[],
    "wof:concordances":{
        "sg:id":"SG_0IqPIHKQrS78AlWMXlg5EQ_52.269852_4.746520@1306269947"
    },
    "wof:country":"NL",
    "wof:geomhash":"e7b4877d7d32d34364457b42eef4e9fd",
    "wof:hierarchy":[
        {
            "continent_id":-1,
            "country_id":85633337,
            "locality_id":-1,
            "neighbourhood_id":85797169,
            "region_id":85687053,
            "venue_id":253200065
        }
    ],
    "wof:id":253200065,
    "wof:lastmodified":1449064013,
    "wof:name":"Meubelstoffeerderij Aalsmeer",
    "wof:parent_id":85797169,
    "wof:placetype":"venue",
    "wof:superseded_by":[],
    "wof:supersedes":[],
    "wof:tags":[]
},
  "bbox": [4.74652,52.269852,4.74652,52.269852],
  "geometry": {"coordinates":[4.74652,52.269852],"type":"Point"}
}