{
  "id": 319900137,
  "type": "Feature",
  "properties": {
    "edtf:cessation":"u",
    "edtf:inception":"u",
    "geom:area":0.0,
    "geom:bbox":"5.436682,51.569759,5.436682,51.569759",
    "geom:latitude":51.569759,
    "geom:longitude":5.436682,
    "iso:country":"NL",
    "sg:address":"Ollandseweg 142",
    "sg:city":"Sint Oedenrode",
    "sg:classifiers":[],
    "sg:orig_category":"Huisdierenfokkers",
    "sg:owner":"simplegeo",
    "sg:phone":"+31 413 472 085",
    "sg:postcode":"5491 XC",
    "sg:province":"North Brabant",
    "src:geom":"simplegeo",
    "wof:belongsto":[
        85633337,
        85687035
    ],
    "wof:breaches":[],
    "wof:concordances":{
        "sg:id":"SG_1TqjW7xGWmZ3z19gvYlL4B_51.569759_5.436682@1306269992"
    },
    "wof:country":"NL",
    "wof:geomhash":"b91dc62a4b0ad103165592df42abe25c",
    "wof:hierarchy":[
        {
            "continent_id":-1,
            "country_id":85633337,
            "locality_id":-1,
            "neighbourhood_id":-1,
            "region_id":85687035,
            "venue_id":319900137
        }
    ],
    "wof:id":319900137,
    "wof:lastmodified":1449024431,
    "wof:name":"G. Van Gils-Van Eerd",
    "wof:parent_id":-1,
    "wof:placetype":"venue",
    "wof:superseded_by":[],
    "wof:supersedes":[],
    "wof:tags":[]
},
  "bbox": [5.436682,51.569759,5.436682,51.569759],
  "geometry": {"coordinates":[5.436682,51.569759],"type":"Point"}
}