{
  "id": 253036237,
  "type": "Feature",
  "properties": {
    "edtf:cessation":"u",
    "edtf:inception":"u",
    "geom:area":0.0,
    "geom:bbox":"4.348998,51.907158,4.348998,51.907158",
    "geom:latitude":51.907158,
    "geom:longitude":4.348998,
    "iso:country":"NL",
    "sg:address":"Eendrachtstraat 83",
    "sg:city":"Vlaardingen",
    "sg:classifiers":[],
    "sg:orig_category":"Metaalwerken",
    "sg:owner":"simplegeo",
    "sg:phone":"+31 10 435 6267",
    "sg:postcode":"3134 GK",
    "sg:province":"Zuid-Holland",
    "src:geom":"simplegeo",
    "wof:belongsto":[
        85798587,
        85633337,
        101751851,
        85687041
    ],
    "wof:breaches":[],
    "wof:concordances":{
        "sg:id":"SG_0kzSPd8lQrPI07Q188OHeO_51.907158_4.348998@1306269945"
    },
    "wof:country":"NL",
    "wof:geomhash":"3303dda3136fe1ec183b84572f1fcfcc",
    "wof:hierarchy":[
        {
            "continent_id":-1,
            "country_id":85633337,
            "locality_id":101751851,
            "neighbourhood_id":85798587,
            "region_id":85687041,
            "venue_id":253036237
        }
    ],
    "wof:id":253036237,
    "wof:lastmodified":1449063466,
    "wof:name":"Loonbedrijf E. Boer",
    "wof:parent_id":85798587,
    "wof:placetype":"venue",
    "wof:superseded_by":[],
    "wof:supersedes":[],
    "wof:tags":[]
},
  "bbox": [4.348998,51.907158,4.348998,51.907158],
  "geometry": {"coordinates":[4.348998,51.907158],"type":"Point"}
}