{
  "id": 253329121,
  "type": "Feature",
  "properties": {
    "edtf:cessation":"u",
    "edtf:inception":"u",
    "geom:area":0.0,
    "geom:bbox":"6.476612,52.720135,6.476612,52.720135",
    "geom:latitude":52.720135,
    "geom:longitude":6.476612,
    "iso:country":"NL",
    "sg:address":"Schutstraat 17",
    "sg:city":"Hoogeveen",
    "sg:classifiers":[],
    "sg:orig_category":"Meubelzaken, Woning- And Keukeninrichting",
    "sg:owner":"simplegeo",
    "sg:phone":"+31 528 263 961",
    "sg:postcode":"7907 CA",
    "sg:province":"Provincie Drenthe",
    "src:geom":"simplegeo",
    "wof:belongsto":[
        85798565,
        85633337,
        101837877,
        85687051
    ],
    "wof:breaches":[],
    "wof:concordances":{
        "sg:id":"SG_3fTaIPDdkYY9DQ0YXPWLLG_52.720135_6.476612@1306269948"
    },
    "wof:country":"NL",
    "wof:geomhash":"bb82bec4357d09171350863ccc12c66f",
    "wof:hierarchy":[
        {
            "continent_id":-1,
            "country_id":85633337,
            "locality_id":101837877,
            "neighbourhood_id":85798565,
            "region_id":85687051,
            "venue_id":253329121
        }
    ],
    "wof:id":253329121,
    "wof:lastmodified":1449063635,
    "wof:name":"Giraffe Bv",
    "wof:parent_id":85798565,
    "wof:placetype":"venue",
    "wof:superseded_by":[],
    "wof:supersedes":[],
    "wof:tags":[]
},
  "bbox": [6.476612,52.720135,6.476612,52.720135],
  "geometry": {"coordinates":[6.476612,52.720135],"type":"Point"}
}