{
  "id": 270077335,
  "type": "Feature",
  "properties": {
    "edtf:cessation":"u",
    "edtf:inception":"u",
    "geom:area":0.0,
    "geom:bbox":"4.325186,51.915947,4.325186,51.915947",
    "geom:latitude":51.915947,
    "geom:longitude":4.325186,
    "iso:country":"NL",
    "sg:address":"Blois Van Treslongstraat 151",
    "sg:city":"Vlaardingen",
    "sg:classifiers":[],
    "sg:orig_category":"Fitnesscentra",
    "sg:owner":"simplegeo",
    "sg:phone":"+31 10 460 0260",
    "sg:postcode":"3132 XB",
    "sg:province":"South Holland",
    "src:geom":"simplegeo",
    "wof:belongsto":[
        85798569,
        85633337,
        85687041
    ],
    "wof:breaches":[],
    "wof:concordances":{
        "sg:id":"SG_4Al5Ml8UD5Xipy8FivaVeP_51.915947_4.325186@1306269961"
    },
    "wof:country":"NL",
    "wof:geomhash":"b8af9e63d2fd28494d9365abd6f955f4",
    "wof:hierarchy":[
        {
            "continent_id":-1,
            "country_id":85633337,
            "locality_id":-1,
            "neighbourhood_id":85798569,
            "region_id":85687041,
            "venue_id":270077335
        }
    ],
    "wof:id":270077335,
    "wof:lastmodified":1449009016,
    "wof:name":"Tino Hoogendijk",
    "wof:parent_id":85798569,
    "wof:placetype":"venue",
    "wof:superseded_by":[],
    "wof:supersedes":[],
    "wof:tags":[]
},
  "bbox": [4.325186,51.915947,4.325186,51.915947],
  "geometry": {"coordinates":[4.325186,51.915947],"type":"Point"}
}