{
  "id": 287251999,
  "type": "Feature",
  "properties": {
    "edtf:cessation":"u",
    "edtf:inception":"u",
    "geom:area":0.0,
    "geom:bbox":"4.701391,52.833462,4.701391,52.833462",
    "geom:latitude":52.833462,
    "geom:longitude":4.701391,
    "iso:country":"NL",
    "sg:address":"Vogelary 17",
    "sg:city":"Callantsoog",
    "sg:classifiers":[],
    "sg:orig_category":"Boekhouders",
    "sg:owner":"simplegeo",
    "sg:phone":"+31 224 581 928",
    "sg:postcode":"1759 XC",
    "sg:province":"North Holland",
    "src:geom":"simplegeo",
    "wof:belongsto":[
        85633337,
        101807333,
        85687053
    ],
    "wof:breaches":[],
    "wof:concordances":{
        "sg:id":"SG_4hLsukGtRfNXx8R0O7WfdR_52.833462_4.701391@1306269978"
    },
    "wof:country":"NL",
    "wof:geomhash":"8c385ae7e7d6a05951648d59274dbc3f",
    "wof:hierarchy":[
        {
            "continent_id":-1,
            "country_id":85633337,
            "locality_id":101807333,
            "neighbourhood_id":-1,
            "region_id":85687053,
            "venue_id":287251999
        }
    ],
    "wof:id":287251999,
    "wof:lastmodified":1449000688,
    "wof:name":"Administratiekantoor Fi Ak",
    "wof:parent_id":-1,
    "wof:placetype":"venue",
    "wof:superseded_by":[],
    "wof:supersedes":[],
    "wof:tags":[]
},
  "bbox": [4.701391,52.833462,4.701391,52.833462],
  "geometry": {"coordinates":[4.701391,52.833462],"type":"Point"}
}