{
  "id": 319845575,
  "type": "Feature",
  "properties": {
    "edtf:cessation":"u",
    "edtf:inception":"u",
    "geom:area":0.0,
    "geom:bbox":"-120.063995,36.962055,-120.063995,36.962055",
    "geom:latitude":36.962055,
    "geom:longitude":-120.063995,
    "iso:country":"NL",
    "sg:address":"Abeelstraat 2",
    "sg:city":"Made",
    "sg:classifiers":[],
    "sg:orig_category":"Hout Gh",
    "sg:owner":"simplegeo",
    "sg:phone":"+31 162 686 470",
    "sg:postcode":"4921 ME",
    "sg:province":"Noord-Brabant",
    "src:geom":"simplegeo",
    "wof:belongsto":[
        85688637,
        85633793,
        85922995,
        102084347,
        85824691
    ],
    "wof:breaches":[],
    "wof:concordances":{
        "sg:id":"SG_4IgE2Mu2XVT9JchDnv7KN6_36.962055_-120.063995@1306269991"
    },
    "wof:country":"NL",
    "wof:geomhash":"2d01a3cadf2b851760b82bc418ee128e",
    "wof:hierarchy":[
        {
            "continent_id":-1,
            "country_id":85633793,
            "county_id":102084347,
            "locality_id":85922995,
            "neighbourhood_id":85824691,
            "region_id":85688637,
            "venue_id":319845575
        }
    ],
    "wof:id":319845575,
    "wof:lastmodified":1449024219,
    "wof:name":"Houthandel De Soet",
    "wof:parent_id":85824691,
    "wof:placetype":"venue",
    "wof:superseded_by":[],
    "wof:supersedes":[],
    "wof:tags":[]
},
  "bbox": [-120.063995,36.962055,-120.063995,36.962055],
  "geometry": {"coordinates":[-120.063995,36.962055],"type":"Point"}
}