{
  "id": 219600615,
  "type": "Feature",
  "properties": {
    "edtf:cessation":"u",
    "edtf:inception":"u",
    "geom:area":0.0,
    "geom:bbox":"5.25046,52.371071,5.25046,52.371071",
    "geom:latitude":52.371071,
    "geom:longitude":5.25046,
    "iso:country":"NL",
    "sg:address":"Abrikozenhof 18",
    "sg:city":"Almere",
    "sg:classifiers":[],
    "sg:orig_category":"Administratie- En Boekhoudkantoren",
    "sg:owner":"simplegeo",
    "sg:phone":"+31 36 545 0453",
    "sg:postcode":"1326 HB",
    "sg:province":"Flevoland",
    "src:geom":"simplegeo",
    "wof:belongsto":[
        85633337,
        101751877,
        85687049
    ],
    "wof:breaches":[],
    "wof:concordances":{
        "sg:id":"SG_2RWCjmvIcJr8MzcTWgc35R_52.371071_5.250460@1306269927"
    },
    "wof:country":"NL",
    "wof:geomhash":"3eee39c4ea8928503a691f2f74d5d7d4",
    "wof:hierarchy":[
        {
            "continent_id":-1,
            "country_id":85633337,
            "locality_id":101751877,
            "neighbourhood_id":-1,
            "region_id":85687049,
            "venue_id":219600615
        }
    ],
    "wof:id":219600615,
    "wof:lastmodified":1449070712,
    "wof:name":"Comptoir",
    "wof:parent_id":-1,
    "wof:placetype":"venue",
    "wof:superseded_by":[],
    "wof:supersedes":[],
    "wof:tags":[]
},
  "bbox": [5.25046,52.371071,5.25046,52.371071],
  "geometry": {"coordinates":[5.25046,52.371071],"type":"Point"}
}