{
  "id": 203223409,
  "type": "Feature",
  "properties": {
    "edtf:cessation":"u",
    "edtf:inception":"u",
    "geom:area":0.0,
    "geom:bbox":"5.939028,50.927719,5.939028,50.927719",
    "geom:latitude":50.927719,
    "geom:longitude":5.939028,
    "iso:country":"NL",
    "sg:address":"Heisterberg 11",
    "sg:city":"Hoensbroek",
    "sg:classifiers":[],
    "sg:orig_category":"Video - Faciliteiten En Producties",
    "sg:owner":"simplegeo",
    "sg:phone":"+31 6 54352728",
    "sg:postcode":"6431 JA",
    "sg:province":"Limburg",
    "src:geom":"simplegeo",
    "wof:belongsto":[
        85797987,
        85633337,
        85687033
    ],
    "wof:breaches":[],
    "wof:concordances":{
        "sg:id":"SG_2MwTVVv6cgKU6hdy0GSeCC_50.927719_5.939028@1306269922"
    },
    "wof:country":"NL",
    "wof:geomhash":"27d13cd9801e883beb3c95f8ddc80a30",
    "wof:hierarchy":[
        {
            "continent_id":-1,
            "country_id":85633337,
            "locality_id":-1,
            "neighbourhood_id":85797987,
            "region_id":85687033,
            "venue_id":203223409
        }
    ],
    "wof:id":203223409,
    "wof:lastmodified":1449025073,
    "wof:name":"Eng Crew",
    "wof:parent_id":85797987,
    "wof:placetype":"venue",
    "wof:superseded_by":[],
    "wof:supersedes":[],
    "wof:tags":[]
},
  "bbox": [5.939028,50.927719,5.939028,50.927719],
  "geometry": {"coordinates":[5.939028,50.927719],"type":"Point"}
}