{
  "id": 169848413,
  "type": "Feature",
  "properties": {
    "edtf:cessation":"u",
    "edtf:inception":"u",
    "geom:area":0.0,
    "geom:bbox":"6.667181,53.087009,6.667181,53.087009",
    "geom:latitude":53.087009,
    "geom:longitude":6.667181,
    "iso:country":"NL",
    "sg:address":"Schipborgerweg 27",
    "sg:city":"Zuidlaren",
    "sg:classifiers":[],
    "sg:orig_category":"Kappers",
    "sg:owner":"simplegeo",
    "sg:phone":"+31 50 409 3238",
    "sg:postcode":"9471 PP",
    "sg:province":"Provincie Drenthe",
    "src:geom":"simplegeo",
    "wof:belongsto":[
        85633337,
        85687051
    ],
    "wof:breaches":[],
    "wof:concordances":{
        "sg:id":"SG_6L3Er8sNP0NncFr2iZOwIe_53.087009_6.667181@1306269906"
    },
    "wof:country":"NL",
    "wof:geomhash":"b50b224e6be42855336ee2e1c729df19",
    "wof:hierarchy":[
        {
            "continent_id":-1,
            "country_id":85633337,
            "locality_id":-1,
            "neighbourhood_id":-1,
            "region_id":85687051,
            "venue_id":169848413
        }
    ],
    "wof:id":169848413,
    "wof:lastmodified":1449033149,
    "wof:name":"Salon Vivaldi",
    "wof:parent_id":-1,
    "wof:placetype":"venue",
    "wof:superseded_by":[],
    "wof:supersedes":[],
    "wof:tags":[]
},
  "bbox": [6.667181,53.087009,6.667181,53.087009],
  "geometry": {"coordinates":[6.667181,53.087009],"type":"Point"}
}