{
  "id": 286768061,
  "type": "Feature",
  "properties": {
    "edtf:cessation":"u",
    "edtf:inception":"u",
    "geom:area":0.0,
    "geom:bbox":"-73.97155,42.786839,-73.97155,42.786839",
    "geom:latitude":42.786839,
    "geom:longitude":-73.97155,
    "iso:country":"NL",
    "sg:address":"Straatweg 34",
    "sg:city":"Rotterdam",
    "sg:classifiers":[],
    "sg:orig_category":"Binnenhuisarchitecten",
    "sg:owner":"simplegeo",
    "sg:phone":"+31 10 461 2961",
    "sg:postcode":"3051 BG",
    "sg:province":"Zuid-Holland",
    "src:geom":"simplegeo",
    "wof:belongsto":[
        85688543,
        85633793,
        85979289,
        102081765,
        85850057
    ],
    "wof:breaches":[],
    "wof:concordances":{
        "sg:id":"SG_21wOXvIi82IY8XnERtIjTt_42.786839_-73.971550@1306269973"
    },
    "wof:country":"NL",
    "wof:geomhash":"10bc56562fec0216d51f10d7573c316c",
    "wof:hierarchy":[
        {
            "continent_id":-1,
            "country_id":85633793,
            "county_id":102081765,
            "locality_id":85979289,
            "neighbourhood_id":85850057,
            "region_id":85688543,
            "venue_id":286768061
        }
    ],
    "wof:id":286768061,
    "wof:lastmodified":1449016316,
    "wof:name":"Bur V Meubelontw. En Interieurarchitect.",
    "wof:parent_id":85850057,
    "wof:placetype":"venue",
    "wof:superseded_by":[],
    "wof:supersedes":[],
    "wof:tags":[]
},
  "bbox": [-73.97155,42.786839,-73.97155,42.786839],
  "geometry": {"coordinates":[-73.97155,42.786839],"type":"Point"}
}