{
  "id": 336959699,
  "type": "Feature",
  "properties": {
    "edtf:cessation":"u",
    "edtf:inception":"u",
    "geom:area":0.0,
    "geom:bbox":"6.903212,53.331192,6.903212,53.331192",
    "geom:latitude":53.331192,
    "geom:longitude":6.903212,
    "iso:country":"NL",
    "sg:address":"Handelskd O 21",
    "sg:city":"Delfzyl",
    "sg:classifiers":[
        {
            "category":"Retail",
            "subcategory":"Storage",
            "type":"Services"
        }
    ],
    "sg:owner":"simplegeo",
    "sg:phone":"+31 596 636 911",
    "sg:postcode":"9934 AR",
    "sg:province":"Groningen",
    "sg:tags":[
        "op-",
        "en",
        "overslagbedrijven"
    ],
    "sg:website":"http://www.wagenborg.com",
    "src:geom":"simplegeo",
    "wof:belongsto":[
        85797887,
        85633337,
        101837987,
        85687059
    ],
    "wof:breaches":[],
    "wof:concordances":{
        "sg:id":"SG_7WhyrlPiIMN38Btq2Eq4MU_53.331192_6.903212@1306270008"
    },
    "wof:country":"NL",
    "wof:geomhash":"0d8ee51fafa27539f16ebd16545769f1",
    "wof:hierarchy":[
        {
            "continent_id":-1,
            "country_id":85633337,
            "locality_id":101837987,
            "neighbourhood_id":85797887,
            "region_id":85687059,
            "venue_id":336959699
        }
    ],
    "wof:id":336959699,
    "wof:lastmodified":1448997909,
    "wof:name":"Wagenborg Stevedoring Bv",
    "wof:parent_id":85797887,
    "wof:placetype":"venue",
    "wof:superseded_by":[],
    "wof:supersedes":[],
    "wof:tags":[
        "op-",
        "en",
        "overslagbedrijven"
    ]
},
  "bbox": [6.903212,53.331192,6.903212,53.331192],
  "geometry": {"coordinates":[6.903212,53.331192],"type":"Point"}
}