{
  "id": 320346155,
  "type": "Feature",
  "properties": {
    "edtf:cessation":"u",
    "edtf:inception":"u",
    "geom:area":0.0,
    "geom:bbox":"4.25946,52.06805,4.25946,52.06805",
    "geom:latitude":52.06805,
    "geom:longitude":4.25946,
    "iso:country":"NL",
    "sg:address":"Mient 188",
    "sg:city":"'S Gravenhage",
    "sg:classifiers":[],
    "sg:orig_category":"Goederenvervoer Over De Weg",
    "sg:owner":"simplegeo",
    "sg:phone":"+31 70 368 5727",
    "sg:postcode":"2564 KT",
    "sg:province":"South Holland",
    "src:geom":"simplegeo",
    "wof:belongsto":[
        85859585,
        85633337,
        101752763,
        85687041
    ],
    "wof:breaches":[],
    "wof:concordances":{
        "sg:id":"SG_0nUrG6AymNuIsyhS2bDJyc_52.068050_4.259460@1306269997"
    },
    "wof:country":"NL",
    "wof:geomhash":"80ff65fdefa371874f351652f67042ce",
    "wof:hierarchy":[
        {
            "continent_id":-1,
            "country_id":85633337,
            "locality_id":101752763,
            "neighbourhood_id":85859585,
            "region_id":85687041,
            "venue_id":320346155
        }
    ],
    "wof:id":320346155,
    "wof:lastmodified":1449011243,
    "wof:name":"I.B.J. Kramps",
    "wof:parent_id":85859585,
    "wof:placetype":"venue",
    "wof:superseded_by":[],
    "wof:supersedes":[],
    "wof:tags":[]
},
  "bbox": [4.25946,52.06805,4.25946,52.06805],
  "geometry": {"coordinates":[4.25946,52.06805],"type":"Point"}
}