{
  "id": 286683171,
  "type": "Feature",
  "properties": {
    "edtf:cessation":"u",
    "edtf:inception":"u",
    "geom:area":0.0,
    "geom:bbox":"5.114536,52.119713,5.114536,52.119713",
    "geom:latitude":52.119713,
    "geom:longitude":5.114536,
    "iso:country":"NL",
    "sg:address":"Vreuchdenberchdreef 55",
    "sg:city":"Utrecht",
    "sg:classifiers":[],
    "sg:orig_category":"Beursorganisaties And Standbouw",
    "sg:owner":"simplegeo",
    "sg:phone":"+31 30 266 1803",
    "sg:postcode":"3562 HK",
    "sg:province":"Utrecht",
    "src:geom":"simplegeo",
    "wof:belongsto":[
        85798227,
        85633337,
        85687039
    ],
    "wof:breaches":[],
    "wof:concordances":{
        "sg:id":"SG_1rIwke4HbMW9qCZQnPgVDl_52.119713_5.114536@1306269972"
    },
    "wof:country":"NL",
    "wof:geomhash":"a810b6575bc55beffa59c06058d7823c",
    "wof:hierarchy":[
        {
            "continent_id":-1,
            "country_id":85633337,
            "locality_id":-1,
            "neighbourhood_id":85798227,
            "region_id":85687039,
            "venue_id":286683171
        }
    ],
    "wof:id":286683171,
    "wof:lastmodified":1449016265,
    "wof:name":"Prima Forma",
    "wof:parent_id":85798227,
    "wof:placetype":"venue",
    "wof:superseded_by":[],
    "wof:supersedes":[],
    "wof:tags":[]
},
  "bbox": [5.114536,52.119713,5.114536,52.119713],
  "geometry": {"coordinates":[5.114536,52.119713],"type":"Point"}
}