{
  "id": 202538589,
  "type": "Feature",
  "properties": {
    "edtf:cessation":"u",
    "edtf:inception":"u",
    "geom:area":0.0,
    "geom:bbox":"6.744103,52.154228,6.744103,52.154228",
    "geom:latitude":52.154228,
    "geom:longitude":6.744103,
    "iso:country":"NL",
    "sg:address":"Jhr. Von Heijdenstraat 13",
    "sg:city":"Haaksbergen",
    "sg:classifiers":[
        {
            "category":"Communications",
            "subcategory":"Television Station",
            "type":"Services"
        }
    ],
    "sg:owner":"simplegeo",
    "sg:phone":"+31 53 572 8173",
    "sg:postcode":"7481 EC",
    "sg:province":"Overijssel",
    "sg:tags":[
        "video",
        "audio",
        "verhuur"
    ],
    "src:geom":"simplegeo",
    "wof:belongsto":[
        85633337,
        101807203,
        85687045
    ],
    "wof:breaches":[],
    "wof:concordances":{
        "sg:id":"SG_71pLImaAJ5rpxFRytg1kct_52.154228_6.744103@1306269916"
    },
    "wof:country":"NL",
    "wof:geomhash":"838a648d6215b6fba36e0535557c7e18",
    "wof:hierarchy":[
        {
            "continent_id":-1,
            "country_id":85633337,
            "locality_id":101807203,
            "neighbourhood_id":-1,
            "region_id":85687045,
            "venue_id":202538589
        }
    ],
    "wof:id":202538589,
    "wof:lastmodified":1449060422,
    "wof:name":"Videotheek Haaksbergen",
    "wof:parent_id":-1,
    "wof:placetype":"venue",
    "wof:superseded_by":[],
    "wof:supersedes":[],
    "wof:tags":[
        "video",
        "audio",
        "verhuur"
    ]
},
  "bbox": [6.744103,52.154228,6.744103,52.154228],
  "geometry": {"coordinates":[6.744103,52.154228],"type":"Point"}
}