{
  "id": 270509947,
  "type": "Feature",
  "properties": {
    "edtf:cessation":"u",
    "edtf:inception":"u",
    "geom:area":0.0,
    "geom:bbox":"5.404657,52.938885,5.404657,52.938885",
    "geom:latitude":52.938885,
    "geom:longitude":5.404657,
    "iso:country":"NL",
    "sg:address":"Kreilerstraat 20",
    "sg:city":"Hindeloopen",
    "sg:classifiers":[
        {
            "category":"Education",
            "subcategory":"Preschool",
            "type":"Public Place"
        }
    ],
    "sg:owner":"simplegeo",
    "sg:phone":"+31 514 521 510",
    "sg:postcode":"8713 JB",
    "sg:province":"Friesland",
    "sg:tags":[
        "kleuteronderwijs",
        "basis-"
    ],
    "src:geom":"simplegeo",
    "wof:belongsto":[
        85633337,
        85687055
    ],
    "wof:breaches":[],
    "wof:concordances":{
        "sg:id":"SG_0VXe9IxljEmUUQg9jXBVaM_52.938885_5.404657@1306269966"
    },
    "wof:country":"NL",
    "wof:geomhash":"34af554c779116b6fb098af4c1ec95c7",
    "wof:hierarchy":[
        {
            "continent_id":-1,
            "country_id":85633337,
            "locality_id":-1,
            "neighbourhood_id":-1,
            "region_id":85687055,
            "venue_id":270509947
        }
    ],
    "wof:id":270509947,
    "wof:lastmodified":1449008778,
    "wof:name":"De Skulpe Basisschool",
    "wof:parent_id":-1,
    "wof:placetype":"venue",
    "wof:superseded_by":[],
    "wof:supersedes":[],
    "wof:tags":[
        "kleuteronderwijs",
        "basis-"
    ]
},
  "bbox": [5.404657,52.938885,5.404657,52.938885],
  "geometry": {"coordinates":[5.404657,52.938885],"type":"Point"}
}