{
  "id": 253213925,
  "type": "Feature",
  "properties": {
    "edtf:cessation":"u",
    "edtf:inception":"u",
    "geom:area":0.0,
    "geom:bbox":"5.458577,52.220295,5.458577,52.220295",
    "geom:latitude":52.220295,
    "geom:longitude":5.458577,
    "iso:country":"NL",
    "sg:address":"Fluitekruid 21",
    "sg:city":"Nijkerk Gld",
    "sg:classifiers":[],
    "sg:orig_category":"Meubelreparatie And -Restauratie",
    "sg:owner":"simplegeo",
    "sg:phone":"+31 33 245 3806",
    "sg:postcode":"3863 DZ",
    "sg:province":"Gelderland",
    "src:geom":"simplegeo",
    "wof:belongsto":[
        85633337,
        101807075,
        85687043
    ],
    "wof:breaches":[],
    "wof:concordances":{
        "sg:id":"SG_4AV5TtOsJ0dPlX70dU2XcD_52.220295_5.458577@1306269947"
    },
    "wof:country":"NL",
    "wof:geomhash":"02dd8ca7c78df39e1dda1e3b33dcdf45",
    "wof:hierarchy":[
        {
            "continent_id":-1,
            "country_id":85633337,
            "locality_id":101807075,
            "neighbourhood_id":-1,
            "region_id":85687043,
            "venue_id":253213925
        }
    ],
    "wof:id":253213925,
    "wof:lastmodified":1449062852,
    "wof:name":"Woninginrichtersbedrijf Klaarenbeek 'T Olde Huus",
    "wof:parent_id":-1,
    "wof:placetype":"venue",
    "wof:superseded_by":[],
    "wof:supersedes":[],
    "wof:tags":[]
},
  "bbox": [5.458577,52.220295,5.458577,52.220295],
  "geometry": {"coordinates":[5.458577,52.220295],"type":"Point"}
}