{
  "id": 303507797,
  "type": "Feature",
  "properties": {
    "edtf:cessation":"u",
    "edtf:inception":"u",
    "geom:area":0.0,
    "geom:bbox":"5.020745,52.636581,5.020745,52.636581",
    "geom:latitude":52.636581,
    "geom:longitude":5.020745,
    "iso:country":"NL",
    "sg:address":"Dwaalpk 2",
    "sg:city":"Hoorn Nh",
    "sg:classifiers":[],
    "sg:orig_category":"Sportverenigingen En Ontspannings- Verenigingen",
    "sg:owner":"simplegeo",
    "sg:phone":"+31 229 241 380",
    "sg:postcode":"1622 KZ",
    "sg:province":"Noord-Holland",
    "src:geom":"simplegeo",
    "wof:belongsto":[
        85797609,
        85633337,
        85687053
    ],
    "wof:breaches":[],
    "wof:concordances":{
        "sg:id":"SG_5EZN0Rcbbq8pGNJg409atf_52.636581_5.020745@1306269984"
    },
    "wof:country":"NL",
    "wof:geomhash":"ad35a11eb3eb1864ab87284b41d14cbc",
    "wof:hierarchy":[
        {
            "continent_id":-1,
            "country_id":85633337,
            "locality_id":-1,
            "neighbourhood_id":85797609,
            "region_id":85687053,
            "venue_id":303507797
        }
    ],
    "wof:id":303507797,
    "wof:lastmodified":1448999376,
    "wof:name":"Flevo, Kanover",
    "wof:parent_id":85797609,
    "wof:placetype":"venue",
    "wof:superseded_by":[],
    "wof:supersedes":[],
    "wof:tags":[]
},
  "bbox": [5.020745,52.636581,5.020745,52.636581],
  "geometry": {"coordinates":[5.020745,52.636581],"type":"Point"}
}