{
  "id": 303388171,
  "type": "Feature",
  "properties": {
    "edtf:cessation":"u",
    "edtf:inception":"u",
    "geom:area":0.0,
    "geom:bbox":"3.573785,51.519073,3.573785,51.519073",
    "geom:latitude":51.519073,
    "geom:longitude":3.573785,
    "iso:country":"NL",
    "sg:address":"Bergpad 1",
    "sg:city":"Grypskerke",
    "sg:classifiers":[],
    "sg:orig_category":"Scholen Voor Basisonderwijs",
    "sg:owner":"simplegeo",
    "sg:phone":"+31 118 596 116",
    "sg:postcode":"4364 BZ",
    "sg:province":"Zeeland",
    "src:geom":"simplegeo",
    "wof:belongsto":[
        85633337,
        85687037
    ],
    "wof:breaches":[],
    "wof:concordances":{
        "sg:id":"SG_3mg1e7P4wqlBmVw6ALBMKW_51.519073_3.573785@1306269983"
    },
    "wof:country":"NL",
    "wof:geomhash":"9f4784fa0293928b1bd0a70005d528be",
    "wof:hierarchy":[
        {
            "continent_id":-1,
            "country_id":85633337,
            "locality_id":-1,
            "neighbourhood_id":-1,
            "region_id":85687037,
            "venue_id":303388171
        }
    ],
    "wof:id":303388171,
    "wof:lastmodified":1448998210,
    "wof:name":"Bergpadsch, De",
    "wof:parent_id":-1,
    "wof:placetype":"venue",
    "wof:superseded_by":[],
    "wof:supersedes":[],
    "wof:tags":[]
},
  "bbox": [3.573785,51.519073,3.573785,51.519073],
  "geometry": {"coordinates":[3.573785,51.519073],"type":"Point"}
}