{
  "id": 320535921,
  "type": "Feature",
  "properties": {
    "edtf:cessation":"u",
    "edtf:inception":"u",
    "geom:area":0.0,
    "geom:bbox":"5.052836,53.303017,5.052836,53.303017",
    "geom:latitude":53.303017,
    "geom:longitude":5.052836,
    "iso:country":"NL",
    "sg:address":"Badweg 3",
    "sg:city":"Vlieland",
    "sg:classifiers":[],
    "sg:orig_category":"Granen, Zaden And Diervoeders Gh",
    "sg:owner":"simplegeo",
    "sg:phone":"+31 562 451 962",
    "sg:postcode":"8899 BV",
    "sg:province":"Provincie Friesland",
    "src:geom":"simplegeo",
    "wof:belongsto":[
        85633337,
        85687055
    ],
    "wof:breaches":[],
    "wof:concordances":{
        "sg:id":"SG_3fmqhFYaJ0M9884DXcfq0Q_53.303017_5.052836@1306269999"
    },
    "wof:country":"NL",
    "wof:geomhash":"ec66dd708214c5d3bdbeb1d965cff0ca",
    "wof:hierarchy":[
        {
            "continent_id":-1,
            "country_id":85633337,
            "locality_id":-1,
            "neighbourhood_id":-1,
            "region_id":85687055,
            "venue_id":320535921
        }
    ],
    "wof:id":320535921,
    "wof:lastmodified":1449011932,
    "wof:name":"Manege De Seeruyter Vof",
    "wof:parent_id":-1,
    "wof:placetype":"venue",
    "wof:superseded_by":[],
    "wof:supersedes":[],
    "wof:tags":[]
},
  "bbox": [5.052836,53.303017,5.052836,53.303017],
  "geometry": {"coordinates":[5.052836,53.303017],"type":"Point"}
}