{
  "id": 269580419,
  "type": "Feature",
  "properties": {
    "edtf:cessation":"u",
    "edtf:inception":"u",
    "geom:area":0.0,
    "geom:bbox":"6.042071,52.617352,6.042071,52.617352",
    "geom:latitude":52.617352,
    "geom:longitude":6.042071,
    "iso:country":"NL",
    "sg:address":"Pr Clausstr 14",
    "sg:city":"Genemuiden",
    "sg:classifiers":[],
    "sg:orig_category":"Projectinrichting",
    "sg:owner":"simplegeo",
    "sg:phone":"+31 6 29564623",
    "sg:postcode":"8281 DC",
    "sg:province":"Overijssel",
    "src:geom":"simplegeo",
    "wof:belongsto":[
        85633337,
        101807193,
        85687045
    ],
    "wof:breaches":[],
    "wof:concordances":{
        "sg:id":"SG_5CGfP5jjcYJr6RR2m4kAPD_52.617352_6.042071@1306269954"
    },
    "wof:country":"NL",
    "wof:geomhash":"b1075d55c5ad5c7675654ecaa1e0b8e3",
    "wof:hierarchy":[
        {
            "continent_id":-1,
            "country_id":85633337,
            "locality_id":101807193,
            "neighbourhood_id":-1,
            "region_id":85687045,
            "venue_id":269580419
        }
    ],
    "wof:id":269580419,
    "wof:lastmodified":1449037735,
    "wof:name":"Decoline",
    "wof:parent_id":-1,
    "wof:placetype":"venue",
    "wof:superseded_by":[],
    "wof:supersedes":[],
    "wof:tags":[]
},
  "bbox": [6.042071,52.617352,6.042071,52.617352],
  "geometry": {"coordinates":[6.042071,52.617352],"type":"Point"}
}