{
  "id": 252774889,
  "type": "Feature",
  "properties": {
    "edtf:cessation":"u",
    "edtf:inception":"u",
    "geom:area":0.0,
    "geom:bbox":"4.526677,51.926479,4.526677,51.926479",
    "geom:latitude":51.926479,
    "geom:longitude":4.526677,
    "iso:country":"NL",
    "sg:address":"Kralingsewg 120",
    "sg:city":"Rotterdam",
    "sg:classifiers":[
        {
            "category":"Sports & Exercise",
            "subcategory":"Stables",
            "type":"Entertainment"
        }
    ],
    "sg:owner":"simplegeo",
    "sg:phone":"+31 10 452 6838",
    "sg:postcode":"3062 CG",
    "sg:province":"Zuid-Holland",
    "sg:tags":[
        "maneges"
    ],
    "src:geom":"simplegeo",
    "wof:belongsto":[
        85797861,
        85633337,
        101751843,
        85687041
    ],
    "wof:breaches":[],
    "wof:concordances":{
        "sg:id":"SG_0Vxp0YrIb33d6tZEAQqvz7_51.926479_4.526677@1306269943"
    },
    "wof:country":"NL",
    "wof:geomhash":"555ce349511cfc903640e204246dc82a",
    "wof:hierarchy":[
        {
            "continent_id":-1,
            "country_id":85633337,
            "locality_id":101751843,
            "neighbourhood_id":85797861,
            "region_id":85687041,
            "venue_id":252774889
        }
    ],
    "wof:id":252774889,
    "wof:lastmodified":1449005832,
    "wof:name":"Rotterdamsche Manege, De",
    "wof:parent_id":85797861,
    "wof:placetype":"venue",
    "wof:superseded_by":[],
    "wof:supersedes":[],
    "wof:tags":[
        "maneges"
    ]
},
  "bbox": [4.526677,51.926479,4.526677,51.926479],
  "geometry": {"coordinates":[4.526677,51.926479],"type":"Point"}
}