{
  "id": 320107175,
  "type": "Feature",
  "properties": {
    "edtf:cessation":"u",
    "edtf:inception":"u",
    "geom:area":0.0,
    "geom:bbox":"5.370102,51.668209,5.370102,51.668209",
    "geom:latitude":51.668209,
    "geom:longitude":5.370102,
    "iso:country":"NL",
    "sg:address":"Litserstr 49",
    "sg:city":"Den Dungen",
    "sg:classifiers":[
        {
            "category":"Retail",
            "subcategory":"Auto Repair",
            "type":"Services"
        }
    ],
    "sg:owner":"simplegeo",
    "sg:phone":"+31 73 594 1619",
    "sg:postcode":"5275 BS",
    "sg:province":"Noord-Brabant",
    "sg:tags":[
        "garage"
    ],
    "src:geom":"simplegeo",
    "wof:belongsto":[
        85633337,
        85687035
    ],
    "wof:breaches":[],
    "wof:concordances":{
        "sg:id":"SG_5GAUFm976fA9dZjgnjZ0Ra_51.668209_5.370102@1306269994"
    },
    "wof:country":"NL",
    "wof:geomhash":"621a0f52b392fb16b936e88197aafc3b",
    "wof:hierarchy":[
        {
            "continent_id":-1,
            "country_id":85633337,
            "locality_id":-1,
            "neighbourhood_id":-1,
            "region_id":85687035,
            "venue_id":320107175
        }
    ],
    "wof:id":320107175,
    "wof:lastmodified":1449011277,
    "wof:name":"Schuurmans, M",
    "wof:parent_id":-1,
    "wof:placetype":"venue",
    "wof:superseded_by":[],
    "wof:supersedes":[],
    "wof:tags":[
        "garage"
    ]
},
  "bbox": [5.370102,51.668209,5.370102,51.668209],
  "geometry": {"coordinates":[5.370102,51.668209],"type":"Point"}
}