{
  "id": 219919097,
  "type": "Feature",
  "properties": {
    "edtf:cessation":"u",
    "edtf:inception":"u",
    "geom:area":0.0,
    "geom:bbox":"5.16837,52.08736,5.16837,52.08736",
    "geom:latitude":52.08736,
    "geom:longitude":5.16837,
    "iso:country":"NL",
    "sg:address":"Tacitusln 11",
    "sg:city":"Utrecht",
    "sg:classifiers":[],
    "sg:orig_category":"Adviesbureaus Bedrijfsorganisatie",
    "sg:owner":"simplegeo",
    "sg:phone":"+31 30 251 2041",
    "sg:postcode":"3584 AP",
    "sg:province":"Utrecht",
    "src:geom":"simplegeo",
    "wof:belongsto":[
        85797403,
        85633337,
        85687039
    ],
    "wof:breaches":[],
    "wof:concordances":{
        "sg:id":"SG_6S1z9bBjo59mXNKs67UeYm_52.087360_5.168370@1306269930"
    },
    "wof:country":"NL",
    "wof:geomhash":"16620482c7db1729de8f0be9d9794dc1",
    "wof:hierarchy":[
        {
            "continent_id":-1,
            "country_id":85633337,
            "locality_id":-1,
            "neighbourhood_id":85797403,
            "region_id":85687039,
            "venue_id":219919097
        }
    ],
    "wof:id":219919097,
    "wof:lastmodified":1449073068,
    "wof:name":"Reenen, Van",
    "wof:parent_id":85797403,
    "wof:placetype":"venue",
    "wof:superseded_by":[],
    "wof:supersedes":[],
    "wof:tags":[]
},
  "bbox": [5.16837,52.08736,5.16837,52.08736],
  "geometry": {"coordinates":[5.16837,52.08736],"type":"Point"}
}