{
  "id": 336745417,
  "type": "Feature",
  "properties": {
    "edtf:cessation":"u",
    "edtf:inception":"u",
    "geom:area":0.0,
    "geom:bbox":"5.644532,51.491104,5.644532,51.491104",
    "geom:latitude":51.491104,
    "geom:longitude":5.644532,
    "iso:country":"NL",
    "sg:address":"Aarle Rixtelseweg 46",
    "sg:city":"Helmond",
    "sg:classifiers":[
        {
            "category":"Professional",
            "subcategory":"Accounting & Tax Preparation",
            "type":"Services"
        }
    ],
    "sg:owner":"simplegeo",
    "sg:phone":"+31 492 537 970",
    "sg:postcode":"5707 GM",
    "sg:province":"Noord-Brabant",
    "sg:tags":[
        "accountant"
    ],
    "src:geom":"simplegeo",
    "wof:belongsto":[
        85798473,
        85633337,
        85687035
    ],
    "wof:breaches":[],
    "wof:concordances":{
        "sg:id":"SG_3jRQ74EJ0KbcM7OhPAu7xT_51.491104_5.644532@1306270005"
    },
    "wof:country":"NL",
    "wof:geomhash":"de3a620e79262c2e136b1bf97c423a25",
    "wof:hierarchy":[
        {
            "continent_id":-1,
            "country_id":85633337,
            "locality_id":-1,
            "neighbourhood_id":85798473,
            "region_id":85687035,
            "venue_id":336745417
        }
    ],
    "wof:id":336745417,
    "wof:lastmodified":1448997955,
    "wof:name":"Deracc Bv",
    "wof:parent_id":85798473,
    "wof:placetype":"venue",
    "wof:superseded_by":[],
    "wof:supersedes":[],
    "wof:tags":[
        "accountant"
    ]
},
  "bbox": [5.644532,51.491104,5.644532,51.491104],
  "geometry": {"coordinates":[5.644532,51.491104],"type":"Point"}
}