{
  "id": 186412075,
  "type": "Feature",
  "properties": {
    "edtf:cessation":"u",
    "edtf:inception":"u",
    "geom:area":0.0,
    "geom:bbox":"4.575085,51.963505,4.575085,51.963505",
    "geom:latitude":51.963505,
    "geom:longitude":4.575085,
    "iso:country":"NL",
    "sg:address":"Nieuwemeer 38",
    "sg:city":"Rotterdam",
    "sg:classifiers":[],
    "sg:orig_category":"Verenigingen En Stichtingen",
    "sg:owner":"simplegeo",
    "sg:phone":"+31 10 455 9245",
    "sg:postcode":"3068 KJ",
    "sg:province":"South Holland",
    "src:geom":"simplegeo",
    "wof:belongsto":[
        85798779,
        85633337,
        101752769,
        85687041
    ],
    "wof:breaches":[],
    "wof:concordances":{
        "sg:id":"SG_4QGyorIe0AODwgwDFhm1ht_51.963505_4.575085@1306269912"
    },
    "wof:country":"NL",
    "wof:geomhash":"c457c0159d8ca6ab40d959c06596cc9e",
    "wof:hierarchy":[
        {
            "continent_id":-1,
            "country_id":85633337,
            "locality_id":101752769,
            "neighbourhood_id":85798779,
            "region_id":85687041,
            "venue_id":186412075
        }
    ],
    "wof:id":186412075,
    "wof:lastmodified":1449050953,
    "wof:name":"Infokat, Sticht",
    "wof:parent_id":85798779,
    "wof:placetype":"venue",
    "wof:superseded_by":[],
    "wof:supersedes":[],
    "wof:tags":[]
},
  "bbox": [4.575085,51.963505,4.575085,51.963505],
  "geometry": {"coordinates":[4.575085,51.963505],"type":"Point"}
}