{
  "id": 253673137,
  "type": "Feature",
  "properties": {
    "edtf:cessation":"u",
    "edtf:inception":"u",
    "geom:area":0.0,
    "geom:bbox":"6.105734,52.516483,6.105734,52.516483",
    "geom:latitude":52.516483,
    "geom:longitude":6.105734,
    "iso:country":"NL",
    "sg:address":"T A Kempisstr 113",
    "sg:city":"Zwolle",
    "sg:classifiers":[
        {
            "category":"Food & Beverages",
            "subcategory":"Bakery",
            "type":"Retail Goods"
        }
    ],
    "sg:owner":"simplegeo",
    "sg:phone":"+31 38 454 2160",
    "sg:postcode":"8021 BL",
    "sg:province":"NL.08",
    "sg:tags":[
        "pizza"
    ],
    "src:geom":"simplegeo",
    "wof:belongsto":[
        85798691,
        85633337,
        101751861,
        85687045
    ],
    "wof:breaches":[],
    "wof:concordances":{
        "sg:id":"SG_0pxCnV7ddXsqeqCBM4EVbe_52.516483_6.105734@1306269952"
    },
    "wof:country":"NL",
    "wof:geomhash":"4c0c0422ac6241eb2fba4c2e967b4d30",
    "wof:hierarchy":[
        {
            "continent_id":-1,
            "country_id":85633337,
            "locality_id":101751861,
            "neighbourhood_id":85798691,
            "region_id":85687045,
            "venue_id":253673137
        }
    ],
    "wof:id":253673137,
    "wof:lastmodified":1449063976,
    "wof:name":"Sandro, Pizza",
    "wof:parent_id":85798691,
    "wof:placetype":"venue",
    "wof:superseded_by":[],
    "wof:supersedes":[],
    "wof:tags":[
        "pizza"
    ]
},
  "bbox": [6.105734,52.516483,6.105734,52.516483],
  "geometry": {"coordinates":[6.105734,52.516483],"type":"Point"}
}