{
  "id": 320260733,
  "type": "Feature",
  "properties": {
    "edtf:cessation":"u",
    "edtf:inception":"u",
    "geom:area":0.0,
    "geom:bbox":"5.576995,52.186356,5.576995,52.186356",
    "geom:latitude":52.186356,
    "geom:longitude":5.576995,
    "iso:country":"NL",
    "sg:address":"Appelsewg 13",
    "sg:city":"Voorthuizen",
    "sg:classifiers":[],
    "sg:orig_category":"Glasindustrie?n",
    "sg:owner":"simplegeo",
    "sg:phone":"+31 342 472 083",
    "sg:postcode":"3781 MD",
    "sg:province":"Gelderland",
    "sg:website":"http://www.tetterodeglas.nl",
    "src:geom":"simplegeo",
    "wof:belongsto":[
        85633337,
        85687043
    ],
    "wof:breaches":[],
    "wof:concordances":{
        "sg:id":"SG_5wBhVuNhxkrQyMNhIrH2sS_52.186356_5.576995@1306269996"
    },
    "wof:country":"NL",
    "wof:geomhash":"3d07d784d18253551d861c5bf983a41e",
    "wof:hierarchy":[
        {
            "continent_id":-1,
            "country_id":85633337,
            "locality_id":-1,
            "neighbourhood_id":-1,
            "region_id":85687043,
            "venue_id":320260733
        }
    ],
    "wof:id":320260733,
    "wof:lastmodified":1449011880,
    "wof:name":"Tetterode",
    "wof:parent_id":-1,
    "wof:placetype":"venue",
    "wof:superseded_by":[],
    "wof:supersedes":[],
    "wof:tags":[]
},
  "bbox": [5.576995,52.186356,5.576995,52.186356],
  "geometry": {"coordinates":[5.576995,52.186356],"type":"Point"}
}