{
  "id": 270423031,
  "type": "Feature",
  "properties": {
    "edtf:cessation":"u",
    "edtf:inception":"u",
    "geom:area":0.0,
    "geom:bbox":"5.8986,51.984547,5.8986,51.984547",
    "geom:latitude":51.984547,
    "geom:longitude":5.8986,
    "iso:country":"NL",
    "sg:address":"Renssenstraat 17",
    "sg:city":"Arnhem",
    "sg:classifiers":[],
    "sg:orig_category":"Banken And Kredietinstellingen",
    "sg:owner":"simplegeo",
    "sg:phone":"+31 26 377 9820",
    "sg:postcode":"6811 MC",
    "sg:province":"Gelderland",
    "src:geom":"simplegeo",
    "wof:belongsto":[
        85797665,
        85633337,
        85687043
    ],
    "wof:breaches":[],
    "wof:concordances":{
        "sg:id":"SG_2FmHjcQ7231NhBekSldRbI_51.984547_5.898600@1306269965"
    },
    "wof:country":"NL",
    "wof:geomhash":"c4f8da04af0770a557b917b46c8879a7",
    "wof:hierarchy":[
        {
            "continent_id":-1,
            "country_id":85633337,
            "locality_id":-1,
            "neighbourhood_id":85797665,
            "region_id":85687043,
            "venue_id":270423031
        }
    ],
    "wof:id":270423031,
    "wof:lastmodified":1449009039,
    "wof:name":"Ptt Post Rayon Arnhem",
    "wof:parent_id":85797665,
    "wof:placetype":"venue",
    "wof:superseded_by":[],
    "wof:supersedes":[],
    "wof:tags":[]
},
  "bbox": [5.8986,51.984547,5.8986,51.984547],
  "geometry": {"coordinates":[5.8986,51.984547],"type":"Point"}
}