{
  "id": 320594869,
  "type": "Feature",
  "properties": {
    "edtf:cessation":"u",
    "edtf:inception":"u",
    "geom:area":0.0,
    "geom:bbox":"5.750099,52.526733,5.750099,52.526733",
    "geom:latitude":52.526733,
    "geom:longitude":5.750099,
    "iso:country":"NL",
    "sg:address":"Boudewynln 4",
    "sg:city":"Dronten",
    "sg:classifiers":[
        {
            "category":"Food & Beverages",
            "subcategory":"Fruits & Vegetables",
            "type":"Retail Goods"
        }
    ],
    "sg:owner":"simplegeo",
    "sg:phone":"+31 321 312 193",
    "sg:postcode":"8251 RT",
    "sg:province":"Flevoland",
    "sg:tags":[
        "en",
        "groenten"
    ],
    "src:geom":"simplegeo",
    "wof:belongsto":[
        85633337,
        85687049
    ],
    "wof:breaches":[],
    "wof:concordances":{
        "sg:id":"SG_45HLa5RMM5aFEWSRGPfGWO_52.526733_5.750099@1306270000"
    },
    "wof:country":"NL",
    "wof:geomhash":"c9159d42fa790d36085cd6e55f59fda3",
    "wof:hierarchy":[
        {
            "continent_id":-1,
            "country_id":85633337,
            "locality_id":-1,
            "neighbourhood_id":-1,
            "region_id":85687049,
            "venue_id":320594869
        }
    ],
    "wof:id":320594869,
    "wof:lastmodified":1449011793,
    "wof:name":"Topper, L",
    "wof:parent_id":-1,
    "wof:placetype":"venue",
    "wof:superseded_by":[],
    "wof:supersedes":[],
    "wof:tags":[
        "en",
        "groenten"
    ]
},
  "bbox": [5.750099,52.526733,5.750099,52.526733],
  "geometry": {"coordinates":[5.750099,52.526733],"type":"Point"}
}