{
  "id": 303672291,
  "type": "Feature",
  "properties": {
    "edtf:cessation":"u",
    "edtf:inception":"u",
    "geom:area":0.0,
    "geom:bbox":"3.773141,51.419693,3.773141,51.419693",
    "geom:latitude":51.419693,
    "geom:longitude":3.773141,
    "iso:country":"NL",
    "sg:address":"Korte Zuidweg 12",
    "sg:city":"Borssele",
    "sg:classifiers":[],
    "sg:orig_category":"Diverse Dierenfokkers",
    "sg:owner":"simplegeo",
    "sg:phone":"+31 113 354 084",
    "sg:postcode":"4454 PV",
    "sg:province":"Zeeland",
    "src:geom":"simplegeo",
    "wof:belongsto":[
        85633337,
        85687037
    ],
    "wof:breaches":[],
    "wof:concordances":{
        "sg:id":"SG_2wH8oCFZCWEEvOiG7bfmUr_51.419693_3.773141@1306269986"
    },
    "wof:country":"NL",
    "wof:geomhash":"a676a356f863d72d6f1428877a6b8db0",
    "wof:hierarchy":[
        {
            "continent_id":-1,
            "country_id":85633337,
            "locality_id":-1,
            "neighbourhood_id":-1,
            "region_id":85687037,
            "venue_id":303672291
        }
    ],
    "wof:id":303672291,
    "wof:lastmodified":1448998275,
    "wof:name":"Firma Sinac'S Nertsenfokkerij",
    "wof:parent_id":-1,
    "wof:placetype":"venue",
    "wof:superseded_by":[],
    "wof:supersedes":[],
    "wof:tags":[]
},
  "bbox": [3.773141,51.419693,3.773141,51.419693],
  "geometry": {"coordinates":[3.773141,51.419693],"type":"Point"}
}