{
  "id": 270148895,
  "type": "Feature",
  "properties": {
    "edtf:cessation":"u",
    "edtf:inception":"u",
    "geom:area":0.0,
    "geom:bbox":"4.342024,51.904633,4.342024,51.904633",
    "geom:latitude":51.904633,
    "geom:longitude":4.342024,
    "iso:country":"NL",
    "sg:address":"Stationsstr 130",
    "sg:city":"Vlaardingen",
    "sg:classifiers":[],
    "sg:orig_category":"Fotojournalisten Freelance",
    "sg:owner":"simplegeo",
    "sg:phone":"+31 10 434 5671",
    "sg:postcode":"3131 PV",
    "sg:province":"South Holland",
    "src:geom":"simplegeo",
    "wof:belongsto":[
        85798587,
        85633337,
        101751851,
        85687041
    ],
    "wof:breaches":[],
    "wof:concordances":{
        "sg:id":"SG_2oY1tfwSSvCWXOEcawg7tZ_51.904633_4.342024@1306269962"
    },
    "wof:country":"NL",
    "wof:geomhash":"57bd50d65e9a57c30df900d297a54b4d",
    "wof:hierarchy":[
        {
            "continent_id":-1,
            "country_id":85633337,
            "locality_id":101751851,
            "neighbourhood_id":85798587,
            "region_id":85687041,
            "venue_id":270148895
        }
    ],
    "wof:id":270148895,
    "wof:lastmodified":1449010688,
    "wof:name":"Clash",
    "wof:parent_id":85798587,
    "wof:placetype":"venue",
    "wof:superseded_by":[],
    "wof:supersedes":[],
    "wof:tags":[]
},
  "bbox": [4.342024,51.904633,4.342024,51.904633],
  "geometry": {"coordinates":[4.342024,51.904633],"type":"Point"}
}