{
  "id": 219737483,
  "type": "Feature",
  "properties": {
    "edtf:cessation":"u",
    "edtf:inception":"u",
    "geom:area":0.0,
    "geom:bbox":"5.293798,51.733173,5.293798,51.733173",
    "geom:latitude":51.733173,
    "geom:longitude":5.293798,
    "iso:country":"NL",
    "sg:address":"Meester Bierkusln 31",
    "sg:city":"S Hertogenbosch",
    "sg:classifiers":[],
    "sg:orig_category":"Adviesbureaus Bedrijfsorganisatie",
    "sg:owner":"simplegeo",
    "sg:phone":"+31 73 642 8236",
    "sg:postcode":"5237 JB",
    "sg:province":"Noord-Brabant",
    "src:geom":"simplegeo",
    "wof:belongsto":[
        85797385,
        85633337,
        85687035
    ],
    "wof:breaches":[],
    "wof:concordances":{
        "sg:id":"SG_3btimTMzlB1dnmiVGZHCFI_51.733173_5.293798@1306269928"
    },
    "wof:country":"NL",
    "wof:geomhash":"5e3c15278cbe1cf58f3782a7d4cab35a",
    "wof:hierarchy":[
        {
            "continent_id":-1,
            "country_id":85633337,
            "locality_id":-1,
            "neighbourhood_id":85797385,
            "region_id":85687035,
            "venue_id":219737483
        }
    ],
    "wof:id":219737483,
    "wof:lastmodified":1449071187,
    "wof:name":"Bob",
    "wof:parent_id":85797385,
    "wof:placetype":"venue",
    "wof:superseded_by":[],
    "wof:supersedes":[],
    "wof:tags":[]
},
  "bbox": [5.293798,51.733173,5.293798,51.733173],
  "geometry": {"coordinates":[5.293798,51.733173],"type":"Point"}
}