{
  "id": 253591095,
  "type": "Feature",
  "properties": {
    "edtf:cessation":"u",
    "edtf:inception":"u",
    "geom:area":0.0,
    "geom:bbox":"5.031199,52.637955,5.031199,52.637955",
    "geom:latitude":52.637955,
    "geom:longitude":5.031199,
    "iso:country":"NL",
    "sg:address":"Houtzaagmolen 12",
    "sg:city":"Hoorn Nh",
    "sg:classifiers":[
        {
            "category":"Personal",
            "subcategory":"Nail Salon",
            "type":"Services"
        }
    ],
    "sg:owner":"simplegeo",
    "sg:phone":"+31 229 219 978",
    "sg:postcode":"1622 HD",
    "sg:province":"Noord-Holland",
    "sg:tags":[
        "pedicure"
    ],
    "src:geom":"simplegeo",
    "wof:belongsto":[
        85797609,
        85633337,
        85687053
    ],
    "wof:breaches":[],
    "wof:concordances":{
        "sg:id":"SG_2uDsWJgsg2hyKoNeTNBoqW_52.637955_5.031199@1306269951"
    },
    "wof:country":"NL",
    "wof:geomhash":"a8620ff2c55af9e1f662c71ed59ed8c8",
    "wof:hierarchy":[
        {
            "continent_id":-1,
            "country_id":85633337,
            "locality_id":-1,
            "neighbourhood_id":85797609,
            "region_id":85687053,
            "venue_id":253591095
        }
    ],
    "wof:id":253591095,
    "wof:lastmodified":1449064409,
    "wof:name":"Wolters-Schaafsma, A",
    "wof:parent_id":85797609,
    "wof:placetype":"venue",
    "wof:superseded_by":[],
    "wof:supersedes":[],
    "wof:tags":[
        "pedicure"
    ]
},
  "bbox": [5.031199,52.637955,5.031199,52.637955],
  "geometry": {"coordinates":[5.031199,52.637955],"type":"Point"}
}