{
  "id": 252981107,
  "type": "Feature",
  "properties": {
    "edtf:cessation":"u",
    "edtf:inception":"u",
    "geom:area":0.0,
    "geom:bbox":"-111.930344,34.168091,-111.930344,34.168091",
    "geom:latitude":34.168091,
    "geom:longitude":-111.930344,
    "iso:country":"NL",
    "sg:address":"Bagynhof 44",
    "sg:city":"Veen",
    "sg:classifiers":[],
    "sg:orig_category":"Metaalbewerking",
    "sg:owner":"simplegeo",
    "sg:phone":"+31 416 693 450",
    "sg:postcode":"4264 AZ",
    "sg:province":"Noord-Brabant",
    "src:geom":"simplegeo",
    "wof:belongsto":[
        85633793,
        85688719
    ],
    "wof:breaches":[],
    "wof:concordances":{
        "sg:id":"SG_5UVJKflDq22Be87F6x3Vy7_34.168091_-111.930344@1306269945"
    },
    "wof:country":"NL",
    "wof:geomhash":"6fb9ff332afc5b10d8ae6dfcfe7e020b",
    "wof:hierarchy":[
        {
            "continent_id":-1,
            "country_id":85633793,
            "locality_id":-1,
            "neighbourhood_id":-1,
            "region_id":85688719,
            "venue_id":252981107
        }
    ],
    "wof:id":252981107,
    "wof:lastmodified":1449006535,
    "wof:name":"Elte",
    "wof:parent_id":-1,
    "wof:placetype":"venue",
    "wof:superseded_by":[],
    "wof:supersedes":[],
    "wof:tags":[]
},
  "bbox": [-111.930344,34.168091,-111.930344,34.168091],
  "geometry": {"coordinates":[-111.930344,34.168091],"type":"Point"}
}