{
  "id": 269589081,
  "type": "Feature",
  "properties": {
    "edtf:cessation":"u",
    "edtf:inception":"u",
    "geom:area":0.0,
    "geom:bbox":"6.092686,52.590279,6.092686,52.590279",
    "geom:latitude":52.590279,
    "geom:longitude":6.092686,
    "iso:country":"NL",
    "sg:address":"Heerengr 15",
    "sg:city":"Hasselt",
    "sg:classifiers":[],
    "sg:orig_category":"Projectontwikkeling",
    "sg:owner":"simplegeo",
    "sg:phone":"+31 38 477 5902",
    "sg:postcode":"8061 HV",
    "sg:province":"NL.08",
    "src:geom":"simplegeo",
    "wof:belongsto":[
        85633337,
        101807183,
        85687045
    ],
    "wof:breaches":[],
    "wof:concordances":{
        "sg:id":"SG_2cs1Y3sG8WDSzwA6MgD1EI_52.590279_6.092686@1306269954"
    },
    "wof:country":"NL",
    "wof:geomhash":"5b69c4a2dfd4688e0aae61e03aa6aa7f",
    "wof:hierarchy":[
        {
            "continent_id":-1,
            "country_id":85633337,
            "locality_id":101807183,
            "neighbourhood_id":-1,
            "region_id":85687045,
            "venue_id":269589081
        }
    ],
    "wof:id":269589081,
    "wof:lastmodified":1449037416,
    "wof:name":"Agb Bv",
    "wof:parent_id":-1,
    "wof:placetype":"venue",
    "wof:superseded_by":[],
    "wof:supersedes":[],
    "wof:tags":[]
},
  "bbox": [6.092686,52.590279,6.092686,52.590279],
  "geometry": {"coordinates":[6.092686,52.590279],"type":"Point"}
}