{
  "id": 269954985,
  "type": "Feature",
  "properties": {
    "edtf:cessation":"u",
    "edtf:inception":"u",
    "geom:area":0.0,
    "geom:bbox":"5.628471,51.824287,5.628471,51.824287",
    "geom:latitude":51.824287,
    "geom:longitude":5.628471,
    "iso:country":"NL",
    "sg:address":"Touwslagersbaan 6A",
    "sg:city":"Batenburg",
    "sg:classifiers":[],
    "sg:orig_category":"Fietshandelaren",
    "sg:owner":"simplegeo",
    "sg:phone":"+31 487 542 130",
    "sg:postcode":"6634 AP",
    "sg:province":"Gelderland",
    "src:geom":"simplegeo",
    "wof:belongsto":[
        85633337,
        85687043
    ],
    "wof:breaches":[],
    "wof:concordances":{
        "sg:id":"SG_4TbOqx8iMW304Nkl5Z3fy1_51.824287_5.628471@1306269959"
    },
    "wof:country":"NL",
    "wof:geomhash":"2bbbf373c831baf2ded6430592b1c367",
    "wof:hierarchy":[
        {
            "continent_id":-1,
            "country_id":85633337,
            "locality_id":-1,
            "neighbourhood_id":-1,
            "region_id":85687043,
            "venue_id":269954985
        }
    ],
    "wof:id":269954985,
    "wof:lastmodified":1449038571,
    "wof:name":"Tweewielercentrum Bart Cloosterman",
    "wof:parent_id":-1,
    "wof:placetype":"venue",
    "wof:superseded_by":[],
    "wof:supersedes":[],
    "wof:tags":[]
},
  "bbox": [5.628471,51.824287,5.628471,51.824287],
  "geometry": {"coordinates":[5.628471,51.824287],"type":"Point"}
}