{
  "id": 220030833,
  "type": "Feature",
  "properties": {
    "edtf:cessation":"u",
    "edtf:inception":"u",
    "geom:area":0.0,
    "geom:bbox":"5.378908,51.898224,5.378908,51.898224",
    "geom:latitude":51.898224,
    "geom:longitude":5.378908,
    "iso:country":"NL",
    "sg:address":"Thornstr 3",
    "sg:city":"Kerk Avezaath",
    "sg:classifiers":[],
    "sg:orig_category":"Adviesbureaus Economie",
    "sg:owner":"simplegeo",
    "sg:phone":"+31 344 571 924",
    "sg:postcode":"4012 EJ",
    "sg:province":"Gelderland",
    "src:geom":"simplegeo",
    "wof:belongsto":[
        85797475,
        85633337,
        101809879,
        85687043
    ],
    "wof:breaches":[],
    "wof:concordances":{
        "sg:id":"SG_7dBSAuPf9BFyUiyHr8CXuN_51.898224_5.378908@1306269931"
    },
    "wof:country":"NL",
    "wof:geomhash":"9efd5fe36bb60d8d317d630df6299f5c",
    "wof:hierarchy":[
        {
            "continent_id":-1,
            "country_id":85633337,
            "locality_id":101809879,
            "neighbourhood_id":85797475,
            "region_id":85687043,
            "venue_id":220030833
        }
    ],
    "wof:id":220030833,
    "wof:lastmodified":1449074324,
    "wof:name":"Cawesa",
    "wof:parent_id":85797475,
    "wof:placetype":"venue",
    "wof:superseded_by":[],
    "wof:supersedes":[],
    "wof:tags":[]
},
  "bbox": [5.378908,51.898224,5.378908,51.898224],
  "geometry": {"coordinates":[5.378908,51.898224],"type":"Point"}
}