{
  "id": 186182405,
  "type": "Feature",
  "properties": {
    "edtf:cessation":"u",
    "edtf:inception":"u",
    "geom:area":0.0,
    "geom:bbox":"6.281339,51.947937,6.281339,51.947937",
    "geom:latitude":51.947937,
    "geom:longitude":6.281339,
    "iso:country":"NL",
    "sg:address":"Doetinchemsewg 61A",
    "sg:city":"Doetinchem",
    "sg:classifiers":[],
    "sg:orig_category":"Kunststoffen - Fabrieken En Groothandel",
    "sg:owner":"simplegeo",
    "sg:phone":"+31 314 360 406",
    "sg:postcode":"7007 CB",
    "sg:province":"Gelderland",
    "src:geom":"simplegeo",
    "wof:belongsto":[
        85797329,
        85633337,
        85687043
    ],
    "wof:breaches":[],
    "wof:concordances":{
        "sg:id":"SG_2EYjDnPDaKXDQqcLY1U9H2_51.947937_6.281339@1306269910"
    },
    "wof:country":"NL",
    "wof:geomhash":"7c9ad0ffcdb00d4c02b564745590d848",
    "wof:hierarchy":[
        {
            "continent_id":-1,
            "country_id":85633337,
            "locality_id":-1,
            "neighbourhood_id":85797329,
            "region_id":85687043,
            "venue_id":186182405
        }
    ],
    "wof:id":186182405,
    "wof:lastmodified":1449052072,
    "wof:name":"Bts Int",
    "wof:parent_id":85797329,
    "wof:placetype":"venue",
    "wof:superseded_by":[],
    "wof:supersedes":[],
    "wof:tags":[]
},
  "bbox": [6.281339,51.947937,6.281339,51.947937],
  "geometry": {"coordinates":[6.281339,51.947937],"type":"Point"}
}