{
  "id": 219520325,
  "type": "Feature",
  "properties": {
    "edtf:cessation":"u",
    "edtf:inception":"u",
    "geom:area":0.0,
    "geom:bbox":"5.392753,51.458099,5.392753,51.458099",
    "geom:latitude":51.458099,
    "geom:longitude":5.392753,
    "iso:country":"NL",
    "sg:address":"Luchthavenweg 25",
    "sg:city":"Eindhoven",
    "sg:classifiers":[],
    "sg:orig_category":"Luchtvaart",
    "sg:owner":"simplegeo",
    "sg:phone":"+31 40 291 4080",
    "sg:postcode":"5657 EA",
    "sg:province":"Noord-Brabant",
    "src:geom":"simplegeo",
    "wof:belongsto":[
        85797929,
        85633337,
        85687035
    ],
    "wof:breaches":[],
    "wof:concordances":{
        "sg:id":"SG_5hOqFhxnOXtOlCylyhD7Df_51.458099_5.392753@1306269927"
    },
    "wof:country":"NL",
    "wof:geomhash":"d776e2edea7b02f5333e20135812b3eb",
    "wof:hierarchy":[
        {
            "continent_id":-1,
            "country_id":85633337,
            "locality_id":-1,
            "neighbourhood_id":85797929,
            "region_id":85687035,
            "venue_id":219520325
        }
    ],
    "wof:id":219520325,
    "wof:lastmodified":1449071561,
    "wof:name":"Dynamic Air Lines",
    "wof:parent_id":85797929,
    "wof:placetype":"venue",
    "wof:superseded_by":[],
    "wof:supersedes":[],
    "wof:tags":[]
},
  "bbox": [5.392753,51.458099,5.392753,51.458099],
  "geometry": {"coordinates":[5.392753,51.458099],"type":"Point"}
}