{
  "id": 320185543,
  "type": "Feature",
  "properties": {
    "edtf:cessation":"u",
    "edtf:inception":"u",
    "geom:area":0.0,
    "geom:bbox":"5.859608,51.952694,5.859608,51.952694",
    "geom:latitude":51.952694,
    "geom:longitude":5.859608,
    "iso:country":"NL",
    "sg:address":"Bredasingel 5",
    "sg:city":"Arnhem",
    "sg:classifiers":[],
    "sg:orig_category":"Geluidsopnamen",
    "sg:owner":"simplegeo",
    "sg:phone":"+31 26 383 0922",
    "sg:postcode":"6843 RA",
    "sg:province":"Gelderland",
    "src:geom":"simplegeo",
    "wof:belongsto":[
        85797983,
        85633337,
        101751857,
        85687043
    ],
    "wof:breaches":[],
    "wof:concordances":{
        "sg:id":"SG_31K50FflLKjULarc0ZqIHJ_51.952694_5.859608@1306269995"
    },
    "wof:country":"NL",
    "wof:geomhash":"0846d5adda4f202ee568e179dfd1be55",
    "wof:hierarchy":[
        {
            "continent_id":-1,
            "country_id":85633337,
            "locality_id":101751857,
            "neighbourhood_id":85797983,
            "region_id":85687043,
            "venue_id":320185543
        }
    ],
    "wof:id":320185543,
    "wof:lastmodified":1449011871,
    "wof:name":"Bobo-Sound",
    "wof:parent_id":85797983,
    "wof:placetype":"venue",
    "wof:superseded_by":[],
    "wof:supersedes":[],
    "wof:tags":[]
},
  "bbox": [5.859608,51.952694,5.859608,51.952694],
  "geometry": {"coordinates":[5.859608,51.952694],"type":"Point"}
}