{
  "id": 219618481,
  "type": "Feature",
  "properties": {
    "edtf:cessation":"u",
    "edtf:inception":"u",
    "geom:area":0.0,
    "geom:bbox":"5.040647,52.117062,5.040647,52.117062",
    "geom:latitude":52.117062,
    "geom:longitude":5.040647,
    "iso:country":"NL",
    "sg:address":"Zonnebaan 17",
    "sg:city":"Utrecht",
    "sg:classifiers":[],
    "sg:orig_category":"Administratie- En Boekhoudkantoren",
    "sg:owner":"simplegeo",
    "sg:phone":"+31 20 301 0950",
    "sg:postcode":"3542 EA",
    "sg:province":"Utrecht",
    "src:geom":"simplegeo",
    "wof:belongsto":[
        85797903,
        85633337,
        101751827,
        85687039
    ],
    "wof:breaches":[],
    "wof:concordances":{
        "sg:id":"SG_3cV80hxkXiS70fIyznMow4_52.117062_5.040647@1306269927"
    },
    "wof:country":"NL",
    "wof:geomhash":"fd2af8cb4ce640e06d5ceb52e44c270f",
    "wof:hierarchy":[
        {
            "continent_id":-1,
            "country_id":85633337,
            "locality_id":101751827,
            "neighbourhood_id":85797903,
            "region_id":85687039,
            "venue_id":219618481
        }
    ],
    "wof:id":219618481,
    "wof:lastmodified":1449072593,
    "wof:name":"Excite Italia Bv",
    "wof:parent_id":85797903,
    "wof:placetype":"venue",
    "wof:superseded_by":[],
    "wof:supersedes":[],
    "wof:tags":[]
},
  "bbox": [5.040647,52.117062,5.040647,52.117062],
  "geometry": {"coordinates":[5.040647,52.117062],"type":"Point"}
}