{
  "id": 269790313,
  "type": "Feature",
  "properties": {
    "edtf:cessation":"u",
    "edtf:inception":"u",
    "geom:area":0.0,
    "geom:bbox":"5.473017,51.567551,5.473017,51.567551",
    "geom:latitude":51.567551,
    "geom:longitude":5.473017,
    "iso:country":"NL",
    "sg:address":"Eerschotsestraat 92",
    "sg:city":"Sint Oedenrode",
    "sg:classifiers":[
        {
            "category":"Fast Food",
            "subcategory":"",
            "type":"Food & Drink"
        }
    ],
    "sg:owner":"simplegeo",
    "sg:phone":"+31 413 473 142",
    "sg:postcode":"5491 AD",
    "sg:province":"North Brabant",
    "sg:tags":[
        "afhaal",
        "restaurant"
    ],
    "src:geom":"simplegeo",
    "wof:belongsto":[
        85633337,
        101808295,
        85687035
    ],
    "wof:breaches":[],
    "wof:concordances":{
        "sg:id":"SG_3WzYbDebXISsZliIIiUNGH_51.567551_5.473017@1306269957"
    },
    "wof:country":"NL",
    "wof:geomhash":"7854a5c85d5181309949038850bd133b",
    "wof:hierarchy":[
        {
            "continent_id":-1,
            "country_id":85633337,
            "locality_id":101808295,
            "neighbourhood_id":-1,
            "region_id":85687035,
            "venue_id":269790313
        }
    ],
    "wof:id":269790313,
    "wof:lastmodified":1449038259,
    "wof:name":"Snackbar Van Den Dungen Vof",
    "wof:parent_id":-1,
    "wof:placetype":"venue",
    "wof:superseded_by":[],
    "wof:supersedes":[],
    "wof:tags":[
        "afhaal",
        "restaurant"
    ]
},
  "bbox": [5.473017,51.567551,5.473017,51.567551],
  "geometry": {"coordinates":[5.473017,51.567551],"type":"Point"}
}