{
  "id": 169810829,
  "type": "Feature",
  "properties": {
    "edtf:cessation":"u",
    "edtf:inception":"u",
    "geom:area":0.0,
    "geom:bbox":"6.786743,52.256573,6.786743,52.256573",
    "geom:latitude":52.256573,
    "geom:longitude":6.786743,
    "iso:country":"NL",
    "sg:address":"Industriestr 72",
    "sg:city":"Hengelo",
    "sg:classifiers":[],
    "sg:orig_category":"Kappers",
    "sg:owner":"simplegeo",
    "sg:phone":"+31 74 291 7140",
    "sg:postcode":"7553 CR",
    "sg:province":"NL.08",
    "src:geom":"simplegeo",
    "wof:belongsto":[
        85797029,
        85633337,
        85687045
    ],
    "wof:breaches":[],
    "wof:concordances":{
        "sg:id":"SG_02TpPmVO9xfJIaUnPDlyoe_52.256573_6.786743@1306269906"
    },
    "wof:country":"NL",
    "wof:geomhash":"c43e1e3a94687dea64faca1af176f90e",
    "wof:hierarchy":[
        {
            "continent_id":-1,
            "country_id":85633337,
            "locality_id":-1,
            "neighbourhood_id":85797029,
            "region_id":85687045,
            "venue_id":169810829
        }
    ],
    "wof:id":169810829,
    "wof:lastmodified":1449033645,
    "wof:name":"Paul",
    "wof:parent_id":85797029,
    "wof:placetype":"venue",
    "wof:superseded_by":[],
    "wof:supersedes":[],
    "wof:tags":[]
},
  "bbox": [6.786743,52.256573,6.786743,52.256573],
  "geometry": {"coordinates":[6.786743,52.256573],"type":"Point"}
}