{
  "id": 320249535,
  "type": "Feature",
  "properties": {
    "edtf:cessation":"u",
    "edtf:inception":"u",
    "geom:area":0.0,
    "geom:bbox":"5.072997,51.548073,5.072997,51.548073",
    "geom:latitude":51.548073,
    "geom:longitude":5.072997,
    "iso:country":"NL",
    "sg:address":"G Mercatorstr 47",
    "sg:city":"Tilburg",
    "sg:classifiers":[],
    "sg:orig_category":"Glas",
    "sg:owner":"simplegeo",
    "sg:phone":"+31 6 55337857",
    "sg:postcode":"5025 EN",
    "sg:province":"Noord-Brabant",
    "src:geom":"simplegeo",
    "wof:belongsto":[
        85797843,
        85633337,
        101751817,
        85687035
    ],
    "wof:breaches":[],
    "wof:concordances":{
        "sg:id":"SG_7l0THfWMCHk2RJyKR1jyUd_51.548073_5.072997@1306269996"
    },
    "wof:country":"NL",
    "wof:geomhash":"2417eb10b88c604daf51b2f952aff07e",
    "wof:hierarchy":[
        {
            "continent_id":-1,
            "country_id":85633337,
            "locality_id":101751817,
            "neighbourhood_id":85797843,
            "region_id":85687035,
            "venue_id":320249535
        }
    ],
    "wof:id":320249535,
    "wof:lastmodified":1449011441,
    "wof:name":"Vermeer",
    "wof:parent_id":85797843,
    "wof:placetype":"venue",
    "wof:superseded_by":[],
    "wof:supersedes":[],
    "wof:tags":[]
},
  "bbox": [5.072997,51.548073,5.072997,51.548073],
  "geometry": {"coordinates":[5.072997,51.548073],"type":"Point"}
}