{
  "id": 270214903,
  "type": "Feature",
  "properties": {
    "edtf:cessation":"u",
    "edtf:inception":"u",
    "geom:area":0.0,
    "geom:bbox":"6.000966,53.319324,6.000966,53.319324",
    "geom:latitude":53.319324,
    "geom:longitude":6.000966,
    "iso:country":"NL",
    "sg:address":"Gossesstrjitte 21",
    "sg:city":"Dokkum",
    "sg:classifiers":[],
    "sg:orig_category":"Fotostudio'S And Fotografen",
    "sg:owner":"simplegeo",
    "sg:phone":"+31 519 297 162",
    "sg:postcode":"9101 DK",
    "sg:province":"Provincie Friesland",
    "src:geom":"simplegeo",
    "wof:belongsto":[
        85633337,
        101806131,
        85687055
    ],
    "wof:breaches":[],
    "wof:concordances":{
        "sg:id":"SG_2emO4pRSpv2eG7Snr3oRUy_53.319324_6.000966@1306269963"
    },
    "wof:country":"NL",
    "wof:geomhash":"daa523110b504c87f363d55040b223b5",
    "wof:hierarchy":[
        {
            "continent_id":-1,
            "country_id":85633337,
            "locality_id":101806131,
            "neighbourhood_id":-1,
            "region_id":85687055,
            "venue_id":270214903
        }
    ],
    "wof:id":270214903,
    "wof:lastmodified":1449011054,
    "wof:name":"D. Bouma",
    "wof:parent_id":-1,
    "wof:placetype":"venue",
    "wof:superseded_by":[],
    "wof:supersedes":[],
    "wof:tags":[]
},
  "bbox": [6.000966,53.319324,6.000966,53.319324],
  "geometry": {"coordinates":[6.000966,53.319324],"type":"Point"}
}