{
  "id": 236533377,
  "type": "Feature",
  "properties": {
    "edtf:cessation":"u",
    "edtf:inception":"u",
    "geom:area":0.0,
    "geom:bbox":"5.976789,52.217987,5.976789,52.217987",
    "geom:latitude":52.217987,
    "geom:longitude":5.976789,
    "iso:country":"NL",
    "sg:address":"Trekweg 44",
    "sg:city":"Apeldoorn",
    "sg:classifiers":[],
    "sg:orig_category":"Auto'S And Voertuigen",
    "sg:owner":"simplegeo",
    "sg:phone":"+31 55 366 9429",
    "sg:postcode":"7322 HR",
    "sg:province":"Gelderland",
    "src:geom":"simplegeo",
    "wof:belongsto":[
        85798771,
        85633337,
        101751853,
        85687043
    ],
    "wof:breaches":[],
    "wof:concordances":{
        "sg:id":"SG_4aPwvOxqXKAN7nNeGUFxkG_52.217987_5.976789@1306269938"
    },
    "wof:country":"NL",
    "wof:geomhash":"d9e20f22e7903cdce434c9cb64f34f73",
    "wof:hierarchy":[
        {
            "continent_id":-1,
            "country_id":85633337,
            "locality_id":101751853,
            "neighbourhood_id":85798771,
            "region_id":85687043,
            "venue_id":236533377
        }
    ],
    "wof:id":236533377,
    "wof:lastmodified":1449001647,
    "wof:name":"A. Roest",
    "wof:parent_id":85798771,
    "wof:placetype":"venue",
    "wof:superseded_by":[],
    "wof:supersedes":[],
    "wof:tags":[]
},
  "bbox": [5.976789,52.217987,5.976789,52.217987],
  "geometry": {"coordinates":[5.976789,52.217987],"type":"Point"}
}