{
  "id": 303970035,
  "type": "Feature",
  "properties": {
    "edtf:cessation":"u",
    "edtf:inception":"u",
    "geom:area":0.0,
    "geom:bbox":"6.329984,52.170128,6.329984,52.170128",
    "geom:latitude":52.170128,
    "geom:longitude":6.329984,
    "iso:country":"NL",
    "sg:address":"Zutphensewg 56",
    "sg:city":"Laren Gld",
    "sg:classifiers":[],
    "sg:orig_category":"Homeopathie",
    "sg:owner":"simplegeo",
    "sg:phone":"+31 575 510 605",
    "sg:postcode":"7245 NV",
    "sg:province":"Gelderland",
    "src:geom":"simplegeo",
    "wof:belongsto":[
        85633337,
        85687043
    ],
    "wof:breaches":[],
    "wof:concordances":{
        "sg:id":"SG_2qevOObw9tl4JqZN88iiIE_52.170128_6.329984@1306269989"
    },
    "wof:country":"NL",
    "wof:geomhash":"8a4560e0392377396a9adc3e29a6eb6a",
    "wof:hierarchy":[
        {
            "continent_id":-1,
            "country_id":85633337,
            "locality_id":-1,
            "neighbourhood_id":-1,
            "region_id":85687043,
            "venue_id":303970035
        }
    ],
    "wof:id":303970035,
    "wof:lastmodified":1449000523,
    "wof:name":"Lubberding, M",
    "wof:parent_id":-1,
    "wof:placetype":"venue",
    "wof:superseded_by":[],
    "wof:supersedes":[],
    "wof:tags":[]
},
  "bbox": [6.329984,52.170128,6.329984,52.170128],
  "geometry": {"coordinates":[6.329984,52.170128],"type":"Point"}
}