{
  "id": 320669023,
  "type": "Feature",
  "properties": {
    "edtf:cessation":"u",
    "edtf:inception":"u",
    "geom:area":0.0,
    "geom:bbox":"4.596875,52.291466,4.596875,52.291466",
    "geom:latitude":52.291466,
    "geom:longitude":4.596875,
    "iso:country":"NL",
    "sg:address":"Hillegommerdijk 395",
    "sg:city":"Beinsdorp",
    "sg:classifiers":[
        {
            "category":"Home & Garden",
            "subcategory":"Garden Supply",
            "type":"Retail Goods"
        }
    ],
    "sg:owner":"simplegeo",
    "sg:phone":"+31 6 10282531",
    "sg:postcode":"2144 KV",
    "sg:province":"North Holland",
    "sg:tags":[
        "zand",
        "en",
        "grind"
    ],
    "src:geom":"simplegeo",
    "wof:belongsto":[
        85797085,
        85633337,
        85687053
    ],
    "wof:breaches":[],
    "wof:concordances":{
        "sg:id":"SG_0sUAMC85nZqVPWbgtbvcG9_52.291466_4.596875@1306270001"
    },
    "wof:country":"NL",
    "wof:geomhash":"31e09e76d2813bdb4dc22145b2f432bc",
    "wof:hierarchy":[
        {
            "continent_id":-1,
            "country_id":85633337,
            "locality_id":-1,
            "neighbourhood_id":85797085,
            "region_id":85687053,
            "venue_id":320669023
        }
    ],
    "wof:id":320669023,
    "wof:lastmodified":1449011675,
    "wof:name":"Terra Supply",
    "wof:parent_id":85797085,
    "wof:placetype":"venue",
    "wof:superseded_by":[],
    "wof:supersedes":[],
    "wof:tags":[
        "zand",
        "en",
        "grind"
    ]
},
  "bbox": [4.596875,52.291466,4.596875,52.291466],
  "geometry": {"coordinates":[4.596875,52.291466],"type":"Point"}
}