{
  "id": 236293993,
  "type": "Feature",
  "properties": {
    "edtf:cessation":"u",
    "edtf:inception":"u",
    "geom:area":0.0,
    "geom:bbox":"5.397423,51.402561,5.397423,51.402561",
    "geom:latitude":51.402561,
    "geom:longitude":5.397423,
    "iso:country":"NL",
    "sg:address":"Dorpstr 6",
    "sg:city":"Veldhoven",
    "sg:classifiers":[],
    "sg:orig_category":"Apotheken",
    "sg:owner":"simplegeo",
    "sg:phone":"+31 40 254 2315",
    "sg:postcode":"5504 HH",
    "sg:province":"Noord-Brabant",
    "src:geom":"simplegeo",
    "wof:belongsto":[
        85798029,
        85633337,
        101754579,
        85687035
    ],
    "wof:breaches":[],
    "wof:concordances":{
        "sg:id":"SG_4tmYS2xntscdfBDaLPFl9w_51.402561_5.397423@1306269936"
    },
    "wof:country":"NL",
    "wof:geomhash":"1886c15fe7c55c6d77c2750147c2e528",
    "wof:hierarchy":[
        {
            "continent_id":-1,
            "country_id":85633337,
            "locality_id":101754579,
            "neighbourhood_id":85798029,
            "region_id":85687035,
            "venue_id":236293993
        }
    ],
    "wof:id":236293993,
    "wof:lastmodified":1449002162,
    "wof:name":"Locht, De",
    "wof:parent_id":85798029,
    "wof:placetype":"venue",
    "wof:superseded_by":[],
    "wof:supersedes":[],
    "wof:tags":[]
},
  "bbox": [5.397423,51.402561,5.397423,51.402561],
  "geometry": {"coordinates":[5.397423,51.402561],"type":"Point"}
}