{
  "id": 253726383,
  "type": "Feature",
  "properties": {
    "edtf:cessation":"u",
    "edtf:inception":"u",
    "geom:area":0.0,
    "geom:bbox":"6.530783,52.641251,6.530783,52.641251",
    "geom:latitude":52.641251,
    "geom:longitude":6.530783,
    "iso:country":"NL",
    "sg:address":"Hoogeveensewg 12",
    "sg:city":"Slagharen",
    "sg:classifiers":[],
    "sg:orig_category":"Pluimveebedrijven En -Handelaren",
    "sg:owner":"simplegeo",
    "sg:phone":"+31 523 681 027",
    "sg:postcode":"7776 RP",
    "sg:province":"Overijssel",
    "src:geom":"simplegeo",
    "wof:belongsto":[
        85633337,
        85687045
    ],
    "wof:breaches":[],
    "wof:concordances":{
        "sg:id":"SG_03Hesbs06k6sGWcQTinG6T_52.641251_6.530783@1306269953"
    },
    "wof:country":"NL",
    "wof:geomhash":"4345f9902d52157ea2e90690607550b8",
    "wof:hierarchy":[
        {
            "continent_id":-1,
            "country_id":85633337,
            "locality_id":-1,
            "neighbourhood_id":-1,
            "region_id":85687045,
            "venue_id":253726383
        }
    ],
    "wof:id":253726383,
    "wof:lastmodified":1449064872,
    "wof:name":"Dam, Van",
    "wof:parent_id":-1,
    "wof:placetype":"venue",
    "wof:superseded_by":[],
    "wof:supersedes":[],
    "wof:tags":[]
},
  "bbox": [6.530783,52.641251,6.530783,52.641251],
  "geometry": {"coordinates":[6.530783,52.641251],"type":"Point"}
}