{
  "id": 320257353,
  "type": "Feature",
  "properties": {
    "edtf:cessation":"u",
    "edtf:inception":"u",
    "geom:area":0.0,
    "geom:bbox":"6.928163,52.327339,6.928163,52.327339",
    "geom:latitude":52.327339,
    "geom:longitude":6.928163,
    "iso:country":"NL",
    "sg:address":"Bereklauw 96",
    "sg:city":"Oldenzaal",
    "sg:classifiers":[],
    "sg:orig_category":"Glasblazerijen",
    "sg:owner":"simplegeo",
    "sg:phone":"+31 541 511 137",
    "sg:postcode":"7577 ES",
    "sg:province":"NL.08",
    "sg:website":"http://www.perikglastechniek.nl",
    "src:geom":"simplegeo",
    "wof:belongsto":[
        85633337,
        101807227,
        85687045
    ],
    "wof:breaches":[],
    "wof:concordances":{
        "sg:id":"SG_2HQcLHJOWBULHLAcNMhaJm_52.327339_6.928163@1306269996"
    },
    "wof:country":"NL",
    "wof:geomhash":"ff9a32cf52cedb2841d52efdfa4c84b2",
    "wof:hierarchy":[
        {
            "continent_id":-1,
            "country_id":85633337,
            "locality_id":101807227,
            "neighbourhood_id":-1,
            "region_id":85687045,
            "venue_id":320257353
        }
    ],
    "wof:id":320257353,
    "wof:lastmodified":1449012363,
    "wof:name":"Perik",
    "wof:parent_id":-1,
    "wof:placetype":"venue",
    "wof:superseded_by":[],
    "wof:supersedes":[],
    "wof:tags":[]
},
  "bbox": [6.928163,52.327339,6.928163,52.327339],
  "geometry": {"coordinates":[6.928163,52.327339],"type":"Point"}
}