{
  "id": 320568573,
  "type": "Feature",
  "properties": {
    "edtf:cessation":"u",
    "edtf:inception":"u",
    "geom:area":0.0,
    "geom:bbox":"5.227003,51.954861,5.227003,51.954861",
    "geom:latitude":51.954861,
    "geom:longitude":5.227003,
    "iso:country":"NL",
    "sg:address":"Zandstraat 21",
    "sg:city":"Culemborg",
    "sg:classifiers":[
        {
            "category":"Food & Beverages",
            "subcategory":"Fruits & Vegetables",
            "type":"Retail Goods"
        }
    ],
    "sg:owner":"simplegeo",
    "sg:phone":"+31 345 532 819",
    "sg:postcode":"4101 EC",
    "sg:province":"Gelderland",
    "sg:tags":[
        "groenten"
    ],
    "src:geom":"simplegeo",
    "wof:belongsto":[
        85798491,
        85633337,
        101808619,
        85687043
    ],
    "wof:breaches":[],
    "wof:concordances":{
        "sg:id":"SG_34jvVWmWmpmVxpj4BocyT6_51.954861_5.227003@1306270000"
    },
    "wof:country":"NL",
    "wof:geomhash":"7e2f74303de0b9bf901b30b89b77ff15",
    "wof:hierarchy":[
        {
            "continent_id":-1,
            "country_id":85633337,
            "locality_id":101808619,
            "neighbourhood_id":85798491,
            "region_id":85687043,
            "venue_id":320568573
        }
    ],
    "wof:id":320568573,
    "wof:lastmodified":1449011181,
    "wof:name":"Nador",
    "wof:parent_id":85798491,
    "wof:placetype":"venue",
    "wof:superseded_by":[],
    "wof:supersedes":[],
    "wof:tags":[
        "groenten"
    ]
},
  "bbox": [5.227003,51.954861,5.227003,51.954861],
  "geometry": {"coordinates":[5.227003,51.954861],"type":"Point"}
}