{
  "id": 303102571,
  "type": "Feature",
  "properties": {
    "edtf:cessation":"u",
    "edtf:inception":"u",
    "geom:area":0.0,
    "geom:bbox":"4.451296,51.745468,4.451296,51.745468",
    "geom:latitude":51.745468,
    "geom:longitude":4.451296,
    "iso:country":"NL",
    "sg:address":"James Wattstraat 2",
    "sg:city":"Numansdorp",
    "sg:classifiers":[],
    "sg:orig_category":"Bouwnijverheidsmachines Gh",
    "sg:owner":"simplegeo",
    "sg:phone":"+31 186 659 455",
    "sg:postcode":"3281 NK",
    "sg:province":"South Holland",
    "src:geom":"simplegeo",
    "wof:belongsto":[
        85633337,
        101808535,
        85687041
    ],
    "wof:breaches":[],
    "wof:concordances":{
        "sg:id":"SG_5IhtpjfSj7UWrwKnV68RZm_51.745468_4.451296@1306269979"
    },
    "wof:country":"NL",
    "wof:geomhash":"f9e720d9747d567f1ea3b44f7126085e",
    "wof:hierarchy":[
        {
            "continent_id":-1,
            "country_id":85633337,
            "locality_id":101808535,
            "neighbourhood_id":-1,
            "region_id":85687041,
            "venue_id":303102571
        }
    ],
    "wof:id":303102571,
    "wof:lastmodified":1449000382,
    "wof:name":"Kuiken Nv",
    "wof:parent_id":-1,
    "wof:placetype":"venue",
    "wof:superseded_by":[],
    "wof:supersedes":[],
    "wof:tags":[]
},
  "bbox": [4.451296,51.745468,4.451296,51.745468],
  "geometry": {"coordinates":[4.451296,51.745468],"type":"Point"}
}