{
  "id": 219549369,
  "type": "Feature",
  "properties": {
    "edtf:cessation":"u",
    "edtf:inception":"u",
    "geom:area":0.0,
    "geom:bbox":"-80.181808,38.920101,-80.181808,38.920101",
    "geom:latitude":38.920101,
    "geom:longitude":-80.181808,
    "iso:country":"NL",
    "sg:address":"Sperwerhorst 21",
    "sg:city":"Honselersdyk",
    "sg:classifiers":[],
    "sg:orig_category":"Administratie- En Boekhoudkantoren",
    "sg:owner":"simplegeo",
    "sg:phone":"+31 174 386 990",
    "sg:postcode":"2675 WV",
    "sg:province":"West Virginia",
    "src:geom":"simplegeo",
    "wof:belongsto":[
        85633793,
        85688589
    ],
    "wof:breaches":[],
    "wof:concordances":{
        "sg:id":"SG_1aTBfMFNqVDq8X0BDsp0RT_38.920101_-80.181808@1306269927"
    },
    "wof:country":"NL",
    "wof:geomhash":"0c7d74fcba45149881b3627bb9280deb",
    "wof:hierarchy":[
        {
            "continent_id":-1,
            "country_id":85633793,
            "locality_id":-1,
            "neighbourhood_id":-1,
            "region_id":85688589,
            "venue_id":219549369
        }
    ],
    "wof:id":219549369,
    "wof:lastmodified":1449071375,
    "wof:name":"Ad Van Dijk",
    "wof:parent_id":-1,
    "wof:placetype":"venue",
    "wof:superseded_by":[],
    "wof:supersedes":[],
    "wof:tags":[]
},
  "bbox": [-80.181808,38.920101,-80.181808,38.920101],
  "geometry": {"coordinates":[-80.181808,38.920101],"type":"Point"}
}