{
  "id": 236280163,
  "type": "Feature",
  "properties": {
    "edtf:cessation":"u",
    "edtf:inception":"u",
    "geom:area":0.0,
    "geom:bbox":"6.896708,52.218445,6.896708,52.218445",
    "geom:latitude":52.218445,
    "geom:longitude":6.896708,
    "iso:country":"NL",
    "sg:address":"Raadhuisstr 23",
    "sg:city":"Enschede",
    "sg:classifiers":[],
    "sg:orig_category":"Antiquiteiten",
    "sg:owner":"simplegeo",
    "sg:phone":"+31 53 431 2495",
    "sg:postcode":"7511 HJ",
    "sg:province":"Overijssel",
    "src:geom":"simplegeo",
    "wof:belongsto":[
        85798259,
        85633337,
        101751871,
        85687045
    ],
    "wof:breaches":[],
    "wof:concordances":{
        "sg:id":"SG_4ZNKCp5mvBlYDS9Cxw7F69_52.218445_6.896708@1306269936"
    },
    "wof:country":"NL",
    "wof:geomhash":"cde28d3e281f97d2725dd067ccc769f7",
    "wof:hierarchy":[
        {
            "continent_id":-1,
            "country_id":85633337,
            "locality_id":101751871,
            "neighbourhood_id":85798259,
            "region_id":85687045,
            "venue_id":236280163
        }
    ],
    "wof:id":236280163,
    "wof:lastmodified":1449003242,
    "wof:name":"Meiners",
    "wof:parent_id":85798259,
    "wof:placetype":"venue",
    "wof:superseded_by":[],
    "wof:supersedes":[],
    "wof:tags":[]
},
  "bbox": [6.896708,52.218445,6.896708,52.218445],
  "geometry": {"coordinates":[6.896708,52.218445],"type":"Point"}
}