{
  "id": 303499635,
  "type": "Feature",
  "properties": {
    "edtf:cessation":"u",
    "edtf:inception":"u",
    "geom:area":0.0,
    "geom:bbox":"5.92677,52.197102,5.92677,52.197102",
    "geom:latitude":52.197102,
    "geom:longitude":5.92677,
    "iso:country":"NL",
    "sg:address":"Ordermolenwg 146",
    "sg:city":"Apeldoorn",
    "sg:classifiers":[],
    "sg:orig_category":"Sportverenigingen En Ontspannings- Verenigingen",
    "sg:owner":"simplegeo",
    "sg:phone":"+31 55 355 7169",
    "sg:postcode":"7312 SM",
    "sg:province":"Gelderland",
    "src:geom":"simplegeo",
    "wof:belongsto":[
        85797465,
        85633337,
        101751853,
        85687043
    ],
    "wof:breaches":[],
    "wof:concordances":{
        "sg:id":"SG_22BnZfLkILAsseSwYaQO8s_52.197102_5.926770@1306269984"
    },
    "wof:country":"NL",
    "wof:geomhash":"d238bb0bd3230a435c8b504109e95a1c",
    "wof:hierarchy":[
        {
            "continent_id":-1,
            "country_id":85633337,
            "locality_id":101751853,
            "neighbourhood_id":85797465,
            "region_id":85687043,
            "venue_id":303499635
        }
    ],
    "wof:id":303499635,
    "wof:lastmodified":1448998581,
    "wof:name":"Dakota Ruiters",
    "wof:parent_id":85797465,
    "wof:placetype":"venue",
    "wof:superseded_by":[],
    "wof:supersedes":[],
    "wof:tags":[]
},
  "bbox": [5.92677,52.197102,5.92677,52.197102],
  "geometry": {"coordinates":[5.92677,52.197102],"type":"Point"}
}