{
  "id": 303285287,
  "type": "Feature",
  "properties": {
    "edtf:cessation":"u",
    "edtf:inception":"u",
    "geom:area":0.0,
    "geom:bbox":"5.309325,51.940262,5.309325,51.940262",
    "geom:latitude":51.940262,
    "geom:longitude":5.309325,
    "iso:country":"NL",
    "sg:address":"Haardijk 8",
    "sg:city":"Zoelmond",
    "sg:classifiers":[],
    "sg:orig_category":"Schilderwerk",
    "sg:owner":"simplegeo",
    "sg:phone":"+31 345 502 058",
    "sg:postcode":"4111 LE",
    "sg:province":"Gelderland",
    "src:geom":"simplegeo",
    "wof:belongsto":[
        85633337,
        85687043
    ],
    "wof:breaches":[],
    "wof:concordances":{
        "sg:id":"SG_4GwXGvoD3eafrGFOwWeMhb_51.940262_5.309325@1306269982"
    },
    "wof:country":"NL",
    "wof:geomhash":"37ad18f18030ce8458968ddf9f7b06eb",
    "wof:hierarchy":[
        {
            "continent_id":-1,
            "country_id":85633337,
            "locality_id":-1,
            "neighbourhood_id":-1,
            "region_id":85687043,
            "venue_id":303285287
        }
    ],
    "wof:id":303285287,
    "wof:lastmodified":1448998186,
    "wof:name":"Schildersbedrijf Gazo Vof",
    "wof:parent_id":-1,
    "wof:placetype":"venue",
    "wof:superseded_by":[],
    "wof:supersedes":[],
    "wof:tags":[]
},
  "bbox": [5.309325,51.940262,5.309325,51.940262],
  "geometry": {"coordinates":[5.309325,51.940262],"type":"Point"}
}