{
  "id": 219526333,
  "type": "Feature",
  "properties": {
    "edtf:cessation":"u",
    "edtf:inception":"u",
    "geom:area":0.0,
    "geom:bbox":"-98.579796,34.781834,-98.579796,34.781834",
    "geom:latitude":34.781834,
    "geom:longitude":-98.579796,
    "iso:country":"NL",
    "sg:address":"Fokkerweg 300",
    "sg:city":"Oude Meer",
    "sg:classifiers":[],
    "sg:orig_category":"Luchtvaart- Maatschappijen",
    "sg:owner":"simplegeo",
    "sg:phone":"+31 20 605 5800",
    "sg:postcode":"1438 AN",
    "sg:province":"Oklahoma",
    "src:geom":"simplegeo",
    "wof:belongsto":[
        85633793,
        85688585
    ],
    "wof:breaches":[],
    "wof:concordances":{
        "sg:id":"SG_0tFMmzaIDIYugJny64fx04_34.781834_-98.579796@1306269927"
    },
    "wof:country":"NL",
    "wof:geomhash":"544bdbc2fa64b3a860e2c28aa2348850",
    "wof:hierarchy":[
        {
            "continent_id":-1,
            "country_id":85633793,
            "locality_id":-1,
            "neighbourhood_id":-1,
            "region_id":85688585,
            "venue_id":219526333
        }
    ],
    "wof:id":219526333,
    "wof:lastmodified":1449071481,
    "wof:name":"Dutch Bird",
    "wof:parent_id":-1,
    "wof:placetype":"venue",
    "wof:superseded_by":[],
    "wof:supersedes":[],
    "wof:tags":[]
},
  "bbox": [-98.579796,34.781834,-98.579796,34.781834],
  "geometry": {"coordinates":[-98.579796,34.781834],"type":"Point"}
}