{
  "id": 303898379,
  "type": "Feature",
  "properties": {
    "edtf:cessation":"u",
    "edtf:inception":"u",
    "geom:area":0.0,
    "geom:bbox":"5.062101,52.639812,5.062101,52.639812",
    "geom:latitude":52.639812,
    "geom:longitude":5.062101,
    "iso:country":"NL",
    "sg:address":"Schoolstg 8",
    "sg:city":"Hoorn Nh",
    "sg:classifiers":[],
    "sg:orig_category":"Herenkleding",
    "sg:owner":"simplegeo",
    "sg:phone":"+31 229 219 467",
    "sg:postcode":"1621 CE",
    "sg:province":"Noord-Holland",
    "src:geom":"simplegeo",
    "wof:belongsto":[
        85798357,
        85633337,
        101751883,
        85687053
    ],
    "wof:breaches":[],
    "wof:concordances":{
        "sg:id":"SG_2tXUF0oxzDjPynReHfdN5A_52.639812_5.062101@1306269989"
    },
    "wof:country":"NL",
    "wof:geomhash":"5a1ebf79d9cd12e7a781a268c6dd79cd",
    "wof:hierarchy":[
        {
            "continent_id":-1,
            "country_id":85633337,
            "locality_id":101751883,
            "neighbourhood_id":85798357,
            "region_id":85687053,
            "venue_id":303898379
        }
    ],
    "wof:id":303898379,
    "wof:lastmodified":1448998064,
    "wof:name":"Sir Patrick",
    "wof:parent_id":85798357,
    "wof:placetype":"venue",
    "wof:superseded_by":[],
    "wof:supersedes":[],
    "wof:tags":[]
},
  "bbox": [5.062101,52.639812,5.062101,52.639812],
  "geometry": {"coordinates":[5.062101,52.639812],"type":"Point"}
}