{
  "id": 253549243,
  "type": "Feature",
  "properties": {
    "edtf:cessation":"u",
    "edtf:inception":"u",
    "geom:area":0.0,
    "geom:bbox":"5.027681,52.214256,5.027681,52.214256",
    "geom:latitude":52.214256,
    "geom:longitude":5.027681,
    "iso:country":"NL",
    "sg:address":"Wallestein 19",
    "sg:city":"Loenen Ad Vecht",
    "sg:classifiers":[
        {
            "category":"Personal",
            "subcategory":"Nail Salon",
            "type":"Services"
        }
    ],
    "sg:owner":"simplegeo",
    "sg:phone":"+31 294 234 390",
    "sg:postcode":"3632 WL",
    "sg:province":"Utrecht",
    "sg:tags":[
        "pedicure"
    ],
    "src:geom":"simplegeo",
    "wof:belongsto":[
        85633337,
        101806991,
        85687039
    ],
    "wof:breaches":[],
    "wof:concordances":{
        "sg:id":"SG_7YR8goTxHyCLCdQRoHpPWR_52.214256_5.027681@1306269951"
    },
    "wof:country":"NL",
    "wof:geomhash":"c29129005ba341f22f975d743baf5349",
    "wof:hierarchy":[
        {
            "continent_id":-1,
            "country_id":85633337,
            "locality_id":101806991,
            "neighbourhood_id":-1,
            "region_id":85687039,
            "venue_id":253549243
        }
    ],
    "wof:id":253549243,
    "wof:lastmodified":1449063628,
    "wof:name":"Hellingwerf, Corrie",
    "wof:parent_id":-1,
    "wof:placetype":"venue",
    "wof:superseded_by":[],
    "wof:supersedes":[],
    "wof:tags":[
        "pedicure"
    ]
},
  "bbox": [5.027681,52.214256,5.027681,52.214256],
  "geometry": {"coordinates":[5.027681,52.214256],"type":"Point"}
}