{
  "id": 236404603,
  "type": "Feature",
  "properties": {
    "edtf:cessation":"u",
    "edtf:inception":"u",
    "geom:area":0.0,
    "geom:bbox":"5.373287,51.8246,5.373287,51.8246",
    "geom:latitude":51.8246,
    "geom:longitude":5.373287,
    "iso:country":"NL",
    "sg:address":"Molenstr 8A",
    "sg:city":"Varik",
    "sg:classifiers":[],
    "sg:orig_category":"Artiesten/Gezelschappen",
    "sg:owner":"simplegeo",
    "sg:phone":"+31 344 651 737",
    "sg:postcode":"4064 EG",
    "sg:province":"Gelderland",
    "src:geom":"simplegeo",
    "wof:belongsto":[
        85633337,
        85687043
    ],
    "wof:breaches":[],
    "wof:concordances":{
        "sg:id":"SG_6L892DDFgvX6mEiWDQGkce_51.824600_5.373287@1306269937"
    },
    "wof:country":"NL",
    "wof:geomhash":"87ace46548d20c7b589e7a74f8f1e38d",
    "wof:hierarchy":[
        {
            "continent_id":-1,
            "country_id":85633337,
            "locality_id":-1,
            "neighbourhood_id":-1,
            "region_id":85687043,
            "venue_id":236404603
        }
    ],
    "wof:id":236404603,
    "wof:lastmodified":1449003923,
    "wof:name":"Sam Ten Velden",
    "wof:parent_id":-1,
    "wof:placetype":"venue",
    "wof:superseded_by":[],
    "wof:supersedes":[],
    "wof:tags":[]
},
  "bbox": [5.373287,51.8246,5.373287,51.8246],
  "geometry": {"coordinates":[5.373287,51.8246],"type":"Point"}
}