{
  "id": 320774601,
  "type": "Feature",
  "properties": {
    "edtf:cessation":"u",
    "edtf:inception":"u",
    "geom:area":0.0,
    "geom:bbox":"6.288172,52.250332,6.288172,52.250332",
    "geom:latitude":52.250332,
    "geom:longitude":6.288172,
    "iso:country":"NL",
    "sg:address":"Molenstraat 10",
    "sg:city":"Bathmen",
    "sg:classifiers":[],
    "sg:orig_category":"Zuivelproducten",
    "sg:owner":"simplegeo",
    "sg:phone":"+31 570 541 230",
    "sg:postcode":"7437 AH",
    "sg:province":"Overijssel",
    "src:geom":"simplegeo",
    "wof:belongsto":[
        85633337,
        101807137,
        85687045
    ],
    "wof:breaches":[],
    "wof:concordances":{
        "sg:id":"SG_2Vki7rCuOBrJmeO4Mm2J7l_52.250332_6.288172@1306270002"
    },
    "wof:country":"NL",
    "wof:geomhash":"1103e67704221e3f3fdda7e886aae164",
    "wof:hierarchy":[
        {
            "continent_id":-1,
            "country_id":85633337,
            "locality_id":101807137,
            "neighbourhood_id":-1,
            "region_id":85687045,
            "venue_id":320774601
        }
    ],
    "wof:id":320774601,
    "wof:lastmodified":1449012719,
    "wof:name":"Vof Zuivelhandel Voortman",
    "wof:parent_id":-1,
    "wof:placetype":"venue",
    "wof:superseded_by":[],
    "wof:supersedes":[],
    "wof:tags":[]
},
  "bbox": [6.288172,52.250332,6.288172,52.250332],
  "geometry": {"coordinates":[6.288172,52.250332],"type":"Point"}
}