{
  "id": 270524425,
  "type": "Feature",
  "properties": {
    "edtf:cessation":"u",
    "edtf:inception":"u",
    "geom:area":0.0,
    "geom:bbox":"4.169187,51.995705,4.169187,51.995705",
    "geom:latitude":51.995705,
    "geom:longitude":4.169187,
    "iso:country":"NL",
    "sg:address":"Spinel 2",
    "sg:city":"'S Gravenzande",
    "sg:classifiers":[
        {
            "category":"Education",
            "subcategory":"Preschool",
            "type":"Public Place"
        }
    ],
    "sg:owner":"simplegeo",
    "sg:phone":"+31 174 413 776",
    "sg:postcode":"2691 TM",
    "sg:province":"South Holland",
    "sg:tags":[
        "kleuteronderwijs",
        "basis-"
    ],
    "src:geom":"simplegeo",
    "wof:belongsto":[
        85633337,
        101808481,
        85687041
    ],
    "wof:breaches":[],
    "wof:concordances":{
        "sg:id":"SG_4u1gQRrkUiT5fVXiDkbeCw_51.995705_4.169187@1306269966"
    },
    "wof:country":"NL",
    "wof:geomhash":"1369502926a5a427ff9a3f2307f9607b",
    "wof:hierarchy":[
        {
            "continent_id":-1,
            "country_id":85633337,
            "locality_id":101808481,
            "neighbourhood_id":-1,
            "region_id":85687041,
            "venue_id":270524425
        }
    ],
    "wof:id":270524425,
    "wof:lastmodified":1449008645,
    "wof:name":"Godfried Bomansschool",
    "wof:parent_id":-1,
    "wof:placetype":"venue",
    "wof:superseded_by":[],
    "wof:supersedes":[],
    "wof:tags":[
        "kleuteronderwijs",
        "basis-"
    ]
},
  "bbox": [4.169187,51.995705,4.169187,51.995705],
  "geometry": {"coordinates":[4.169187,51.995705],"type":"Point"}
}