{
  "id": 252761953,
  "type": "Feature",
  "properties": {
    "edtf:cessation":"u",
    "edtf:inception":"u",
    "geom:area":0.0,
    "geom:bbox":"5.763944,53.094906,5.763944,53.094906",
    "geom:latitude":53.094906,
    "geom:longitude":5.763944,
    "iso:country":"NL",
    "sg:address":"Hegedk 6",
    "sg:city":"Rauwerd",
    "sg:classifiers":[
        {
            "category":"Sports & Exercise",
            "subcategory":"Stables",
            "type":"Entertainment"
        }
    ],
    "sg:owner":"simplegeo",
    "sg:phone":"+31 566 601 639",
    "sg:postcode":"9012 DM",
    "sg:province":"Friesland",
    "sg:tags":[
        "maneges"
    ],
    "src:geom":"simplegeo",
    "wof:belongsto":[
        85633337,
        85687055
    ],
    "wof:breaches":[],
    "wof:concordances":{
        "sg:id":"SG_2qE8U6ygOXbWg1qpM3Vo9h_53.094906_5.763944@1306269943"
    },
    "wof:country":"NL",
    "wof:geomhash":"c0e92a444689298c33707038cb743ea9",
    "wof:hierarchy":[
        {
            "continent_id":-1,
            "country_id":85633337,
            "locality_id":-1,
            "neighbourhood_id":-1,
            "region_id":85687055,
            "venue_id":252761953
        }
    ],
    "wof:id":252761953,
    "wof:lastmodified":1449006245,
    "wof:name":"Himmeren",
    "wof:parent_id":-1,
    "wof:placetype":"venue",
    "wof:superseded_by":[],
    "wof:supersedes":[],
    "wof:tags":[
        "maneges"
    ]
},
  "bbox": [5.763944,53.094906,5.763944,53.094906],
  "geometry": {"coordinates":[5.763944,53.094906],"type":"Point"}
}