{
  "id": 286384919,
  "type": "Feature",
  "properties": {
    "edtf:cessation":"u",
    "edtf:inception":"u",
    "geom:area":0.0,
    "geom:bbox":"6.00558,53.324348,6.00558,53.324348",
    "geom:latitude":53.324348,
    "geom:longitude":6.00558,
    "iso:country":"NL",
    "sg:address":"Hogedijken 11",
    "sg:city":"Dokkum",
    "sg:classifiers":[],
    "sg:orig_category":"Bedrijfs- En Werkplaats- Inrichtingen",
    "sg:owner":"simplegeo",
    "sg:phone":"+31 519 292 929",
    "sg:postcode":"9101 WV",
    "sg:province":"Friesland",
    "src:geom":"simplegeo",
    "wof:belongsto":[
        85633337,
        101806131,
        85687055
    ],
    "wof:breaches":[],
    "wof:concordances":{
        "sg:id":"SG_4kRm9H1KGByS6rMISiKBKX_53.324348_6.005580@1306269968"
    },
    "wof:country":"NL",
    "wof:geomhash":"635aa609b64f131d17360d44bad5ccd8",
    "wof:hierarchy":[
        {
            "continent_id":-1,
            "country_id":85633337,
            "locality_id":101806131,
            "neighbourhood_id":-1,
            "region_id":85687055,
            "venue_id":286384919
        }
    ],
    "wof:id":286384919,
    "wof:lastmodified":1449015536,
    "wof:name":"Beuk Bv, De",
    "wof:parent_id":-1,
    "wof:placetype":"venue",
    "wof:superseded_by":[],
    "wof:supersedes":[],
    "wof:tags":[]
},
  "bbox": [6.00558,53.324348,6.00558,53.324348],
  "geometry": {"coordinates":[6.00558,53.324348],"type":"Point"}
}