{
  "id": 270501781,
  "type": "Feature",
  "properties": {
    "edtf:cessation":"u",
    "edtf:inception":"u",
    "geom:area":0.0,
    "geom:bbox":"4.606846,51.820621,4.606846,51.820621",
    "geom:latitude":51.820621,
    "geom:longitude":4.606846,
    "iso:country":"NL",
    "sg:address":"Bazuinstraat 26",
    "sg:city":"Zwijndrecht",
    "sg:classifiers":[
        {
            "category":"Education",
            "subcategory":"Preschool",
            "type":"Public Place"
        }
    ],
    "sg:owner":"simplegeo",
    "sg:phone":"+31 78 610 3270",
    "sg:postcode":"3335 DD",
    "sg:province":"Zuid-Holland",
    "sg:tags":[
        "kleuteronderwijs",
        "basis-"
    ],
    "src:geom":"simplegeo",
    "wof:belongsto":[
        85798169,
        85633337,
        101754633,
        85687041
    ],
    "wof:breaches":[],
    "wof:concordances":{
        "sg:id":"SG_260sp30pYnHXYtIdGK36PF_51.820621_4.606846@1306269966"
    },
    "wof:country":"NL",
    "wof:geomhash":"5011cee9907dda9256c396c5223a4e11",
    "wof:hierarchy":[
        {
            "continent_id":-1,
            "country_id":85633337,
            "locality_id":101754633,
            "neighbourhood_id":85798169,
            "region_id":85687041,
            "venue_id":270501781
        }
    ],
    "wof:id":270501781,
    "wof:lastmodified":1449011128,
    "wof:name":"De Develhoek",
    "wof:parent_id":85798169,
    "wof:placetype":"venue",
    "wof:superseded_by":[],
    "wof:supersedes":[],
    "wof:tags":[
        "kleuteronderwijs",
        "basis-"
    ]
},
  "bbox": [4.606846,51.820621,4.606846,51.820621],
  "geometry": {"coordinates":[4.606846,51.820621],"type":"Point"}
}