{
  "id": 219589129,
  "type": "Feature",
  "properties": {
    "edtf:cessation":"u",
    "edtf:inception":"u",
    "geom:area":0.0,
    "geom:bbox":"6.007296,50.774364,6.007296,50.774364",
    "geom:latitude":50.774364,
    "geom:longitude":6.007296,
    "iso:country":"NL",
    "sg:address":"Camilluspark 15",
    "sg:city":"Vaals",
    "sg:classifiers":[],
    "sg:orig_category":"Administratie- En Boekhoudkantoren",
    "sg:owner":"simplegeo",
    "sg:phone":"+31 43 306 3450",
    "sg:postcode":"6291 CW",
    "sg:province":"Limburg",
    "src:geom":"simplegeo",
    "wof:belongsto":[
        85862941,
        85633337,
        85687033
    ],
    "wof:breaches":[],
    "wof:concordances":{
        "sg:id":"SG_5XSl8pAVNEeej9jbyoRhKd_50.774364_6.007296@1306269927"
    },
    "wof:country":"NL",
    "wof:geomhash":"8d1951c7114a8d5139398aeacc01e13e",
    "wof:hierarchy":[
        {
            "continent_id":-1,
            "country_id":85633337,
            "locality_id":-1,
            "neighbourhood_id":85862941,
            "region_id":85687033,
            "venue_id":219589129
        }
    ],
    "wof:id":219589129,
    "wof:lastmodified":1449072263,
    "wof:name":"Braham, J G",
    "wof:parent_id":85862941,
    "wof:placetype":"venue",
    "wof:superseded_by":[],
    "wof:supersedes":[],
    "wof:tags":[]
},
  "bbox": [6.007296,50.774364,6.007296,50.774364],
  "geometry": {"coordinates":[6.007296,50.774364],"type":"Point"}
}