{
  "id": 320235205,
  "type": "Feature",
  "properties": {
    "edtf:cessation":"u",
    "edtf:inception":"u",
    "geom:area":0.0,
    "geom:bbox":"5.040684,52.514751,5.040684,52.514751",
    "geom:latitude":52.514751,
    "geom:longitude":5.040684,
    "iso:country":"NL",
    "sg:address":"Aambeeldstraat 18",
    "sg:city":"Edam",
    "sg:classifiers":[],
    "sg:orig_category":"Gespecialiseerde Bouw",
    "sg:owner":"simplegeo",
    "sg:phone":"+31 299 372 682",
    "sg:postcode":"1135 GC",
    "sg:province":"Noord-Holland",
    "src:geom":"simplegeo",
    "wof:belongsto":[
        85798393,
        85633337,
        85687053
    ],
    "wof:breaches":[],
    "wof:concordances":{
        "sg:id":"SG_6HuSjDN4N9hnXwOYNoMI9t_52.514751_5.040684@1306269996"
    },
    "wof:country":"NL",
    "wof:geomhash":"e753f9484de138e68cdbbe7af7856e34",
    "wof:hierarchy":[
        {
            "continent_id":-1,
            "country_id":85633337,
            "locality_id":-1,
            "neighbourhood_id":85798393,
            "region_id":85687053,
            "venue_id":320235205
        }
    ],
    "wof:id":320235205,
    "wof:lastmodified":1449011900,
    "wof:name":"Constructiebedrijf Honingh Bv",
    "wof:parent_id":85798393,
    "wof:placetype":"venue",
    "wof:superseded_by":[],
    "wof:supersedes":[],
    "wof:tags":[]
},
  "bbox": [5.040684,52.514751,5.040684,52.514751],
  "geometry": {"coordinates":[5.040684,52.514751],"type":"Point"}
}