{
  "id": 286677841,
  "type": "Feature",
  "properties": {
    "edtf:cessation":"u",
    "edtf:inception":"u",
    "geom:area":0.0,
    "geom:bbox":"4.270597,52.030743,4.270597,52.030743",
    "geom:latitude":52.030743,
    "geom:longitude":4.270597,
    "iso:country":"NL",
    "sg:address":"Pr Hendrikstr 51",
    "sg:city":"Wateringen",
    "sg:classifiers":[],
    "sg:orig_category":"Betonwerken",
    "sg:owner":"simplegeo",
    "sg:phone":"+31 174 295 073",
    "sg:postcode":"2291 EP",
    "sg:province":"Zuid-Holland",
    "src:geom":"simplegeo",
    "wof:belongsto":[
        85859597,
        85633337,
        101754721,
        85687041
    ],
    "wof:breaches":[],
    "wof:concordances":{
        "sg:id":"SG_2Dgsbl7AIBzKy6akSReQv1_52.030743_4.270597@1306269972"
    },
    "wof:country":"NL",
    "wof:geomhash":"77f924a79b6e29f5bab3093cecb82df4",
    "wof:hierarchy":[
        {
            "continent_id":-1,
            "country_id":85633337,
            "locality_id":101754721,
            "neighbourhood_id":85859597,
            "region_id":85687041,
            "venue_id":286677841
        }
    ],
    "wof:id":286677841,
    "wof:lastmodified":1449016242,
    "wof:name":"Holstein Bv, Gebr Van",
    "wof:parent_id":85859597,
    "wof:placetype":"venue",
    "wof:superseded_by":[],
    "wof:supersedes":[],
    "wof:tags":[]
},
  "bbox": [4.270597,52.030743,4.270597,52.030743],
  "geometry": {"coordinates":[4.270597,52.030743],"type":"Point"}
}