{
  "id": 186122163,
  "type": "Feature",
  "properties": {
    "edtf:cessation":"u",
    "edtf:inception":"u",
    "geom:area":0.0,
    "geom:bbox":"5.388466,51.351288,5.388466,51.351288",
    "geom:latitude":51.351288,
    "geom:longitude":5.388466,
    "iso:country":"NL",
    "sg:address":"Willibrordusstraat 24",
    "sg:city":"Riethoven",
    "sg:classifiers":[],
    "sg:orig_category":"Kunst And Kunstenaarsbenodigdheden",
    "sg:owner":"simplegeo",
    "sg:phone":"+31 40 201 4037",
    "sg:postcode":"5561 AX",
    "sg:province":"North Brabant",
    "src:geom":"simplegeo",
    "wof:belongsto":[
        85633337,
        101809763,
        85687035
    ],
    "wof:breaches":[],
    "wof:concordances":{
        "sg:id":"SG_0BXQmd7Mdi9VgeoCZcFJGJ_51.351288_5.388466@1306269910"
    },
    "wof:country":"NL",
    "wof:geomhash":"7e8e463a1141a60f81aa85b2b5518f7a",
    "wof:hierarchy":[
        {
            "continent_id":-1,
            "country_id":85633337,
            "locality_id":101809763,
            "neighbourhood_id":-1,
            "region_id":85687035,
            "venue_id":186122163
        }
    ],
    "wof:id":186122163,
    "wof:lastmodified":1449051903,
    "wof:name":"Paras Lijsten",
    "wof:parent_id":-1,
    "wof:placetype":"venue",
    "wof:superseded_by":[],
    "wof:supersedes":[],
    "wof:tags":[]
},
  "bbox": [5.388466,51.351288,5.388466,51.351288],
  "geometry": {"coordinates":[5.388466,51.351288],"type":"Point"}
}