{
  "id": 252877629,
  "type": "Feature",
  "properties": {
    "edtf:cessation":"u",
    "edtf:inception":"u",
    "geom:area":0.0,
    "geom:bbox":"-70.61908,41.746181,-70.61908,41.746181",
    "geom:latitude":41.746181,
    "geom:longitude":-70.61908,
    "iso:country":"NL",
    "sg:address":"Ringoven 6",
    "sg:city":"Borne",
    "sg:classifiers":[
        {
            "category":"Wholesale",
            "subcategory":"Meat",
            "type":"Manufacturing & Wholesale Goods"
        }
    ],
    "sg:owner":"simplegeo",
    "sg:phone":"+31 74 267 2845",
    "sg:postcode":"7621 GN",
    "sg:province":"Overijssel",
    "sg:tags":[
        "regeltechniek",
        "en",
        "meet-"
    ],
    "src:geom":"simplegeo",
    "wof:belongsto":[
        85688645,
        85633793,
        85950533,
        102084379
    ],
    "wof:breaches":[],
    "wof:concordances":{
        "sg:id":"SG_6glYGShhAHmFubRwqlJ1qE_41.746181_-70.619080@1306269944"
    },
    "wof:country":"NL",
    "wof:geomhash":"f43a5c4be79111539e87116439cd6090",
    "wof:hierarchy":[
        {
            "continent_id":-1,
            "country_id":85633793,
            "county_id":102084379,
            "locality_id":85950533,
            "neighbourhood_id":-1,
            "region_id":85688645,
            "venue_id":252877629
        }
    ],
    "wof:id":252877629,
    "wof:lastmodified":1449006164,
    "wof:name":"Arsis 2000",
    "wof:parent_id":-1,
    "wof:placetype":"venue",
    "wof:superseded_by":[],
    "wof:supersedes":[],
    "wof:tags":[
        "regeltechniek",
        "en",
        "meet-"
    ]
},
  "bbox": [-70.61908,41.746181,-70.61908,41.746181],
  "geometry": {"coordinates":[-70.61908,41.746181],"type":"Point"}
}