{
  "id": 286623187,
  "type": "Feature",
  "properties": {
    "edtf:cessation":"u",
    "edtf:inception":"u",
    "geom:area":0.0,
    "geom:bbox":"5.471885,51.358379,5.471885,51.358379",
    "geom:latitude":51.358379,
    "geom:longitude":5.471885,
    "iso:country":"NL",
    "sg:address":"De Smelen 64",
    "sg:city":"Valkenswaard",
    "sg:classifiers":[],
    "sg:orig_category":"Belastingconsulenten/ Belastingadviseurs",
    "sg:owner":"simplegeo",
    "sg:phone":"+31 40 204 2174",
    "sg:postcode":"5553 CT",
    "sg:province":"North Brabant",
    "src:geom":"simplegeo",
    "wof:belongsto":[
        85797043,
        85633337,
        85687035
    ],
    "wof:breaches":[],
    "wof:concordances":{
        "sg:id":"SG_2w8jcNO33U9YppCnxGu9vP_51.358379_5.471885@1306269971"
    },
    "wof:country":"NL",
    "wof:geomhash":"4d03042cd6607ec40efc424822429a55",
    "wof:hierarchy":[
        {
            "continent_id":-1,
            "country_id":85633337,
            "locality_id":-1,
            "neighbourhood_id":85797043,
            "region_id":85687035,
            "venue_id":286623187
        }
    ],
    "wof:id":286623187,
    "wof:lastmodified":1449017248,
    "wof:name":"Cremers Bv, Mr J M",
    "wof:parent_id":85797043,
    "wof:placetype":"venue",
    "wof:superseded_by":[],
    "wof:supersedes":[],
    "wof:tags":[]
},
  "bbox": [5.471885,51.358379,5.471885,51.358379],
  "geometry": {"coordinates":[5.471885,51.358379],"type":"Point"}
}