{
  "id": 320462417,
  "type": "Feature",
  "properties": {
    "edtf:cessation":"u",
    "edtf:inception":"u",
    "geom:area":0.0,
    "geom:bbox":"5.111055,52.10133,5.111055,52.10133",
    "geom:latitude":52.10133,
    "geom:longitude":5.111055,
    "iso:country":"NL",
    "sg:address":"Hogenoord 12",
    "sg:city":"Utrecht",
    "sg:classifiers":[],
    "sg:orig_category":"Goudsmeden En Zilversmeden",
    "sg:owner":"simplegeo",
    "sg:phone":"+31 30 231 8505",
    "sg:postcode":"3513 GX",
    "sg:province":"Utrecht",
    "src:geom":"simplegeo",
    "wof:belongsto":[
        85797951,
        85633337,
        101751827,
        85687039
    ],
    "wof:breaches":[],
    "wof:concordances":{
        "sg:id":"SG_6Fidvih4ZtCLwVQcKf0lwk_52.101330_5.111055@1306269998"
    },
    "wof:country":"NL",
    "wof:geomhash":"b334e55d06bcaff208841504636b9631",
    "wof:hierarchy":[
        {
            "continent_id":-1,
            "country_id":85633337,
            "locality_id":101751827,
            "neighbourhood_id":85797951,
            "region_id":85687039,
            "venue_id":320462417
        }
    ],
    "wof:id":320462417,
    "wof:lastmodified":1449014816,
    "wof:name":"Kortenhorst, C M",
    "wof:parent_id":85797951,
    "wof:placetype":"venue",
    "wof:superseded_by":[],
    "wof:supersedes":[],
    "wof:tags":[]
},
  "bbox": [5.111055,52.10133,5.111055,52.10133],
  "geometry": {"coordinates":[5.111055,52.10133],"type":"Point"}
}