{
  "id": 303103365,
  "type": "Feature",
  "properties": {
    "edtf:cessation":"u",
    "edtf:inception":"u",
    "geom:area":0.0,
    "geom:bbox":"4.581927,52.454189,4.581927,52.454189",
    "geom:latitude":52.454189,
    "geom:longitude":4.581927,
    "iso:country":"NL",
    "sg:address":"Deutzstraat 1",
    "sg:city":"Ijmuiden",
    "sg:classifiers":[],
    "sg:orig_category":"Bouwnijverheidsmachines Gh",
    "sg:owner":"simplegeo",
    "sg:phone":"+31 255 511 347",
    "sg:postcode":"1976 BL",
    "sg:province":"North Holland",
    "src:geom":"simplegeo",
    "wof:belongsto":[
        85859511,
        85633337,
        85687053
    ],
    "wof:breaches":[],
    "wof:concordances":{
        "sg:id":"SG_0lDxxUR6f7qzqf6WKTldKF_52.454189_4.581927@1306269979"
    },
    "wof:country":"NL",
    "wof:geomhash":"220e7e12b343c9b0ed2232aafaddf432",
    "wof:hierarchy":[
        {
            "continent_id":-1,
            "country_id":85633337,
            "locality_id":-1,
            "neighbourhood_id":85859511,
            "region_id":85687053,
            "venue_id":303103365
        }
    ],
    "wof:id":303103365,
    "wof:lastmodified":1448999647,
    "wof:name":"Adviescentrum Intern Transport",
    "wof:parent_id":85859511,
    "wof:placetype":"venue",
    "wof:superseded_by":[],
    "wof:supersedes":[],
    "wof:tags":[]
},
  "bbox": [4.581927,52.454189,4.581927,52.454189],
  "geometry": {"coordinates":[4.581927,52.454189],"type":"Point"}
}