{
  "id": 270014083,
  "type": "Feature",
  "properties": {
    "edtf:cessation":"u",
    "edtf:inception":"u",
    "geom:area":0.0,
    "geom:bbox":"4.629234,52.394787,4.629234,52.394787",
    "geom:latitude":52.394787,
    "geom:longitude":4.629234,
    "iso:country":"NL",
    "sg:address":"Deckerstraat 21",
    "sg:city":"Haarlem",
    "sg:classifiers":[],
    "sg:orig_category":"Financi\u00c3\u00able Adviseurs",
    "sg:owner":"simplegeo",
    "sg:phone":"+31 23 525 8305",
    "sg:postcode":"2023 DP",
    "sg:province":"Noord-Holland",
    "src:geom":"simplegeo",
    "wof:belongsto":[
        85859533,
        85633337,
        85687053
    ],
    "wof:breaches":[],
    "wof:concordances":{
        "sg:id":"SG_3F9AYFgkdD62zQVZ271pMA_52.394787_4.629234@1306269960"
    },
    "wof:country":"NL",
    "wof:geomhash":"97f8065395d5604f092abeffcdb73f31",
    "wof:hierarchy":[
        {
            "continent_id":-1,
            "country_id":85633337,
            "locality_id":-1,
            "neighbourhood_id":85859533,
            "region_id":85687053,
            "venue_id":270014083
        }
    ],
    "wof:id":270014083,
    "wof:lastmodified":1449009834,
    "wof:name":"S.R. Moormann",
    "wof:parent_id":85859533,
    "wof:placetype":"venue",
    "wof:superseded_by":[],
    "wof:supersedes":[],
    "wof:tags":[]
},
  "bbox": [4.629234,52.394787,4.629234,52.394787],
  "geometry": {"coordinates":[4.629234,52.394787],"type":"Point"}
}