{
  "id": 236293085,
  "type": "Feature",
  "properties": {
    "edtf:cessation":"u",
    "edtf:inception":"u",
    "geom:area":0.0,
    "geom:bbox":"5.162605,52.276829,5.162605,52.276829",
    "geom:latitude":52.276829,
    "geom:longitude":5.162605,
    "iso:country":"NL",
    "sg:address":"Wilhelminaplnts 9",
    "sg:city":"Bussum",
    "sg:classifiers":[],
    "sg:orig_category":"Apotheken",
    "sg:owner":"simplegeo",
    "sg:phone":"+31 35 691 4112",
    "sg:postcode":"1404 JA",
    "sg:province":"Noord-Holland",
    "sg:website":"http://www.gooiseapotheek.nl",
    "src:geom":"simplegeo",
    "wof:belongsto":[
        85797181,
        85633337,
        85687053
    ],
    "wof:breaches":[],
    "wof:concordances":{
        "sg:id":"SG_18zEOUASKDVEMNCl8PBvJL_52.276829_5.162605@1306269936"
    },
    "wof:country":"NL",
    "wof:geomhash":"c5fa7bdfea684f8f4dd08a9c046bfa6c",
    "wof:hierarchy":[
        {
            "continent_id":-1,
            "country_id":85633337,
            "locality_id":-1,
            "neighbourhood_id":85797181,
            "region_id":85687053,
            "venue_id":236293085
        }
    ],
    "wof:id":236293085,
    "wof:lastmodified":1449002161,
    "wof:name":"Gooise Apotheek",
    "wof:parent_id":85797181,
    "wof:placetype":"venue",
    "wof:superseded_by":[],
    "wof:supersedes":[],
    "wof:tags":[]
},
  "bbox": [5.162605,52.276829,5.162605,52.276829],
  "geometry": {"coordinates":[5.162605,52.276829],"type":"Point"}
}