{
  "id": 336708205,
  "type": "Feature",
  "properties": {
    "edtf:cessation":"u",
    "edtf:inception":"u",
    "geom:area":0.0,
    "geom:bbox":"5.098225,51.899422,5.098225,51.899422",
    "geom:latitude":51.899422,
    "geom:longitude":5.098225,
    "iso:country":"NL",
    "sg:address":"Pfinztalstraat 20",
    "sg:city":"Leerdam",
    "sg:classifiers":[
        {
            "category":"Professional",
            "subcategory":"Accounting & Tax Preparation",
            "type":"Services"
        }
    ],
    "sg:owner":"simplegeo",
    "sg:phone":"+31 345 599 879",
    "sg:postcode":"4143 JB",
    "sg:province":"Zuid-Holland",
    "sg:tags":[
        "accountant",
        "en",
        "-kantoren",
        "register-"
    ],
    "src:geom":"simplegeo",
    "wof:belongsto":[
        85633337,
        101808521,
        85687041
    ],
    "wof:breaches":[],
    "wof:concordances":{
        "sg:id":"SG_3smpGMRGj9uhUfhbFumgrE_51.899422_5.098225@1306270004"
    },
    "wof:country":"NL",
    "wof:geomhash":"95897131d0ffe3650894bd7a580f9177",
    "wof:hierarchy":[
        {
            "continent_id":-1,
            "country_id":85633337,
            "locality_id":101808521,
            "neighbourhood_id":-1,
            "region_id":85687041,
            "venue_id":336708205
        }
    ],
    "wof:id":336708205,
    "wof:lastmodified":1448997117,
    "wof:name":"T & M Taverne & Meun",
    "wof:parent_id":-1,
    "wof:placetype":"venue",
    "wof:superseded_by":[],
    "wof:supersedes":[],
    "wof:tags":[
        "accountant",
        "en",
        "-kantoren",
        "register-"
    ]
},
  "bbox": [5.098225,51.899422,5.098225,51.899422],
  "geometry": {"coordinates":[5.098225,51.899422],"type":"Point"}
}