{
  "id": 186199951,
  "type": "Feature",
  "properties": {
    "edtf:cessation":"u",
    "edtf:inception":"u",
    "geom:area":0.0,
    "geom:bbox":"5.985406,52.298824,5.985406,52.298824",
    "geom:latitude":52.298824,
    "geom:longitude":5.985406,
    "iso:country":"NL",
    "sg:address":"Spinfondswg 3",
    "sg:city":"Vaassen",
    "sg:classifiers":[],
    "sg:orig_category":"Kunststoffen- Verwerkende Industrie",
    "sg:owner":"simplegeo",
    "sg:phone":"+31 578 571 361",
    "sg:postcode":"8171 NT",
    "sg:province":"Gelderland",
    "sg:website":"http://www.habeva.nl",
    "src:geom":"simplegeo",
    "wof:belongsto":[
        85633337,
        85687043
    ],
    "wof:breaches":[],
    "wof:concordances":{
        "sg:id":"SG_3z1q9mQtSDxGq0yFnIXbru_52.298824_5.985406@1306269911"
    },
    "wof:country":"NL",
    "wof:geomhash":"24cf0e8766d52e33e1e4c3befc82da50",
    "wof:hierarchy":[
        {
            "continent_id":-1,
            "country_id":85633337,
            "locality_id":-1,
            "neighbourhood_id":-1,
            "region_id":85687043,
            "venue_id":186199951
        }
    ],
    "wof:id":186199951,
    "wof:lastmodified":1449050518,
    "wof:name":"Habeva Bv",
    "wof:parent_id":-1,
    "wof:placetype":"venue",
    "wof:superseded_by":[],
    "wof:supersedes":[],
    "wof:tags":[]
},
  "bbox": [5.985406,52.298824,5.985406,52.298824],
  "geometry": {"coordinates":[5.985406,52.298824],"type":"Point"}
}