{
  "id": 253586895,
  "type": "Feature",
  "properties": {
    "edtf:cessation":"u",
    "edtf:inception":"u",
    "geom:area":0.0,
    "geom:bbox":"6.874461,53.187866,6.874461,53.187866",
    "geom:latitude":53.187866,
    "geom:longitude":6.874461,
    "iso:country":"NL",
    "sg:address":"Zuiderstr 26",
    "sg:city":"Noordbroek",
    "sg:classifiers":[
        {
            "category":"Personal",
            "subcategory":"Nail Salon",
            "type":"Services"
        }
    ],
    "sg:owner":"simplegeo",
    "sg:phone":"+31 598 452 504",
    "sg:postcode":"9635 AL",
    "sg:province":"Groningen",
    "sg:tags":[
        "pedicure"
    ],
    "src:geom":"simplegeo",
    "wof:belongsto":[
        85633337,
        101837983,
        85687059
    ],
    "wof:breaches":[],
    "wof:concordances":{
        "sg:id":"SG_3LP3pSUGA3TqROzG5RrGBx_53.187866_6.874461@1306269951"
    },
    "wof:country":"NL",
    "wof:geomhash":"9be1812a66491f17c0396ab89f6d3b65",
    "wof:hierarchy":[
        {
            "continent_id":-1,
            "country_id":85633337,
            "locality_id":101837983,
            "neighbourhood_id":-1,
            "region_id":85687059,
            "venue_id":253586895
        }
    ],
    "wof:id":253586895,
    "wof:lastmodified":1449065438,
    "wof:name":"Vries-Weistra, J H De",
    "wof:parent_id":-1,
    "wof:placetype":"venue",
    "wof:superseded_by":[],
    "wof:supersedes":[],
    "wof:tags":[
        "pedicure"
    ]
},
  "bbox": [6.874461,53.187866,6.874461,53.187866],
  "geometry": {"coordinates":[6.874461,53.187866],"type":"Point"}
}